<?xml version="1.0"?>
<gpx xmlns="http://www.topografix.com/GPX/1/1" xmlns:xsi="http://www.w3.org/2001/XMLSchema-instance" xmlns:wptx1="http://www.garmin.com/xmlschemas/WaypointExtension/v1" xmlns:gpxtrx="http://www.garmin.com/xmlschemas/GpxExtensions/v3" xmlns:gpxtpx="http://www.garmin.com/xmlschemas/TrackPointExtension/v1" xmlns:gpxx="http://www.garmin.com/xmlschemas/GpxExtensions/v3" xmlns:trp="http://www.garmin.com/xmlschemas/TripExtensions/v1" xmlns:adv="http://www.garmin.com/xmlschemas/AdventuresExtensions/v1" xmlns:prs="http://www.garmin.com/xmlschemas/PressureExtension/v1" xmlns:tmd="http://www.garmin.com/xmlschemas/TripMetaDataExtensions/v1" xmlns:vptm="http://www.garmin.com/xmlschemas/ViaPointTransportationModeExtensions/v1" xmlns:ctx="http://www.garmin.com/xmlschemas/CreationTimeExtension/v1" xmlns:gpxacc="http://www.garmin.com/xmlschemas/AccelerationExtension/v1" xmlns:gpxpx="http://www.garmin.com/xmlschemas/PowerExtension/v1" xmlns:vidx1="http://www.garmin.com/xmlschemas/VideoExtension/v1" creator="Garmin Desktop App" version="1.1" xsi:schemaLocation="http://www.topografix.com/GPX/1/1 http://www.topografix.com/GPX/1/1/gpx.xsd http://www.garmin.com/xmlschemas/WaypointExtension/v1 http://www8.garmin.com/xmlschemas/WaypointExtensionv1.xsd http://www.garmin.com/xmlschemas/TrackPointExtension/v1 http://www.garmin.com/xmlschemas/TrackPointExtensionv1.xsd http://www.garmin.com/xmlschemas/GpxExtensions/v3 http://www8.garmin.com/xmlschemas/GpxExtensionsv3.xsd http://www.garmin.com/xmlschemas/ActivityExtension/v1 http://www8.garmin.com/xmlschemas/ActivityExtensionv1.xsd http://www.garmin.com/xmlschemas/AdventuresExtensions/v1 http://www8.garmin.com/xmlschemas/AdventuresExtensionv1.xsd http://www.garmin.com/xmlschemas/PressureExtension/v1 http://www.garmin.com/xmlschemas/PressureExtensionv1.xsd http://www.garmin.com/xmlschemas/TripExtensions/v1 http://www.garmin.com/xmlschemas/TripExtensionsv1.xsd http://www.garmin.com/xmlschemas/TripMetaDataExtensions/v1 http://www.garmin.com/xmlschemas/TripMetaDataExtensionsv1.xsd http://www.garmin.com/xmlschemas/ViaPointTransportationModeExtensions/v1 http://www.garmin.com/xmlschemas/ViaPointTransportationModeExtensionsv1.xsd http://www.garmin.com/xmlschemas/CreationTimeExtension/v1 http://www.garmin.com/xmlschemas/CreationTimeExtensionsv1.xsd http://www.garmin.com/xmlschemas/AccelerationExtension/v1 http://www.garmin.com/xmlschemas/AccelerationExtensionv1.xsd http://www.garmin.com/xmlschemas/PowerExtension/v1 http://www.garmin.com/xmlschemas/PowerExtensionv1.xsd http://www.garmin.com/xmlschemas/VideoExtension/v1 http://www.garmin.com/xmlschemas/VideoExtensionv1.xsd">
  <metadata>
    <link href="http://www.garmin.com">
      <text>Garmin International</text>
    </link>
    <time>2026-03-04T12:11:13Z</time>
    <bounds maxlat="46.057771285995841" maxlon="6.99479341506958" minlat="45.99501371383667" minlon="6.924691200256348"/>
  </metadata>
  <trk>
    <name>TMB Etappe 02</name>
    <extensions>
      <gpxx:TrackExtension>
        <gpxx:DisplayColor>Red</gpxx:DisplayColor>
      </gpxx:TrackExtension>
    </extensions>
    <trkseg>
      <trkpt lat="45.99501371383667" lon="6.927609443664551">
        <ele>1397.8359375</ele>
        <time>2025-08-29T07:56:19Z</time>
      </trkpt>
      <trkpt lat="45.995185375213623" lon="6.927695274353027">
        <ele>1398.66015625</ele>
      </trkpt>
      <trkpt lat="45.995228290557861" lon="6.927716732025146">
        <ele>1398.8671875</ele>
      </trkpt>
      <trkpt lat="45.995292663574219" lon="6.927695274353027">
        <ele>1399.3046875</ele>
      </trkpt>
      <trkpt lat="45.99600076675415" lon="6.927287578582764">
        <ele>1401.3359375</ele>
      </trkpt>
      <trkpt lat="45.996086597442627" lon="6.927180290222168">
        <ele>1401.84765625</ele>
      </trkpt>
      <trkpt lat="45.996193885803223" lon="6.927158832550049">
        <ele>1402.47265625</ele>
      </trkpt>
      <trkpt lat="45.996236801147461" lon="6.927158832550049">
        <ele>1402.83203125</ele>
      </trkpt>
      <trkpt lat="45.996451377868652" lon="6.927051544189453">
        <ele>1404.8671875</ele>
      </trkpt>
      <trkpt lat="45.996644496917725" lon="6.926858425140381">
        <ele>1406.66796875</ele>
      </trkpt>
      <trkpt lat="45.996644496917725" lon="6.926772594451904">
        <ele>1406.79296875</ele>
      </trkpt>
      <trkpt lat="45.996665954589844" lon="6.926729679107666">
        <ele>1406.9921875</ele>
      </trkpt>
      <trkpt lat="45.996730327606201" lon="6.926643848419189">
        <ele>1407.50390625</ele>
      </trkpt>
      <trkpt lat="45.996966361999512" lon="6.926407814025879">
        <ele>1410.21875</ele>
      </trkpt>
      <trkpt lat="45.997116565704346" lon="6.926343441009521">
        <ele>1412.67578125</ele>
      </trkpt>
      <trkpt lat="45.99726676940918" lon="6.926257610321045">
        <ele>1415.1484375</ele>
      </trkpt>
      <trkpt lat="45.997438430786133" lon="6.926107406616211">
        <ele>1417.8046875</ele>
      </trkpt>
      <trkpt lat="45.99750280380249" lon="6.926043033599854">
        <ele>1418.69921875</ele>
      </trkpt>
      <trkpt lat="45.997610092163086" lon="6.9258713722229">
        <ele>1420.05859375</ele>
      </trkpt>
      <trkpt lat="45.997653007507324" lon="6.92589282989502">
        <ele>1420.50390625</ele>
      </trkpt>
      <trkpt lat="45.997824668884277" lon="6.925699710845947">
        <ele>1422.62109375</ele>
      </trkpt>
      <trkpt lat="45.998039245605469" lon="6.925334930419922">
        <ele>1428.8125</ele>
      </trkpt>
      <trkpt lat="45.99825382232666" lon="6.924927234649658">
        <ele>1430.5859375</ele>
      </trkpt>
      <trkpt lat="45.998446941375732" lon="6.924712657928467">
        <ele>1432.6015625</ele>
      </trkpt>
      <trkpt lat="45.99851131439209" lon="6.924691200256348">
        <ele>1433.265625</ele>
      </trkpt>
      <trkpt lat="45.998575687408447" lon="6.924755573272705">
        <ele>1435.0078125</ele>
      </trkpt>
      <trkpt lat="45.998618602752686" lon="6.924948692321777">
        <ele>1438.56640625</ele>
      </trkpt>
      <trkpt lat="45.998575687408447" lon="6.925163269042969">
        <ele>1442.17578125</ele>
      </trkpt>
      <trkpt lat="45.998468399047852" lon="6.92537784576416">
        <ele>1443.1953125</ele>
      </trkpt>
      <trkpt lat="45.998446941375732" lon="6.925528049468994">
        <ele>1445.1640625</ele>
      </trkpt>
      <trkpt lat="45.998489856719971" lon="6.925678253173828">
        <ele>1449.578125</ele>
      </trkpt>
      <trkpt lat="45.99851131439209" lon="6.9258713722229">
        <ele>1452.8203125</ele>
      </trkpt>
      <trkpt lat="45.998446941375732" lon="6.926085948944092">
        <ele>1450.8671875</ele>
      </trkpt>
      <trkpt lat="45.998489856719971" lon="6.926407814025879">
        <ele>1454.11328125</ele>
      </trkpt>
      <trkpt lat="45.998575687408447" lon="6.92638635635376">
        <ele>1457.9609375</ele>
      </trkpt>
      <trkpt lat="45.998554229736328" lon="6.926515102386475">
        <ele>1457.546875</ele>
      </trkpt>
      <trkpt lat="45.998597145080566" lon="6.926579475402832">
        <ele>1459.8359375</ele>
      </trkpt>
      <trkpt lat="45.998682975769043" lon="6.92662239074707">
        <ele>1465.50390625</ele>
      </trkpt>
      <trkpt lat="45.998618602752686" lon="6.926665306091309">
        <ele>1460.4453125</ele>
      </trkpt>
      <trkpt lat="45.998704433441162" lon="6.926815509796143">
        <ele>1465.08984375</ele>
      </trkpt>
      <trkpt lat="45.99876880645752" lon="6.927073001861572">
        <ele>1467.25390625</ele>
      </trkpt>
      <trkpt lat="45.999176502227783" lon="6.927974224090576">
        <ele>1499.796875</ele>
      </trkpt>
      <trkpt lat="45.999240875244141" lon="6.928274631500244">
        <ele>1508.890625</ele>
      </trkpt>
      <trkpt lat="45.999433994293213" lon="6.928532123565674">
        <ele>1529.5234375</ele>
      </trkpt>
      <trkpt lat="45.99949836730957" lon="6.928703784942627">
        <ele>1537.19140625</ele>
      </trkpt>
      <trkpt lat="45.999433994293213" lon="6.929047107696533">
        <ele>1537.41796875</ele>
      </trkpt>
      <trkpt lat="45.999412536621094" lon="6.929240226745605">
        <ele>1538.66796875</ele>
      </trkpt>
      <trkpt lat="45.999519824981689" lon="6.929197311401367">
        <ele>1545.71484375</ele>
      </trkpt>
      <trkpt lat="45.999584197998047" lon="6.929025650024414">
        <ele>1546.734375</ele>
      </trkpt>
      <trkpt lat="45.999712944030762" lon="6.929047107696533">
        <ele>1553.98828125</ele>
      </trkpt>
      <trkpt lat="45.999777317047119" lon="6.929090023040771">
        <ele>1557.87890625</ele>
      </trkpt>
      <trkpt lat="45.999734401702881" lon="6.929197311401367">
        <ele>1556.57421875</ele>
      </trkpt>
      <trkpt lat="45.999734401702881" lon="6.929454803466797">
        <ele>1558.84375</ele>
      </trkpt>
      <trkpt lat="45.999691486358643" lon="6.92962646484375">
        <ele>1558.66796875</ele>
      </trkpt>
      <trkpt lat="45.999712944030762" lon="6.929819583892822">
        <ele>1561.32421875</ele>
      </trkpt>
      <trkpt lat="45.999798774719238" lon="6.929733753204346">
        <ele>1563.66796875</ele>
      </trkpt>
      <trkpt lat="45.999841690063477" lon="6.929583549499512">
        <ele>1564.3359375</ele>
      </trkpt>
      <trkpt lat="45.999948978424072" lon="6.929476261138916">
        <ele>1568.33984375</ele>
      </trkpt>
      <trkpt lat="46.000077724456787" lon="6.929454803466797">
        <ele>1573.92578125</ele>
      </trkpt>
      <trkpt lat="46.000142097473145" lon="6.929476261138916">
        <ele>1576.71484375</ele>
      </trkpt>
      <trkpt lat="46.000270843505859" lon="6.929390430450439">
        <ele>1582.734375</ele>
      </trkpt>
      <trkpt lat="46.000399589538574" lon="6.929411888122559">
        <ele>1589.42578125</ele>
      </trkpt>
      <trkpt lat="46.000399589538574" lon="6.929669380187988">
        <ele>1587.53125</ele>
      </trkpt>
      <trkpt lat="46.000549793243408" lon="6.929841041564941">
        <ele>1593.70703125</ele>
      </trkpt>
      <trkpt lat="46.000657081604004" lon="6.929969787597656">
        <ele>1597.609375</ele>
      </trkpt>
      <trkpt lat="46.0007643699646" lon="6.930270195007324">
        <ele>1599.4296875</ele>
      </trkpt>
      <trkpt lat="46.000807285308838" lon="6.930441856384277">
        <ele>1599.46875</ele>
      </trkpt>
      <trkpt lat="46.000828742980957" lon="6.930570602416992">
        <ele>1598.96875</ele>
      </trkpt>
      <trkpt lat="46.000871658325195" lon="6.930763721466064">
        <ele>1598.62109375</ele>
      </trkpt>
      <trkpt lat="46.000936031341553" lon="6.930763721466064">
        <ele>1601.41015625</ele>
      </trkpt>
      <trkpt lat="46.001043319702148" lon="6.93061351776123">
        <ele>1607.95703125</ele>
      </trkpt>
      <trkpt lat="46.001086235046387" lon="6.930570602416992">
        <ele>1610.40625</ele>
      </trkpt>
      <trkpt lat="46.001193523406982" lon="6.930592060089111">
        <ele>1614.734375</ele>
      </trkpt>
      <trkpt lat="46.001279354095459" lon="6.930656433105469">
        <ele>1617.41796875</ele>
      </trkpt>
      <trkpt lat="46.001343727111816" lon="6.93061351776123">
        <ele>1620.68359375</ele>
      </trkpt>
      <trkpt lat="46.001472473144531" lon="6.93061351776123">
        <ele>1626.03125</ele>
      </trkpt>
      <trkpt lat="46.001451015472412" lon="6.930677890777588">
        <ele>1624.203125</ele>
      </trkpt>
      <trkpt lat="46.001408100128174" lon="6.930828094482422">
        <ele>1620.06640625</ele>
      </trkpt>
      <trkpt lat="46.001472473144531" lon="6.930828094482422">
        <ele>1622.703125</ele>
      </trkpt>
      <trkpt lat="46.001579761505127" lon="6.930785179138184">
        <ele>1627.8671875</ele>
      </trkpt>
      <trkpt lat="46.001708507537842" lon="6.930785179138184">
        <ele>1633.12890625</ele>
      </trkpt>
      <trkpt lat="46.001729965209961" lon="6.931042671203613">
        <ele>1629.49609375</ele>
      </trkpt>
      <trkpt lat="46.001923084259033" lon="6.931214332580566">
        <ele>1634.6171875</ele>
      </trkpt>
      <trkpt lat="46.002094745635986" lon="6.931300163269043">
        <ele>1639.96484375</ele>
      </trkpt>
      <trkpt lat="46.00224494934082" lon="6.931428909301758">
        <ele>1643.44140625</ele>
      </trkpt>
      <trkpt lat="46.002287864685059" lon="6.931557655334473">
        <ele>1642.73046875</ele>
      </trkpt>
      <trkpt lat="46.002395153045654" lon="6.931643486022949">
        <ele>1645.171875</ele>
      </trkpt>
      <trkpt lat="46.00275993347168" lon="6.931729316711426">
        <ele>1657.07421875</ele>
      </trkpt>
      <trkpt lat="46.002953052520752" lon="6.931858062744141">
        <ele>1661.953125</ele>
      </trkpt>
      <trkpt lat="46.003060340881348" lon="6.931858062744141">
        <ele>1666.07421875</ele>
      </trkpt>
      <trkpt lat="46.003189086914062" lon="6.932008266448975">
        <ele>1668.13671875</ele>
      </trkpt>
      <trkpt lat="46.00351095199585" lon="6.932179927825928">
        <ele>1677.20703125</ele>
      </trkpt>
      <trkpt lat="46.003725528717041" lon="6.932222843170166">
        <ele>1685.5625</ele>
      </trkpt>
      <trkpt lat="46.003875732421875" lon="6.932330131530762">
        <ele>1690.74609375</ele>
      </trkpt>
      <trkpt lat="46.00400447845459" lon="6.932373046875">
        <ele>1696.1015625</ele>
      </trkpt>
      <trkpt lat="46.004219055175781" lon="6.932587623596191">
        <ele>1702.453125</ele>
      </trkpt>
      <trkpt lat="46.004347801208496" lon="6.932609081268311">
        <ele>1708.203125</ele>
      </trkpt>
      <trkpt lat="46.004476547241211" lon="6.932802200317383">
        <ele>1710.8671875</ele>
      </trkpt>
      <trkpt lat="46.004583835601807" lon="6.93286657333374">
        <ele>1715.11328125</ele>
      </trkpt>
      <trkpt lat="46.004540920257568" lon="6.932694911956787">
        <ele>1716.11328125</ele>
      </trkpt>
      <trkpt lat="46.00449800491333" lon="6.932587623596191">
        <ele>1715.85546875</ele>
      </trkpt>
      <trkpt lat="46.004540920257568" lon="6.932587623596191">
        <ele>1718.0859375</ele>
      </trkpt>
      <trkpt lat="46.004562377929688" lon="6.93263053894043">
        <ele>1718.40625</ele>
      </trkpt>
      <trkpt lat="46.004734039306641" lon="6.932759284973145">
        <ele>1724.77734375</ele>
      </trkpt>
      <trkpt lat="46.004862785339355" lon="6.932952404022217">
        <ele>1727.42578125</ele>
      </trkpt>
      <trkpt lat="46.005012989044189" lon="6.933081150054932">
        <ele>1732.19921875</ele>
      </trkpt>
      <trkpt lat="46.005120277404785" lon="6.933209896087646">
        <ele>1734.671875</ele>
      </trkpt>
      <trkpt lat="46.005163192749023" lon="6.933403015136719">
        <ele>1734.23046875</ele>
      </trkpt>
      <trkpt lat="46.005184650421143" lon="6.933188438415527">
        <ele>1738.26171875</ele>
      </trkpt>
      <trkpt lat="46.005442142486572" lon="6.933510303497314">
        <ele>1748.76171875</ele>
      </trkpt>
      <trkpt lat="46.00550651550293" lon="6.933531761169434">
        <ele>1752.44921875</ele>
      </trkpt>
      <trkpt lat="46.00550651550293" lon="6.9333815574646">
        <ele>1753.9296875</ele>
      </trkpt>
      <trkpt lat="46.005463600158691" lon="6.933145523071289">
        <ele>1755.54296875</ele>
      </trkpt>
      <trkpt lat="46.005356311798096" lon="6.932888031005859">
        <ele>1754.5859375</ele>
      </trkpt>
      <trkpt lat="46.005334854125977" lon="6.932651996612549">
        <ele>1758.59375</ele>
      </trkpt>
      <trkpt lat="46.005420684814453" lon="6.932694911956787">
        <ele>1763.84375</ele>
      </trkpt>
      <trkpt lat="46.005463600158691" lon="6.932759284973145">
        <ele>1765.33984375</ele>
      </trkpt>
      <trkpt lat="46.005570888519287" lon="6.932823657989502">
        <ele>1771.3046875</ele>
      </trkpt>
      <trkpt lat="46.005570888519287" lon="6.932780742645264">
        <ele>1772.46484375</ele>
      </trkpt>
      <trkpt lat="46.005549430847168" lon="6.932716369628906">
        <ele>1772.65234375</ele>
      </trkpt>
      <trkpt lat="46.005527973175049" lon="6.932587623596191">
        <ele>1774.4921875</ele>
      </trkpt>
      <trkpt lat="46.005485057830811" lon="6.932523250579834">
        <ele>1772.94921875</ele>
      </trkpt>
      <trkpt lat="46.005463600158691" lon="6.932458877563477">
        <ele>1772.9609375</ele>
      </trkpt>
      <trkpt lat="46.005442142486572" lon="6.932330131530762">
        <ele>1776.046875</ele>
      </trkpt>
      <trkpt lat="46.005485057830811" lon="6.932415962219238">
        <ele>1776.05859375</ele>
      </trkpt>
      <trkpt lat="46.005527973175049" lon="6.932480335235596">
        <ele>1777.32421875</ele>
      </trkpt>
      <trkpt lat="46.005485057830811" lon="6.93211555480957">
        <ele>1787.71484375</ele>
      </trkpt>
      <trkpt lat="46.005420684814453" lon="6.931922435760498">
        <ele>1789.96875</ele>
      </trkpt>
      <trkpt lat="46.005356311798096" lon="6.931793689727783">
        <ele>1789.5859375</ele>
      </trkpt>
      <trkpt lat="46.005356311798096" lon="6.931686401367188">
        <ele>1793.62890625</ele>
      </trkpt>
      <trkpt lat="46.005313396453857" lon="6.931428909301758">
        <ele>1798.9609375</ele>
      </trkpt>
      <trkpt lat="46.005184650421143" lon="6.931300163269043">
        <ele>1794.32421875</ele>
      </trkpt>
      <trkpt lat="46.005163192749023" lon="6.931192874908447">
        <ele>1796.39453125</ele>
      </trkpt>
      <trkpt lat="46.005163192749023" lon="6.931042671203613">
        <ele>1801.3515625</ele>
      </trkpt>
      <trkpt lat="46.005141735076904" lon="6.930935382843018">
        <ele>1803.390625</ele>
      </trkpt>
      <trkpt lat="46.005120277404785" lon="6.930806636810303">
        <ele>1806.109375</ele>
      </trkpt>
      <trkpt lat="46.005206108093262" lon="6.930763721466064">
        <ele>1813.1953125</ele>
      </trkpt>
      <trkpt lat="46.0052490234375" lon="6.930785179138184">
        <ele>1815.9296875</ele>
      </trkpt>
      <trkpt lat="46.005270481109619" lon="6.93087100982666">
        <ele>1814.578125</ele>
      </trkpt>
      <trkpt lat="46.005291938781738" lon="6.930978298187256">
        <ele>1812.48828125</ele>
      </trkpt>
      <trkpt lat="46.005463600158691" lon="6.931171417236328">
        <ele>1819.25390625</ele>
      </trkpt>
      <trkpt lat="46.005485057830811" lon="6.931042671203613">
        <ele>1824.91015625</ele>
      </trkpt>
      <trkpt lat="46.005549430847168" lon="6.930849552154541">
        <ele>1835.6015625</ele>
      </trkpt>
      <trkpt lat="46.005527973175049" lon="6.930720806121826">
        <ele>1835.6875</ele>
      </trkpt>
      <trkpt lat="46.005570888519287" lon="6.930677890777588">
        <ele>1838.20703125</ele>
      </trkpt>
      <trkpt lat="46.005635261535645" lon="6.930656433105469">
        <ele>1842.3125</ele>
      </trkpt>
      <trkpt lat="46.005656719207764" lon="6.93061351776123">
        <ele>1843.140625</ele>
      </trkpt>
      <trkpt lat="46.005721092224121" lon="6.93061351776123">
        <ele>1847.3828125</ele>
      </trkpt>
      <trkpt lat="46.005764007568359" lon="6.930570602416992">
        <ele>1849.41796875</ele>
      </trkpt>
      <trkpt lat="46.00574254989624" lon="6.930699348449707">
        <ele>1850.31640625</ele>
      </trkpt>
      <trkpt lat="46.005806922912598" lon="6.930656433105469">
        <ele>1853.90234375</ele>
      </trkpt>
      <trkpt lat="46.005849838256836" lon="6.93061351776123">
        <ele>1855.8671875</ele>
      </trkpt>
      <trkpt lat="46.005892753601074" lon="6.930592060089111">
        <ele>1858.1953125</ele>
      </trkpt>
      <trkpt lat="46.005935668945312" lon="6.930484771728516">
        <ele>1858.31640625</ele>
      </trkpt>
      <trkpt lat="46.006021499633789" lon="6.930484771728516">
        <ele>1863.55859375</ele>
      </trkpt>
      <trkpt lat="46.006064414978027" lon="6.930506229400635">
        <ele>1866.8203125</ele>
      </trkpt>
      <trkpt lat="46.006150245666504" lon="6.930506229400635">
        <ele>1871.63671875</ele>
      </trkpt>
      <trkpt lat="46.006128787994385" lon="6.930592060089111">
        <ele>1873.5625</ele>
      </trkpt>
      <trkpt lat="46.0062575340271" lon="6.930592060089111">
        <ele>1877.6796875</ele>
      </trkpt>
      <trkpt lat="46.00623607635498" lon="6.930677890777588">
        <ele>1879.9765625</ele>
      </trkpt>
      <trkpt lat="46.006343364715576" lon="6.930656433105469">
        <ele>1882.60546875</ele>
      </trkpt>
      <trkpt lat="46.006450653076172" lon="6.930720806121826">
        <ele>1888.4375</ele>
      </trkpt>
      <trkpt lat="46.006686687469482" lon="6.930763721466064">
        <ele>1897.95703125</ele>
      </trkpt>
      <trkpt lat="46.006600856781006" lon="6.930956840515137">
        <ele>1895.13671875</ele>
      </trkpt>
      <trkpt lat="46.006665229797363" lon="6.930956840515137">
        <ele>1897.76953125</ele>
      </trkpt>
      <trkpt lat="46.006772518157959" lon="6.931064128875732">
        <ele>1902.59375</ele>
      </trkpt>
      <trkpt lat="46.006793975830078" lon="6.931149959564209">
        <ele>1903.9921875</ele>
      </trkpt>
      <trkpt lat="46.006858348846436" lon="6.931192874908447">
        <ele>1907.44921875</ele>
      </trkpt>
      <trkpt lat="46.006858348846436" lon="6.931300163269043">
        <ele>1908.26171875</ele>
      </trkpt>
      <trkpt lat="46.006858348846436" lon="6.931471824645996">
        <ele>1909.5625</ele>
      </trkpt>
      <trkpt lat="46.006922721862793" lon="6.931514739990234">
        <ele>1913.96484375</ele>
      </trkpt>
      <trkpt lat="46.006901264190674" lon="6.931600570678711">
        <ele>1913.40625</ele>
      </trkpt>
      <trkpt lat="46.00698709487915" lon="6.931643486022949">
        <ele>1917.32421875</ele>
      </trkpt>
      <trkpt lat="46.00700855255127" lon="6.931729316711426">
        <ele>1915.55078125</ele>
      </trkpt>
      <trkpt lat="46.007051467895508" lon="6.931836605072021">
        <ele>1913.9453125</ele>
      </trkpt>
      <trkpt lat="46.007137298583984" lon="6.931858062744141">
        <ele>1915.3203125</ele>
      </trkpt>
      <trkpt lat="46.007266044616699" lon="6.931900978088379">
        <ele>1917.6796875</ele>
      </trkpt>
      <trkpt lat="46.007308959960938" lon="6.931922435760498">
        <ele>1918.55859375</ele>
      </trkpt>
      <trkpt lat="46.007373332977295" lon="6.93187952041626">
        <ele>1920.2578125</ele>
      </trkpt>
      <trkpt lat="46.007459163665771" lon="6.931922435760498">
        <ele>1922.28125</ele>
      </trkpt>
      <trkpt lat="46.007544994354248" lon="6.932029724121094">
        <ele>1925.1796875</ele>
      </trkpt>
      <trkpt lat="46.007673740386963" lon="6.932137012481689">
        <ele>1930.69921875</ele>
      </trkpt>
      <trkpt lat="46.007781028747559" lon="6.932287216186523">
        <ele>1937.7265625</ele>
      </trkpt>
      <trkpt lat="46.007802486419678" lon="6.932394504547119">
        <ele>1940.98046875</ele>
      </trkpt>
      <trkpt lat="46.007845401763916" lon="6.932437419891357">
        <ele>1942.7265625</ele>
      </trkpt>
      <trkpt lat="46.007823944091797" lon="6.932480335235596">
        <ele>1941.53515625</ele>
      </trkpt>
      <trkpt lat="46.007909774780273" lon="6.932566165924072">
        <ele>1941.65234375</ele>
      </trkpt>
      <trkpt lat="46.007974147796631" lon="6.932587623596191">
        <ele>1942.9375</ele>
      </trkpt>
      <trkpt lat="46.008038520812988" lon="6.932587623596191">
        <ele>1944.64453125</ele>
      </trkpt>
      <trkpt lat="46.008081436157227" lon="6.932587623596191">
        <ele>1945.78125</ele>
      </trkpt>
      <trkpt lat="46.008038520812988" lon="6.932673454284668">
        <ele>1943.5078125</ele>
      </trkpt>
      <trkpt lat="46.008081436157227" lon="6.932716369628906">
        <ele>1944.35546875</ele>
      </trkpt>
      <trkpt lat="46.008145809173584" lon="6.932802200317383">
        <ele>1945.80859375</ele>
      </trkpt>
      <trkpt lat="46.008231639862061" lon="6.932888031005859">
        <ele>1948.71484375</ele>
      </trkpt>
      <trkpt lat="46.00825309753418" lon="6.932973861694336">
        <ele>1949.40234375</ele>
      </trkpt>
      <trkpt lat="46.008274555206299" lon="6.933038234710693">
        <ele>1950.3046875</ele>
      </trkpt>
      <trkpt lat="46.008338928222656" lon="6.932995319366455">
        <ele>1953.39453125</ele>
      </trkpt>
      <trkpt lat="46.008381843566895" lon="6.933081150054932">
        <ele>1955.765625</ele>
      </trkpt>
      <trkpt lat="46.008424758911133" lon="6.933102607727051">
        <ele>1958.10546875</ele>
      </trkpt>
      <trkpt lat="46.00848913192749" lon="6.933209896087646">
        <ele>1962.5078125</ele>
      </trkpt>
      <trkpt lat="46.00874662399292" lon="6.933488845825195">
        <ele>1969.17578125</ele>
      </trkpt>
      <trkpt lat="46.008832454681396" lon="6.933553218841553">
        <ele>1970.86328125</ele>
      </trkpt>
      <trkpt lat="46.008875370025635" lon="6.933639049530029">
        <ele>1970.859375</ele>
      </trkpt>
      <trkpt lat="46.008896827697754" lon="6.933681964874268">
        <ele>1971</ele>
      </trkpt>
      <trkpt lat="46.008918285369873" lon="6.933746337890625">
        <ele>1970.85546875</ele>
      </trkpt>
      <trkpt lat="46.008961200714111" lon="6.933789253234863">
        <ele>1972.32421875</ele>
      </trkpt>
      <trkpt lat="46.00900411605835" lon="6.933853626251221">
        <ele>1973.69921875</ele>
      </trkpt>
      <trkpt lat="46.009089946746826" lon="6.933917999267578">
        <ele>1977.875</ele>
      </trkpt>
      <trkpt lat="46.009111404418945" lon="6.933960914611816">
        <ele>1978.8046875</ele>
      </trkpt>
      <trkpt lat="46.009154319763184" lon="6.933982372283936">
        <ele>1981.296875</ele>
      </trkpt>
      <trkpt lat="46.00924015045166" lon="6.934003829956055">
        <ele>1986.58984375</ele>
      </trkpt>
      <trkpt lat="46.009411811828613" lon="6.934175491333008">
        <ele>1996.1015625</ele>
      </trkpt>
      <trkpt lat="46.009519100189209" lon="6.934196949005127">
        <ele>2000.3359375</ele>
      </trkpt>
      <trkpt lat="46.009583473205566" lon="6.934282779693604">
        <ele>1999.48828125</ele>
      </trkpt>
      <trkpt lat="46.009690761566162" lon="6.934325695037842">
        <ele>2001.296875</ele>
      </trkpt>
      <trkpt lat="46.009819507598877" lon="6.934432983398438">
        <ele>2003.2421875</ele>
      </trkpt>
      <trkpt lat="46.009840965270996" lon="6.934475898742676">
        <ele>2003.359375</ele>
      </trkpt>
      <trkpt lat="46.009905338287354" lon="6.934518814086914">
        <ele>2005.125</ele>
      </trkpt>
      <trkpt lat="46.009948253631592" lon="6.934583187103271">
        <ele>2006.1484375</ele>
      </trkpt>
      <trkpt lat="46.010119915008545" lon="6.934754848480225">
        <ele>2012.88671875</ele>
      </trkpt>
      <trkpt lat="46.010184288024902" lon="6.934797763824463">
        <ele>2016.07421875</ele>
      </trkpt>
      <trkpt lat="46.010270118713379" lon="6.934840679168701">
        <ele>2020.6328125</ele>
      </trkpt>
      <trkpt lat="46.010334491729736" lon="6.934840679168701">
        <ele>2022.74609375</ele>
      </trkpt>
      <trkpt lat="46.010377407073975" lon="6.934905052185059">
        <ele>2024.1875</ele>
      </trkpt>
      <trkpt lat="46.010506153106689" lon="6.934947967529297">
        <ele>2027.11328125</ele>
      </trkpt>
      <trkpt lat="46.010549068450928" lon="6.934990882873535">
        <ele>2027.4375</ele>
      </trkpt>
      <trkpt lat="46.010634899139404" lon="6.935012340545654">
        <ele>2029.16796875</ele>
      </trkpt>
      <trkpt lat="46.010699272155762" lon="6.935055255889893">
        <ele>2030.390625</ele>
      </trkpt>
      <trkpt lat="46.010828018188477" lon="6.935076713562012">
        <ele>2033.62890625</ele>
      </trkpt>
      <trkpt lat="46.011042594909668" lon="6.935248374938965">
        <ele>2040.66015625</ele>
      </trkpt>
      <trkpt lat="46.011106967926025" lon="6.935334205627441">
        <ele>2043.765625</ele>
      </trkpt>
      <trkpt lat="46.011171340942383" lon="6.935355663299561">
        <ele>2045.39453125</ele>
      </trkpt>
      <trkpt lat="46.01123571395874" lon="6.935441493988037">
        <ele>2047.296875</ele>
      </trkpt>
      <trkpt lat="46.011278629302979" lon="6.935462951660156">
        <ele>2048.15625</ele>
      </trkpt>
      <trkpt lat="46.011343002319336" lon="6.935462951660156">
        <ele>2048.98828125</ele>
      </trkpt>
      <trkpt lat="46.011343002319336" lon="6.935527324676514">
        <ele>2050.03515625</ele>
      </trkpt>
      <trkpt lat="46.011364459991455" lon="6.935570240020752">
        <ele>2051.0546875</ele>
      </trkpt>
      <trkpt lat="46.011450290679932" lon="6.935634613037109">
        <ele>2053.53515625</ele>
      </trkpt>
      <trkpt lat="46.011514663696289" lon="6.935698986053467">
        <ele>2055.86328125</ele>
      </trkpt>
      <trkpt lat="46.011579036712646" lon="6.935720443725586">
        <ele>2057.453125</ele>
      </trkpt>
      <trkpt lat="46.011621952056885" lon="6.935741901397705">
        <ele>2058.69921875</ele>
      </trkpt>
      <trkpt lat="46.011836528778076" lon="6.935956478118896">
        <ele>2061.1640625</ele>
      </trkpt>
      <trkpt lat="46.011965274810791" lon="6.935999393463135">
        <ele>2063.8359375</ele>
      </trkpt>
      <trkpt lat="46.012115478515625" lon="6.936085224151611">
        <ele>2064.78515625</ele>
      </trkpt>
      <trkpt lat="46.012179851531982" lon="6.936213970184326">
        <ele>2065.1484375</ele>
      </trkpt>
      <trkpt lat="46.012287139892578" lon="6.936278343200684">
        <ele>2066.84375</ele>
      </trkpt>
      <trkpt lat="46.012372970581055" lon="6.936299800872803">
        <ele>2068.41796875</ele>
      </trkpt>
      <trkpt lat="46.012415885925293" lon="6.936407089233398">
        <ele>2069.63671875</ele>
      </trkpt>
      <trkpt lat="46.012458801269531" lon="6.936471462249756">
        <ele>2070.90625</ele>
      </trkpt>
      <trkpt lat="46.012609004974365" lon="6.936578750610352">
        <ele>2075.5</ele>
      </trkpt>
      <trkpt lat="46.012802124023438" lon="6.9368577003479">
        <ele>2075.62890625</ele>
      </trkpt>
      <trkpt lat="46.012952327728271" lon="6.936943531036377">
        <ele>2075.9609375</ele>
      </trkpt>
      <trkpt lat="46.01299524307251" lon="6.937007904052734">
        <ele>2075.55859375</ele>
      </trkpt>
      <trkpt lat="46.013081073760986" lon="6.937072277069092">
        <ele>2076.09765625</ele>
      </trkpt>
      <trkpt lat="46.013145446777344" lon="6.937136650085449">
        <ele>2076.5234375</ele>
      </trkpt>
      <trkpt lat="46.013209819793701" lon="6.937179565429688">
        <ele>2077.3984375</ele>
      </trkpt>
      <trkpt lat="46.013295650482178" lon="6.937179565429688">
        <ele>2079.23046875</ele>
      </trkpt>
      <trkpt lat="46.013467311859131" lon="6.937222480773926">
        <ele>2082.7890625</ele>
      </trkpt>
      <trkpt lat="46.013531684875488" lon="6.937243938446045">
        <ele>2084.23046875</ele>
      </trkpt>
      <trkpt lat="46.013660430908203" lon="6.937415599822998">
        <ele>2087.62890625</ele>
      </trkpt>
      <trkpt lat="46.013703346252441" lon="6.937437057495117">
        <ele>2088.7265625</ele>
      </trkpt>
      <trkpt lat="46.013767719268799" lon="6.937522888183594">
        <ele>2088.01953125</ele>
      </trkpt>
      <trkpt lat="46.013832092285156" lon="6.937544345855713">
        <ele>2089.1171875</ele>
      </trkpt>
      <trkpt lat="46.013853549957275" lon="6.93760871887207">
        <ele>2088.03515625</ele>
      </trkpt>
      <trkpt lat="46.013896465301514" lon="6.937651634216309">
        <ele>2088.15234375</ele>
      </trkpt>
      <trkpt lat="46.013960838317871" lon="6.937737464904785">
        <ele>2087.96875</ele>
      </trkpt>
      <trkpt lat="46.014046669006348" lon="6.937758922576904">
        <ele>2090.08203125</ele>
      </trkpt>
      <trkpt lat="46.014111042022705" lon="6.937823295593262">
        <ele>2090.734375</ele>
      </trkpt>
      <trkpt lat="46.014153957366943" lon="6.937801837921143">
        <ele>2092.515625</ele>
      </trkpt>
      <trkpt lat="46.014218330383301" lon="6.937844753265381">
        <ele>2093.75</ele>
      </trkpt>
      <trkpt lat="46.014261245727539" lon="6.937801837921143">
        <ele>2095.875</ele>
      </trkpt>
      <trkpt lat="46.014304161071777" lon="6.937801837921143">
        <ele>2097.21875</ele>
      </trkpt>
      <trkpt lat="46.014325618743896" lon="6.937844753265381">
        <ele>2097.203125</ele>
      </trkpt>
      <trkpt lat="46.014368534088135" lon="6.9378662109375">
        <ele>2098.26171875</ele>
      </trkpt>
      <trkpt lat="46.014432907104492" lon="6.937930583953857">
        <ele>2099.46875</ele>
      </trkpt>
      <trkpt lat="46.01447582244873" lon="6.937909126281738">
        <ele>2101.04296875</ele>
      </trkpt>
      <trkpt lat="46.014604568481445" lon="6.937973499298096">
        <ele>2103.0234375</ele>
      </trkpt>
      <trkpt lat="46.014668941497803" lon="6.937994956970215">
        <ele>2104.265625</ele>
      </trkpt>
      <trkpt lat="46.014711856842041" lon="6.938059329986572">
        <ele>2104.81640625</ele>
      </trkpt>
      <trkpt lat="46.01473331451416" lon="6.938102245330811">
        <ele>2105.0859375</ele>
      </trkpt>
      <trkpt lat="46.014776229858398" lon="6.938102245330811">
        <ele>2106.171875</ele>
      </trkpt>
      <trkpt lat="46.014797687530518" lon="6.938145160675049">
        <ele>2106.54296875</ele>
      </trkpt>
      <trkpt lat="46.014840602874756" lon="6.938166618347168">
        <ele>2107.6171875</ele>
      </trkpt>
      <trkpt lat="46.014883518218994" lon="6.938252449035645">
        <ele>2108.63671875</ele>
      </trkpt>
      <trkpt lat="46.015076637268066" lon="6.938402652740479">
        <ele>2110.84765625</ele>
      </trkpt>
      <trkpt lat="46.015141010284424" lon="6.938424110412598">
        <ele>2112.1796875</ele>
      </trkpt>
      <trkpt lat="46.015183925628662" lon="6.938424110412598">
        <ele>2113.45703125</ele>
      </trkpt>
      <trkpt lat="46.015269756317139" lon="6.938595771789551">
        <ele>2111.28125</ele>
      </trkpt>
      <trkpt lat="46.015312671661377" lon="6.938767433166504">
        <ele>2107.77734375</ele>
      </trkpt>
      <trkpt lat="46.015398502349854" lon="6.938788890838623">
        <ele>2109.60546875</ele>
      </trkpt>
      <trkpt lat="46.015505790710449" lon="6.938767433166504">
        <ele>2113.08203125</ele>
      </trkpt>
      <trkpt lat="46.015570163726807" lon="6.938767433166504">
        <ele>2114.8515625</ele>
      </trkpt>
      <trkpt lat="46.015613079071045" lon="6.938831806182861">
        <ele>2114.83984375</ele>
      </trkpt>
      <trkpt lat="46.015720367431641" lon="6.938831806182861">
        <ele>2117.98828125</ele>
      </trkpt>
      <trkpt lat="46.01574182510376" lon="6.9388747215271">
        <ele>2117.98046875</ele>
      </trkpt>
      <trkpt lat="46.015827655792236" lon="6.938917636871338">
        <ele>2120.078125</ele>
      </trkpt>
      <trkpt lat="46.015870571136475" lon="6.938917636871338">
        <ele>2121.4453125</ele>
      </trkpt>
      <trkpt lat="46.016085147857666" lon="6.939024925231934">
        <ele>2127.74609375</ele>
      </trkpt>
      <trkpt lat="46.016213893890381" lon="6.93911075592041">
        <ele>2131.70703125</ele>
      </trkpt>
      <trkpt lat="46.016256809234619" lon="6.939089298248291">
        <ele>2133.2265625</ele>
      </trkpt>
      <trkpt lat="46.016342639923096" lon="6.939132213592529">
        <ele>2135.5</ele>
      </trkpt>
      <trkpt lat="46.016471385955811" lon="6.939132213592529">
        <ele>2139.8359375</ele>
      </trkpt>
      <trkpt lat="46.016578674316406" lon="6.939153671264648">
        <ele>2142.91796875</ele>
      </trkpt>
      <trkpt lat="46.016643047332764" lon="6.939196586608887">
        <ele>2144.0390625</ele>
      </trkpt>
      <trkpt lat="46.016685962677002" lon="6.939260959625244">
        <ele>2143.9140625</ele>
      </trkpt>
      <trkpt lat="46.01672887802124" lon="6.939282417297363">
        <ele>2144.84375</ele>
      </trkpt>
      <trkpt lat="46.016793251037598" lon="6.939282417297363">
        <ele>2147.0234375</ele>
      </trkpt>
      <trkpt lat="46.016836166381836" lon="6.939325332641602">
        <ele>2147.44140625</ele>
      </trkpt>
      <trkpt lat="46.016879081726074" lon="6.939325332641602">
        <ele>2148.8984375</ele>
      </trkpt>
      <trkpt lat="46.016943454742432" lon="6.93936824798584">
        <ele>2150.05078125</ele>
      </trkpt>
      <trkpt lat="46.01698637008667" lon="6.939432621002197">
        <ele>2149.8046875</ele>
      </trkpt>
      <trkpt lat="46.017029285430908" lon="6.939475536346436">
        <ele>2150.03515625</ele>
      </trkpt>
      <trkpt lat="46.017093658447266" lon="6.939475536346436">
        <ele>2151.8828125</ele>
      </trkpt>
      <trkpt lat="46.017158031463623" lon="6.939518451690674">
        <ele>2152.9375</ele>
      </trkpt>
      <trkpt lat="46.017286777496338" lon="6.939647197723389">
        <ele>2154.90625</ele>
      </trkpt>
      <trkpt lat="46.017329692840576" lon="6.939647197723389">
        <ele>2156.34765625</ele>
      </trkpt>
      <trkpt lat="46.017372608184814" lon="6.93960428237915">
        <ele>2158.31640625</ele>
      </trkpt>
      <trkpt lat="46.017501354217529" lon="6.93962574005127">
        <ele>2162.3046875</ele>
      </trkpt>
      <trkpt lat="46.017544269561768" lon="6.93962574005127">
        <ele>2163.71875</ele>
      </trkpt>
      <trkpt lat="46.017673015594482" lon="6.939690113067627">
        <ele>2167.74609375</ele>
      </trkpt>
      <trkpt lat="46.01773738861084" lon="6.939690113067627">
        <ele>2169.98828125</ele>
      </trkpt>
      <trkpt lat="46.017758846282959" lon="6.939733028411865">
        <ele>2170.69140625</ele>
      </trkpt>
      <trkpt lat="46.017780303955078" lon="6.939797401428223">
        <ele>2171.44140625</ele>
      </trkpt>
      <trkpt lat="46.017844676971436" lon="6.939840316772461">
        <ele>2173.2578125</ele>
      </trkpt>
      <trkpt lat="46.017930507659912" lon="6.939947605133057">
        <ele>2175.5625</ele>
      </trkpt>
      <trkpt lat="46.017951965332031" lon="6.940011978149414">
        <ele>2174.9453125</ele>
      </trkpt>
      <trkpt lat="46.01797342300415" lon="6.940054893493652">
        <ele>2174.75390625</ele>
      </trkpt>
      <trkpt lat="46.01799488067627" lon="6.94011926651001">
        <ele>2174.1875</ele>
      </trkpt>
      <trkpt lat="46.018016338348389" lon="6.940205097198486">
        <ele>2173.2578125</ele>
      </trkpt>
      <trkpt lat="46.018059253692627" lon="6.940248012542725">
        <ele>2173.80078125</ele>
      </trkpt>
      <trkpt lat="46.018080711364746" lon="6.940290927886963">
        <ele>2173.70703125</ele>
      </trkpt>
      <trkpt lat="46.018166542053223" lon="6.94035530090332">
        <ele>2175.30859375</ele>
      </trkpt>
      <trkpt lat="46.018209457397461" lon="6.940462589263916">
        <ele>2174.93359375</ele>
      </trkpt>
      <trkpt lat="46.018402576446533" lon="6.940891742706299">
        <ele>2173.74609375</ele>
      </trkpt>
      <trkpt lat="46.019132137298584" lon="6.941707134246826">
        <ele>2167.21875</ele>
      </trkpt>
      <trkpt lat="46.019175052642822" lon="6.941921710968018">
        <ele>2162.39453125</ele>
      </trkpt>
      <trkpt lat="46.019389629364014" lon="6.94211483001709">
        <ele>2160.953125</ele>
      </trkpt>
      <trkpt lat="46.019454002380371" lon="6.94211483001709">
        <ele>2162.0078125</ele>
      </trkpt>
      <trkpt lat="46.019496917724609" lon="6.942157745361328">
        <ele>2160.51171875</ele>
      </trkpt>
      <trkpt lat="46.019625663757324" lon="6.942243576049805">
        <ele>2156.9765625</ele>
      </trkpt>
      <trkpt lat="46.019690036773682" lon="6.942307949066162">
        <ele>2155.125</ele>
      </trkpt>
      <trkpt lat="46.019797325134277" lon="6.942436695098877">
        <ele>2152.3828125</ele>
      </trkpt>
      <trkpt lat="46.019861698150635" lon="6.942543983459473">
        <ele>2149.27734375</ele>
      </trkpt>
      <trkpt lat="46.019861698150635" lon="6.942651271820068">
        <ele>2146.48046875</ele>
      </trkpt>
      <trkpt lat="46.019904613494873" lon="6.942737102508545">
        <ele>2144.2421875</ele>
      </trkpt>
      <trkpt lat="46.020033359527588" lon="6.942801475524902">
        <ele>2142.73828125</ele>
      </trkpt>
      <trkpt lat="46.020119190216064" lon="6.942887306213379">
        <ele>2140.93359375</ele>
      </trkpt>
      <trkpt lat="46.020205020904541" lon="6.942930221557617">
        <ele>2140.25</ele>
      </trkpt>
      <trkpt lat="46.02022647857666" lon="6.943058967590332">
        <ele>2137.70703125</ele>
      </trkpt>
      <trkpt lat="46.02022647857666" lon="6.943166255950928">
        <ele>2135.53125</ele>
      </trkpt>
      <trkpt lat="46.020290851593018" lon="6.943337917327881">
        <ele>2131.92578125</ele>
      </trkpt>
      <trkpt lat="46.020398139953613" lon="6.943423748016357">
        <ele>2129.75390625</ele>
      </trkpt>
      <trkpt lat="46.020462512969971" lon="6.943445205688477">
        <ele>2129.3984375</ele>
      </trkpt>
      <trkpt lat="46.020526885986328" lon="6.943509578704834">
        <ele>2127.9609375</ele>
      </trkpt>
      <trkpt lat="46.020569801330566" lon="6.943531036376953">
        <ele>2127.62890625</ele>
      </trkpt>
      <trkpt lat="46.020634174346924" lon="6.943595409393311">
        <ele>2126.38671875</ele>
      </trkpt>
      <trkpt lat="46.020848751068115" lon="6.943702697753906">
        <ele>2125.4765625</ele>
      </trkpt>
      <trkpt lat="46.020891666412354" lon="6.943788528442383">
        <ele>2124.0625</ele>
      </trkpt>
      <trkpt lat="46.021084785461426" lon="6.943938732147217">
        <ele>2123.2578125</ele>
      </trkpt>
      <trkpt lat="46.021149158477783" lon="6.944067478179932">
        <ele>2121.63671875</ele>
      </trkpt>
      <trkpt lat="46.021256446838379" lon="6.94411039352417">
        <ele>2121.24609375</ele>
      </trkpt>
      <trkpt lat="46.021385192871094" lon="6.944239139556885">
        <ele>2118.24609375</ele>
      </trkpt>
      <trkpt lat="46.021449565887451" lon="6.944324970245361">
        <ele>2116.26953125</ele>
      </trkpt>
      <trkpt lat="46.02147102355957" lon="6.944282054901123">
        <ele>2117.5078125</ele>
      </trkpt>
      <trkpt lat="46.021535396575928" lon="6.944303512573242">
        <ele>2117.26953125</ele>
      </trkpt>
      <trkpt lat="46.021599769592285" lon="6.944432258605957">
        <ele>2114.32421875</ele>
      </trkpt>
      <trkpt lat="46.021749973297119" lon="6.944475173950195">
        <ele>2114.1796875</ele>
      </trkpt>
      <trkpt lat="46.021835803985596" lon="6.944668292999268">
        <ele>2110.140625</ele>
      </trkpt>
      <trkpt lat="46.022350788116455" lon="6.944925785064697">
        <ele>2106.03125</ele>
      </trkpt>
      <trkpt lat="46.022458076477051" lon="6.944990158081055">
        <ele>2104.640625</ele>
      </trkpt>
      <trkpt lat="46.022458076477051" lon="6.94509744644165">
        <ele>2101.59765625</ele>
      </trkpt>
      <trkpt lat="46.022500991821289" lon="6.94511890411377">
        <ele>2101.140625</ele>
      </trkpt>
      <trkpt lat="46.022608280181885" lon="6.94511890411377">
        <ele>2101.51171875</ele>
      </trkpt>
      <trkpt lat="46.022779941558838" lon="6.945269107818604">
        <ele>2098.125</ele>
      </trkpt>
      <trkpt lat="46.022994518280029" lon="6.945397853851318">
        <ele>2092.69921875</ele>
      </trkpt>
      <trkpt lat="46.023144721984863" lon="6.945440769195557">
        <ele>2090.390625</ele>
      </trkpt>
      <trkpt lat="46.023209095001221" lon="6.945548057556152">
        <ele>2088.0625</ele>
      </trkpt>
      <trkpt lat="46.023380756378174" lon="6.94561243057251">
        <ele>2086.15625</ele>
      </trkpt>
      <trkpt lat="46.023402214050293" lon="6.945655345916748">
        <ele>2085.55859375</ele>
      </trkpt>
      <trkpt lat="46.023530960083008" lon="6.945698261260986">
        <ele>2084.69140625</ele>
      </trkpt>
      <trkpt lat="46.023552417755127" lon="6.945805549621582">
        <ele>2083.21484375</ele>
      </trkpt>
      <trkpt lat="46.02348804473877" lon="6.945891380310059">
        <ele>2081.25390625</ele>
      </trkpt>
      <trkpt lat="46.023530960083008" lon="6.945998668670654">
        <ele>2078.7265625</ele>
      </trkpt>
      <trkpt lat="46.023530960083008" lon="6.946127414703369">
        <ele>2075.71875</ele>
      </trkpt>
      <trkpt lat="46.023445129394531" lon="6.946234703063965">
        <ele>2073.0859375</ele>
      </trkpt>
      <trkpt lat="46.023445129394531" lon="6.946341991424561">
        <ele>2070.52734375</ele>
      </trkpt>
      <trkpt lat="46.023423671722412" lon="6.946406364440918">
        <ele>2068.9375</ele>
      </trkpt>
      <trkpt lat="46.023187637329102" lon="6.946535110473633">
        <ele>2065.08984375</ele>
      </trkpt>
      <trkpt lat="46.02348804473877" lon="6.946706771850586">
        <ele>2061.76953125</ele>
      </trkpt>
      <trkpt lat="46.023659706115723" lon="6.946878433227539">
        <ele>2057.5</ele>
      </trkpt>
      <trkpt lat="46.023681163787842" lon="6.946964263916016">
        <ele>2055.1484375</ele>
      </trkpt>
      <trkpt lat="46.023638248443604" lon="6.947050094604492">
        <ele>2053.078125</ele>
      </trkpt>
      <trkpt lat="46.023337841033936" lon="6.94735050201416">
        <ele>2045.09375</ele>
      </trkpt>
      <trkpt lat="46.023209095001221" lon="6.947436332702637">
        <ele>2042.94921875</ele>
      </trkpt>
      <trkpt lat="46.023294925689697" lon="6.94760799407959">
        <ele>2039.73828125</ele>
      </trkpt>
      <trkpt lat="46.023423671722412" lon="6.947715282440186">
        <ele>2037.9375</ele>
      </trkpt>
      <trkpt lat="46.023552417755127" lon="6.947951316833496">
        <ele>2034.08203125</ele>
      </trkpt>
      <trkpt lat="46.023509502410889" lon="6.948015689849854">
        <ele>2032.828125</ele>
      </trkpt>
      <trkpt lat="46.023616790771484" lon="6.948187351226807">
        <ele>2030.296875</ele>
      </trkpt>
      <trkpt lat="46.023681163787842" lon="6.948273181915283">
        <ele>2028.828125</ele>
      </trkpt>
      <trkpt lat="46.023702621459961" lon="6.948380470275879">
        <ele>2027.1640625</ele>
      </trkpt>
      <trkpt lat="46.023573875427246" lon="6.948552131652832">
        <ele>2024.109375</ele>
      </trkpt>
      <trkpt lat="46.02346658706665" lon="6.948809623718262">
        <ele>2018.6484375</ele>
      </trkpt>
      <trkpt lat="46.023595333099365" lon="6.949174404144287">
        <ele>2014.00390625</ele>
      </trkpt>
      <trkpt lat="46.023616790771484" lon="6.949281692504883">
        <ele>2012.1484375</ele>
      </trkpt>
      <trkpt lat="46.02398157119751" lon="6.949796676635742">
        <ele>2005.1328125</ele>
      </trkpt>
      <trkpt lat="46.024110317230225" lon="6.950054168701172">
        <ele>2002.57421875</ele>
      </trkpt>
      <trkpt lat="46.024174690246582" lon="6.95035457611084">
        <ele>1999.19140625</ele>
      </trkpt>
      <trkpt lat="46.02421760559082" lon="6.950547695159912">
        <ele>1997.0625</ele>
      </trkpt>
      <trkpt lat="46.024260520935059" lon="6.950719356536865">
        <ele>1995.25</ele>
      </trkpt>
      <trkpt lat="46.024303436279297" lon="6.95110559463501">
        <ele>1994.5859375</ele>
      </trkpt>
      <trkpt lat="46.024346351623535" lon="6.951298713684082">
        <ele>1994.8515625</ele>
      </trkpt>
      <trkpt lat="46.024496555328369" lon="6.951427459716797">
        <ele>1996.46484375</ele>
      </trkpt>
      <trkpt lat="46.024603843688965" lon="6.951534748077393">
        <ele>1997.2109375</ele>
      </trkpt>
      <trkpt lat="46.024518013000488" lon="6.951770782470703">
        <ele>1997.3671875</ele>
      </trkpt>
      <trkpt lat="46.024496555328369" lon="6.951835155487061">
        <ele>1997.4921875</ele>
      </trkpt>
      <trkpt lat="46.024496555328369" lon="6.951963901519775">
        <ele>1998.125</ele>
      </trkpt>
      <trkpt lat="46.024518013000488" lon="6.952135562896729">
        <ele>1999.18359375</ele>
      </trkpt>
      <trkpt lat="46.024496555328369" lon="6.952307224273682">
        <ele>1999.8125</ele>
      </trkpt>
      <trkpt lat="46.024367809295654" lon="6.952693462371826">
        <ele>2000.83984375</ele>
      </trkpt>
      <trkpt lat="46.024646759033203" lon="6.953122615814209">
        <ele>2008.23828125</ele>
      </trkpt>
      <trkpt lat="46.024775505065918" lon="6.953208446502686">
        <ele>2010.6875</ele>
      </trkpt>
      <trkpt lat="46.024818420410156" lon="6.953229904174805">
        <ele>2011.44921875</ele>
      </trkpt>
      <trkpt lat="46.024861335754395" lon="6.953272819519043">
        <ele>2012.56640625</ele>
      </trkpt>
      <trkpt lat="46.024882793426514" lon="6.9533371925354">
        <ele>2014.48046875</ele>
      </trkpt>
      <trkpt lat="46.024947166442871" lon="6.953401565551758">
        <ele>2017.0078125</ele>
      </trkpt>
      <trkpt lat="46.024904251098633" lon="6.953487396240234">
        <ele>2018.5859375</ele>
      </trkpt>
      <trkpt lat="46.024990081787109" lon="6.953508853912354">
        <ele>2020.3828125</ele>
      </trkpt>
      <trkpt lat="46.025161743164062" lon="6.953487396240234">
        <ele>2022.3203125</ele>
      </trkpt>
      <trkpt lat="46.025354862213135" lon="6.953508853912354">
        <ele>2025.66015625</ele>
      </trkpt>
      <trkpt lat="46.025247573852539" lon="6.95359468460083">
        <ele>2026.5</ele>
      </trkpt>
      <trkpt lat="46.02522611618042" lon="6.953744888305664">
        <ele>2030.265625</ele>
      </trkpt>
      <trkpt lat="46.025097370147705" lon="6.95385217666626">
        <ele>2031.05078125</ele>
      </trkpt>
      <trkpt lat="46.025011539459229" lon="6.953873634338379">
        <ele>2030.1875</ele>
      </trkpt>
      <trkpt lat="46.024990081787109" lon="6.953980922698975">
        <ele>2032.60546875</ele>
      </trkpt>
      <trkpt lat="46.024904251098633" lon="6.954174041748047">
        <ele>2035.6875</ele>
      </trkpt>
      <trkpt lat="46.024861335754395" lon="6.954238414764404">
        <ele>2036.25</ele>
      </trkpt>
      <trkpt lat="46.024839878082275" lon="6.954345703125">
        <ele>2038.08984375</ele>
      </trkpt>
      <trkpt lat="46.024646759033203" lon="6.954667568206787">
        <ele>2040.84765625</ele>
      </trkpt>
      <trkpt lat="46.024518013000488" lon="6.954967975616455">
        <ele>2043.49609375</ele>
      </trkpt>
      <trkpt lat="46.025269031524658" lon="6.955053806304932">
        <ele>2060.42578125</ele>
      </trkpt>
      <trkpt lat="46.025676727294922" lon="6.955118179321289">
        <ele>2066.6328125</ele>
      </trkpt>
      <trkpt lat="46.025869846343994" lon="6.955204010009766">
        <ele>2070.31640625</ele>
      </trkpt>
      <trkpt lat="46.02597713470459" lon="6.955268383026123">
        <ele>2072.703125</ele>
      </trkpt>
      <trkpt lat="46.026041507720947" lon="6.955375671386719">
        <ele>2075.13671875</ele>
      </trkpt>
      <trkpt lat="46.026127338409424" lon="6.955547332763672">
        <ele>2078.96484375</ele>
      </trkpt>
      <trkpt lat="46.026191711425781" lon="6.955547332763672">
        <ele>2079.890625</ele>
      </trkpt>
      <trkpt lat="46.026320457458496" lon="6.955633163452148">
        <ele>2083.07421875</ele>
      </trkpt>
      <trkpt lat="46.026363372802734" lon="6.955525875091553">
        <ele>2082.01953125</ele>
      </trkpt>
      <trkpt lat="46.026642322540283" lon="6.955375671386719">
        <ele>2083.37890625</ele>
      </trkpt>
      <trkpt lat="46.026792526245117" lon="6.955375671386719">
        <ele>2085.390625</ele>
      </trkpt>
      <trkpt lat="46.02696418762207" lon="6.955482959747314">
        <ele>2089.80078125</ele>
      </trkpt>
      <trkpt lat="46.027157306671143" lon="6.955440044403076">
        <ele>2092.7734375</ele>
      </trkpt>
      <trkpt lat="46.027200222015381" lon="6.955397129058838">
        <ele>2092.80859375</ele>
      </trkpt>
      <trkpt lat="46.027188319712877" lon="6.955463765189052">
        <ele>2093.83203125</ele>
      </trkpt>
      <trkpt lat="46.027135848999023" lon="6.955568790435791">
        <ele>2094.79296875</ele>
      </trkpt>
      <trkpt lat="46.027135848999023" lon="6.955654621124268">
        <ele>2096.41796875</ele>
      </trkpt>
      <trkpt lat="46.027178764343262" lon="6.955761909484863">
        <ele>2099.27734375</ele>
      </trkpt>
      <trkpt lat="46.027286052703857" lon="6.956062316894531">
        <ele>2106.03515625</ele>
      </trkpt>
      <trkpt lat="46.027436256408691" lon="6.956319808959961">
        <ele>2112.33984375</ele>
      </trkpt>
      <trkpt lat="46.027865409851074" lon="6.956641674041748">
        <ele>2123.08984375</ele>
      </trkpt>
      <trkpt lat="46.027779579162598" lon="6.956706047058105">
        <ele>2122.99609375</ele>
      </trkpt>
      <trkpt lat="46.027779579162598" lon="6.956920623779297">
        <ele>2127.08984375</ele>
      </trkpt>
      <trkpt lat="46.027801036834717" lon="6.95709228515625">
        <ele>2130.73828125</ele>
      </trkpt>
      <trkpt lat="46.027929782867432" lon="6.957521438598633">
        <ele>2139.33203125</ele>
      </trkpt>
      <trkpt lat="46.028015613555908" lon="6.957628726959229">
        <ele>2141.31640625</ele>
      </trkpt>
      <trkpt lat="46.028101444244385" lon="6.957757472991943">
        <ele>2143.87890625</ele>
      </trkpt>
      <trkpt lat="46.028165817260742" lon="6.957886219024658">
        <ele>2146.41796875</ele>
      </trkpt>
      <trkpt lat="46.029002666473389" lon="6.958036422729492">
        <ele>2170.72265625</ele>
      </trkpt>
      <trkpt lat="46.029345989227295" lon="6.957778930664062">
        <ele>2173.73828125</ele>
      </trkpt>
      <trkpt lat="46.029496192932129" lon="6.957564353942871">
        <ele>2172.3828125</ele>
      </trkpt>
      <trkpt lat="46.029539108276367" lon="6.957564353942871">
        <ele>2173.51953125</ele>
      </trkpt>
      <trkpt lat="46.029517650604248" lon="6.957972049713135">
        <ele>2182.51953125</ele>
      </trkpt>
      <trkpt lat="46.02921724319458" lon="6.958615779876709">
        <ele>2182.60546875</ele>
      </trkpt>
      <trkpt lat="46.029195785522461" lon="6.9588303565979">
        <ele>2182.57421875</ele>
      </trkpt>
      <trkpt lat="46.029324531555176" lon="6.959044933319092">
        <ele>2187.94140625</ele>
      </trkpt>
      <trkpt lat="46.029367446899414" lon="6.959109306335449">
        <ele>2189.78125</ele>
      </trkpt>
      <trkpt lat="46.029517650604248" lon="6.959431171417236">
        <ele>2195.0703125</ele>
      </trkpt>
      <trkpt lat="46.029646396636963" lon="6.959795951843262">
        <ele>2198.91015625</ele>
      </trkpt>
      <trkpt lat="46.029646396636963" lon="6.959967613220215">
        <ele>2199.8046875</ele>
      </trkpt>
      <trkpt lat="46.029624938964844" lon="6.960031986236572">
        <ele>2200.3828125</ele>
      </trkpt>
      <trkpt lat="46.029624938964844" lon="6.96009635925293">
        <ele>2201.5234375</ele>
      </trkpt>
      <trkpt lat="46.029667854309082" lon="6.960160732269287">
        <ele>2203.7890625</ele>
      </trkpt>
      <trkpt lat="46.02971076965332" lon="6.960203647613525">
        <ele>2205.6640625</ele>
      </trkpt>
      <trkpt lat="46.029689311981201" lon="6.960246562957764">
        <ele>2205.86328125</ele>
      </trkpt>
      <trkpt lat="46.029646396636963" lon="6.960268020629883">
        <ele>2205.1328125</ele>
      </trkpt>
      <trkpt lat="46.029539108276367" lon="6.96033239364624">
        <ele>2203.5</ele>
      </trkpt>
      <trkpt lat="46.029345989227295" lon="6.960568428039551">
        <ele>2201.01171875</ele>
      </trkpt>
      <trkpt lat="46.029024124145508" lon="6.961040496826172">
        <ele>2190.8671875</ele>
      </trkpt>
      <trkpt lat="46.02895975112915" lon="6.96134090423584">
        <ele>2188.84765625</ele>
      </trkpt>
      <trkpt lat="46.029024124145508" lon="6.961641311645508">
        <ele>2192.90234375</ele>
      </trkpt>
      <trkpt lat="46.029002666473389" lon="6.961920261383057">
        <ele>2192.4609375</ele>
      </trkpt>
      <trkpt lat="46.029024124145508" lon="6.962006092071533">
        <ele>2193.61328125</ele>
      </trkpt>
      <trkpt lat="46.029002666473389" lon="6.962177753448486">
        <ele>2193.015625</ele>
      </trkpt>
      <trkpt lat="46.029024124145508" lon="6.962349414825439">
        <ele>2194.27734375</ele>
      </trkpt>
      <trkpt lat="46.02898120880127" lon="6.962563991546631">
        <ele>2193.4140625</ele>
      </trkpt>
      <trkpt lat="46.02898120880127" lon="6.962628364562988">
        <ele>2193.7578125</ele>
      </trkpt>
      <trkpt lat="46.028916835784912" lon="6.962928771972656">
        <ele>2192.68359375</ele>
      </trkpt>
      <trkpt lat="46.028916835784912" lon="6.963143348693848">
        <ele>2193.8046875</ele>
      </trkpt>
      <trkpt lat="46.028831005096436" lon="6.96333646774292">
        <ele>2191.36328125</ele>
      </trkpt>
      <trkpt lat="46.028680801391602" lon="6.96408748626709">
        <ele>2190.4609375</ele>
      </trkpt>
      <trkpt lat="46.028702259063721" lon="6.96434497833252">
        <ele>2190.828125</ele>
      </trkpt>
      <trkpt lat="46.028659343719482" lon="6.964688301086426">
        <ele>2188.20703125</ele>
      </trkpt>
      <trkpt lat="46.028745174407959" lon="6.965010166168213">
        <ele>2190.9609375</ele>
      </trkpt>
      <trkpt lat="46.028745174407959" lon="6.965181827545166">
        <ele>2189.94140625</ele>
      </trkpt>
      <trkpt lat="46.02872371673584" lon="6.965353488922119">
        <ele>2187.87109375</ele>
      </trkpt>
      <trkpt lat="46.028702259063721" lon="6.965460777282715">
        <ele>2186.13671875</ele>
      </trkpt>
      <trkpt lat="46.02872371673584" lon="6.965675354003906">
        <ele>2185.8828125</ele>
      </trkpt>
      <trkpt lat="46.028745174407959" lon="6.965718269348145">
        <ele>2186.7421875</ele>
      </trkpt>
      <trkpt lat="46.028745174407959" lon="6.965804100036621">
        <ele>2187.609375</ele>
      </trkpt>
      <trkpt lat="46.028766632080078" lon="6.965889930725098">
        <ele>2190.6484375</ele>
      </trkpt>
      <trkpt lat="46.028831005096436" lon="6.965932846069336">
        <ele>2194.87890625</ele>
      </trkpt>
      <trkpt lat="46.028873920440674" lon="6.965975761413574">
        <ele>2197.96484375</ele>
      </trkpt>
      <trkpt lat="46.028895378112793" lon="6.966018676757812">
        <ele>2199.9375</ele>
      </trkpt>
      <trkpt lat="46.028895378112793" lon="6.966190338134766">
        <ele>2203.51953125</ele>
      </trkpt>
      <trkpt lat="46.028852462768555" lon="6.966233253479004">
        <ele>2202.3828125</ele>
      </trkpt>
      <trkpt lat="46.028745174407959" lon="6.966297626495361">
        <ele>2198.7578125</ele>
      </trkpt>
      <trkpt lat="46.028702259063721" lon="6.96631908416748">
        <ele>2197.25390625</ele>
      </trkpt>
      <trkpt lat="46.028530597686768" lon="6.966640949249268">
        <ele>2196.2734375</ele>
      </trkpt>
      <trkpt lat="46.028380393981934" lon="6.967027187347412">
        <ele>2192.9765625</ele>
      </trkpt>
      <trkpt lat="46.028251647949219" lon="6.967456340789795">
        <ele>2190.6953125</ele>
      </trkpt>
      <trkpt lat="46.028122901916504" lon="6.967906951904297">
        <ele>2189.43359375</ele>
      </trkpt>
      <trkpt lat="46.028037071228027" lon="6.968379020690918">
        <ele>2190.40625</ele>
      </trkpt>
      <trkpt lat="46.027865409851074" lon="6.968979835510254">
        <ele>2190.7578125</ele>
      </trkpt>
      <trkpt lat="46.027822494506836" lon="6.969130039215088">
        <ele>2191.46875</ele>
      </trkpt>
      <trkpt lat="46.027822494506836" lon="6.969194412231445">
        <ele>2191.50390625</ele>
      </trkpt>
      <trkpt lat="46.027586460113525" lon="6.969559192657471">
        <ele>2192.4921875</ele>
      </trkpt>
      <trkpt lat="46.027436256408691" lon="6.969666481018066">
        <ele>2193.9609375</ele>
      </trkpt>
      <trkpt lat="46.027393341064453" lon="6.969730854034424">
        <ele>2194.75390625</ele>
      </trkpt>
      <trkpt lat="46.027393341064453" lon="6.9698166847229">
        <ele>2195.4453125</ele>
      </trkpt>
      <trkpt lat="46.027436256408691" lon="6.970052719116211">
        <ele>2194.78125</ele>
      </trkpt>
      <trkpt lat="46.027457714080811" lon="6.970224380493164">
        <ele>2193.1640625</ele>
      </trkpt>
      <trkpt lat="46.027457714080811" lon="6.970396041870117">
        <ele>2191.80078125</ele>
      </trkpt>
      <trkpt lat="46.027436256408691" lon="6.970481872558594">
        <ele>2191.453125</ele>
      </trkpt>
      <trkpt lat="46.027414798736572" lon="6.970524787902832">
        <ele>2191.46484375</ele>
      </trkpt>
      <trkpt lat="46.027371883392334" lon="6.97056770324707">
        <ele>2191.84375</ele>
      </trkpt>
      <trkpt lat="46.027286052703857" lon="6.97056770324707">
        <ele>2193.25390625</ele>
      </trkpt>
      <trkpt lat="46.027307510375977" lon="6.970760822296143">
        <ele>2191.5703125</ele>
      </trkpt>
      <trkpt lat="46.027414798736572" lon="6.970846652984619">
        <ele>2188.5390625</ele>
      </trkpt>
      <trkpt lat="46.027500629425049" lon="6.970846652984619">
        <ele>2186.95703125</ele>
      </trkpt>
      <trkpt lat="46.027565002441406" lon="6.970889568328857">
        <ele>2185.1953125</ele>
      </trkpt>
      <trkpt lat="46.027586460113525" lon="6.970932483673096">
        <ele>2184.21484375</ele>
      </trkpt>
      <trkpt lat="46.027565002441406" lon="6.970996856689453">
        <ele>2183.75390625</ele>
      </trkpt>
      <trkpt lat="46.02747917175293" lon="6.971125602722168">
        <ele>2183.70703125</ele>
      </trkpt>
      <trkpt lat="46.027500629425049" lon="6.971168518066406">
        <ele>2182.72265625</ele>
      </trkpt>
      <trkpt lat="46.027543544769287" lon="6.971189975738525">
        <ele>2181.5859375</ele>
      </trkpt>
      <trkpt lat="46.027650833129883" lon="6.971211433410645">
        <ele>2179.15234375</ele>
      </trkpt>
      <trkpt lat="46.027693748474121" lon="6.971254348754883">
        <ele>2177.6953125</ele>
      </trkpt>
      <trkpt lat="46.027672290802002" lon="6.971404552459717">
        <ele>2176.0390625</ele>
      </trkpt>
      <trkpt lat="46.027543544769287" lon="6.971662044525146">
        <ele>2175.3828125</ele>
      </trkpt>
      <trkpt lat="46.027350425720215" lon="6.9718337059021">
        <ele>2178.17578125</ele>
      </trkpt>
      <trkpt lat="46.027328968048096" lon="6.971876621246338">
        <ele>2178.328125</ele>
      </trkpt>
      <trkpt lat="46.027350425720215" lon="6.971919536590576">
        <ele>2177.37890625</ele>
      </trkpt>
      <trkpt lat="46.027436256408691" lon="6.972005367279053">
        <ele>2174.20703125</ele>
      </trkpt>
      <trkpt lat="46.027457714080811" lon="6.97206974029541">
        <ele>2172.9140625</ele>
      </trkpt>
      <trkpt lat="46.027264595031738" lon="6.972284317016602">
        <ele>2176.7109375</ele>
      </trkpt>
      <trkpt lat="46.027200222015381" lon="6.972284317016602">
        <ele>2178.75</ele>
      </trkpt>
      <trkpt lat="46.027157306671143" lon="6.972348690032959">
        <ele>2179.69140625</ele>
      </trkpt>
      <trkpt lat="46.027178764343262" lon="6.972455978393555">
        <ele>2178.6171875</ele>
      </trkpt>
      <trkpt lat="46.027157306671143" lon="6.972713470458984">
        <ele>2180.1640625</ele>
      </trkpt>
      <trkpt lat="46.027286052703857" lon="6.973056793212891">
        <ele>2175.25390625</ele>
      </trkpt>
      <trkpt lat="46.027350425720215" lon="6.973657608032227">
        <ele>2175.48046875</ele>
      </trkpt>
      <trkpt lat="46.027436256408691" lon="6.973807811737061">
        <ele>2172.66796875</ele>
      </trkpt>
      <trkpt lat="46.027500629425049" lon="6.974215507507324">
        <ele>2172.390625</ele>
      </trkpt>
      <trkpt lat="46.027843952178955" lon="6.974837779998779">
        <ele>2160.9375</ele>
      </trkpt>
      <trkpt lat="46.027843952178955" lon="6.974751949310303">
        <ele>2160.32421875</ele>
      </trkpt>
      <trkpt lat="46.027801036834717" lon="6.974623203277588">
        <ele>2162.12109375</ele>
      </trkpt>
      <trkpt lat="46.027779579162598" lon="6.974365711212158">
        <ele>2161.40625</ele>
      </trkpt>
      <trkpt lat="46.027801036834717" lon="6.97432279586792">
        <ele>2159.9609375</ele>
      </trkpt>
      <trkpt lat="46.027865409851074" lon="6.974494457244873">
        <ele>2157.13671875</ele>
      </trkpt>
      <trkpt lat="46.028037071228027" lon="6.974709033966064">
        <ele>2147.7890625</ele>
      </trkpt>
      <trkpt lat="46.028079986572266" lon="6.974945068359375">
        <ele>2146.09375</ele>
      </trkpt>
      <trkpt lat="46.028187274932861" lon="6.975202560424805">
        <ele>2136.296875</ele>
      </trkpt>
      <trkpt lat="46.028294563293457" lon="6.975760459899902">
        <ele>2124.55078125</ele>
      </trkpt>
      <trkpt lat="46.028380393981934" lon="6.975953578948975">
        <ele>2117.515625</ele>
      </trkpt>
      <trkpt lat="46.028380393981934" lon="6.976017951965332">
        <ele>2116.54296875</ele>
      </trkpt>
      <trkpt lat="46.028337478637695" lon="6.976125240325928">
        <ele>2116.9375</ele>
      </trkpt>
      <trkpt lat="46.028273105621338" lon="6.976189613342285">
        <ele>2118.96484375</ele>
      </trkpt>
      <trkpt lat="46.028251647949219" lon="6.976232528686523">
        <ele>2119.3046875</ele>
      </trkpt>
      <trkpt lat="46.028273105621338" lon="6.976275444030762">
        <ele>2117.64453125</ele>
      </trkpt>
      <trkpt lat="46.028337478637695" lon="6.976253986358643">
        <ele>2114.9765625</ele>
      </trkpt>
      <trkpt lat="46.028530597686768" lon="6.976103782653809">
        <ele>2108.18359375</ele>
      </trkpt>
      <trkpt lat="46.028552055358887" lon="6.976039409637451">
        <ele>2108.1171875</ele>
      </trkpt>
      <trkpt lat="46.028552055358887" lon="6.975932121276855">
        <ele>2109.68359375</ele>
      </trkpt>
      <trkpt lat="46.028530597686768" lon="6.975867748260498">
        <ele>2111.6484375</ele>
      </trkpt>
      <trkpt lat="46.028552055358887" lon="6.97582483291626">
        <ele>2111.25</ele>
      </trkpt>
      <trkpt lat="46.028788089752197" lon="6.976296901702881">
        <ele>2094.5078125</ele>
      </trkpt>
      <trkpt lat="46.028873920440674" lon="6.976404190063477">
        <ele>2089.90234375</ele>
      </trkpt>
      <trkpt lat="46.028938293457031" lon="6.976532936096191">
        <ele>2086.109375</ele>
      </trkpt>
      <trkpt lat="46.02898120880127" lon="6.976554393768311">
        <ele>2084.328125</ele>
      </trkpt>
      <trkpt lat="46.02898120880127" lon="6.976468563079834">
        <ele>2085.1640625</ele>
      </trkpt>
      <trkpt lat="46.028895378112793" lon="6.975889205932617">
        <ele>2094.671875</ele>
      </trkpt>
      <trkpt lat="46.028938293457031" lon="6.975760459899902">
        <ele>2094.06640625</ele>
      </trkpt>
      <trkpt lat="46.028938293457031" lon="6.975588798522949">
        <ele>2094.171875</ele>
      </trkpt>
      <trkpt lat="46.02895975112915" lon="6.975545883178711">
        <ele>2093.11328125</ele>
      </trkpt>
      <trkpt lat="46.029002666473389" lon="6.975524425506592">
        <ele>2090.984375</ele>
      </trkpt>
      <trkpt lat="46.029152870178223" lon="6.975717544555664">
        <ele>2084.046875</ele>
      </trkpt>
      <trkpt lat="46.029324531555176" lon="6.976103782653809">
        <ele>2074.21875</ele>
      </trkpt>
      <trkpt lat="46.029345989227295" lon="6.976189613342285">
        <ele>2072.8828125</ele>
      </trkpt>
      <trkpt lat="46.029388904571533" lon="6.976189613342285">
        <ele>2071.1171875</ele>
      </trkpt>
      <trkpt lat="46.029410362243652" lon="6.975889205932617">
        <ele>2071.48828125</ele>
      </trkpt>
      <trkpt lat="46.029388904571533" lon="6.975760459899902">
        <ele>2073.03125</ele>
      </trkpt>
      <trkpt lat="46.029410362243652" lon="6.975717544555664">
        <ele>2071.89453125</ele>
      </trkpt>
      <trkpt lat="46.029453277587891" lon="6.975717544555664">
        <ele>2069.87109375</ele>
      </trkpt>
      <trkpt lat="46.029582023620605" lon="6.975889205932617">
        <ele>2064.21875</ele>
      </trkpt>
      <trkpt lat="46.029732227325439" lon="6.976232528686523">
        <ele>2057.171875</ele>
      </trkpt>
      <trkpt lat="46.029753684997559" lon="6.976339817047119">
        <ele>2056.0703125</ele>
      </trkpt>
      <trkpt lat="46.029796600341797" lon="6.976511478424072">
        <ele>2054.01171875</ele>
      </trkpt>
      <trkpt lat="46.029860973358154" lon="6.976618766784668">
        <ele>2050.9921875</ele>
      </trkpt>
      <trkpt lat="46.029903888702393" lon="6.976425647735596">
        <ele>2049.99609375</ele>
      </trkpt>
      <trkpt lat="46.030054092407227" lon="6.976640224456787">
        <ele>2043.46484375</ele>
      </trkpt>
      <trkpt lat="46.030054092407227" lon="6.976468563079834">
        <ele>2044.08203125</ele>
      </trkpt>
      <trkpt lat="46.030161380767822" lon="6.976618766784668">
        <ele>2039.57421875</ele>
      </trkpt>
      <trkpt lat="46.03022575378418" lon="6.976661682128906">
        <ele>2036.83984375</ele>
      </trkpt>
      <trkpt lat="46.030418872833252" lon="6.976768970489502">
        <ele>2029.21875</ele>
      </trkpt>
      <trkpt lat="46.030526161193848" lon="6.976897716522217">
        <ele>2024.7265625</ele>
      </trkpt>
      <trkpt lat="46.030697822570801" lon="6.977133750915527">
        <ele>2017.55859375</ele>
      </trkpt>
      <trkpt lat="46.030740737915039" lon="6.977348327636719">
        <ele>2015.07421875</ele>
      </trkpt>
      <trkpt lat="46.030762195587158" lon="6.977541446685791">
        <ele>2012.5703125</ele>
      </trkpt>
      <trkpt lat="46.030676364898682" lon="6.977992057800293">
        <ele>2010.4140625</ele>
      </trkpt>
      <trkpt lat="46.030611991882324" lon="6.978185176849365">
        <ele>2010.61328125</ele>
      </trkpt>
      <trkpt lat="46.030611991882324" lon="6.978228092193604">
        <ele>2010.140625</ele>
      </trkpt>
      <trkpt lat="46.030590534210205" lon="6.978335380554199">
        <ele>2009.8984375</ele>
      </trkpt>
      <trkpt lat="46.03046178817749" lon="6.978549957275391">
        <ele>2012.95703125</ele>
      </trkpt>
      <trkpt lat="46.030440330505371" lon="6.978614330291748">
        <ele>2013.26953125</ele>
      </trkpt>
      <trkpt lat="46.030440330505371" lon="6.978721618652344">
        <ele>2012.375</ele>
      </trkpt>
      <trkpt lat="46.030654907226562" lon="6.97981595993042">
        <ele>1995.3125</ele>
      </trkpt>
      <trkpt lat="46.030621966347098" lon="6.979997009038925">
        <ele>1996.15625</ele>
      </trkpt>
      <trkpt lat="46.030611991882324" lon="6.98005199432373">
        <ele>1996.63671875</ele>
      </trkpt>
      <trkpt lat="46.030654907226562" lon="6.980352401733398">
        <ele>1994.51953125</ele>
      </trkpt>
      <trkpt lat="46.030633449554443" lon="6.980588436126709">
        <ele>1995.640625</ele>
      </trkpt>
      <trkpt lat="46.030740737915039" lon="6.981081962585449">
        <ele>1991.015625</ele>
      </trkpt>
      <trkpt lat="46.030762195587158" lon="6.981382369995117">
        <ele>1991.12890625</ele>
      </trkpt>
      <trkpt lat="46.030890941619873" lon="6.981618404388428">
        <ele>1983.5546875</ele>
      </trkpt>
      <trkpt lat="46.03097677230835" lon="6.981940269470215">
        <ele>1979.08203125</ele>
      </trkpt>
      <trkpt lat="46.030998229980469" lon="6.982111930847168">
        <ele>1978.38671875</ele>
      </trkpt>
      <trkpt lat="46.031041145324707" lon="6.98230504989624">
        <ele>1976.47265625</ele>
      </trkpt>
      <trkpt lat="46.031148433685303" lon="6.982455253601074">
        <ele>1970.79296875</ele>
      </trkpt>
      <trkpt lat="46.031255722045898" lon="6.982583999633789">
        <ele>1965.8359375</ele>
      </trkpt>
      <trkpt lat="46.031341552734375" lon="6.98279857635498">
        <ele>1962.15625</ele>
      </trkpt>
      <trkpt lat="46.031405925750732" lon="6.983077526092529">
        <ele>1959.6015625</ele>
      </trkpt>
      <trkpt lat="46.031448841094971" lon="6.983249187469482">
        <ele>1957.71875</ele>
      </trkpt>
      <trkpt lat="46.031513214111328" lon="6.98357105255127">
        <ele>1957.81640625</ele>
      </trkpt>
      <trkpt lat="46.031663417816162" lon="6.983871459960938">
        <ele>1952.3359375</ele>
      </trkpt>
      <trkpt lat="46.031770706176758" lon="6.984021663665771">
        <ele>1947.53125</ele>
      </trkpt>
      <trkpt lat="46.031813621520996" lon="6.984107494354248">
        <ele>1946.078125</ele>
      </trkpt>
      <trkpt lat="46.031877994537354" lon="6.984214782714844">
        <ele>1944.078125</ele>
      </trkpt>
      <trkpt lat="46.031899452209473" lon="6.984343528747559">
        <ele>1945.0859375</ele>
      </trkpt>
      <trkpt lat="46.032049655914307" lon="6.984515190124512">
        <ele>1939.81640625</ele>
      </trkpt>
      <trkpt lat="46.032114028930664" lon="6.984643936157227">
        <ele>1938.61328125</ele>
      </trkpt>
      <trkpt lat="46.032092571258545" lon="6.984901428222656">
        <ele>1944.13671875</ele>
      </trkpt>
      <trkpt lat="46.032156944274902" lon="6.984944343566895">
        <ele>1941.52734375</ele>
      </trkpt>
      <trkpt lat="46.032371520996094" lon="6.985244750976562">
        <ele>1936.1015625</ele>
      </trkpt>
      <trkpt lat="46.032521724700928" lon="6.985523700714111">
        <ele>1933.03125</ele>
      </trkpt>
      <trkpt lat="46.032779216766357" lon="6.985845565795898">
        <ele>1924.234375</ele>
      </trkpt>
      <trkpt lat="46.032907962799072" lon="6.986017227172852">
        <ele>1921.42578125</ele>
      </trkpt>
      <trkpt lat="46.032993793487549" lon="6.986167430877686">
        <ele>1920.3359375</ele>
      </trkpt>
      <trkpt lat="46.033358573913574" lon="6.986575126647949">
        <ele>1908.2109375</ele>
      </trkpt>
      <trkpt lat="46.033487319946289" lon="6.986639499664307">
        <ele>1902.4375</ele>
      </trkpt>
      <trkpt lat="46.033616065979004" lon="6.986875534057617">
        <ele>1902.5859375</ele>
      </trkpt>
      <trkpt lat="46.033980846405029" lon="6.9873046875">
        <ele>1894.859375</ele>
      </trkpt>
      <trkpt lat="46.034281253814697" lon="6.987669467926025">
        <ele>1887.46484375</ele>
      </trkpt>
      <trkpt lat="46.034753322601318" lon="6.988270282745361">
        <ele>1868.8125</ele>
      </trkpt>
      <trkpt lat="46.034903526306152" lon="6.988441944122314">
        <ele>1859.44140625</ele>
      </trkpt>
      <trkpt lat="46.035032272338867" lon="6.988613605499268">
        <ele>1852.23046875</ele>
      </trkpt>
      <trkpt lat="46.035182476043701" lon="6.988935470581055">
        <ele>1847.1328125</ele>
      </trkpt>
      <trkpt lat="46.035225391387939" lon="6.989171504974365">
        <ele>1847.640625</ele>
      </trkpt>
      <trkpt lat="46.035354137420654" lon="6.989407539367676">
        <ele>1835.71484375</ele>
      </trkpt>
      <trkpt lat="46.035504341125488" lon="6.989836692810059">
        <ele>1823.03515625</ele>
      </trkpt>
      <trkpt lat="46.035482883453369" lon="6.990351676940918">
        <ele>1821.19140625</ele>
      </trkpt>
      <trkpt lat="46.035568714141846" lon="6.990287303924561">
        <ele>1812.8515625</ele>
      </trkpt>
      <trkpt lat="46.035676002502441" lon="6.99005126953125">
        <ele>1803.53125</ele>
      </trkpt>
      <trkpt lat="46.035697460174561" lon="6.990287303924561">
        <ele>1799.1640625</ele>
      </trkpt>
      <trkpt lat="46.035611629486084" lon="6.990995407104492">
        <ele>1796.12109375</ele>
      </trkpt>
      <trkpt lat="46.035826206207275" lon="6.990673542022705">
        <ele>1783.0703125</ele>
      </trkpt>
      <trkpt lat="46.035997867584229" lon="6.99054479598999">
        <ele>1766.390625</ele>
      </trkpt>
      <trkpt lat="46.036040782928467" lon="6.990416049957275">
        <ele>1762.34375</ele>
      </trkpt>
      <trkpt lat="46.036105155944824" lon="6.990287303924561">
        <ele>1755.828125</ele>
      </trkpt>
      <trkpt lat="46.036169528961182" lon="6.990008354187012">
        <ele>1749.8671875</ele>
      </trkpt>
      <trkpt lat="46.03621244430542" lon="6.990351676940918">
        <ele>1745.81640625</ele>
      </trkpt>
      <trkpt lat="46.036255359649658" lon="6.990458965301514">
        <ele>1742</ele>
      </trkpt>
      <trkpt lat="46.036405563354492" lon="6.990008354187012">
        <ele>1727.25390625</ele>
      </trkpt>
      <trkpt lat="46.036427021026611" lon="6.98979377746582">
        <ele>1720.9296875</ele>
      </trkpt>
      <trkpt lat="46.036555767059326" lon="6.989943981170654">
        <ele>1712.53125</ele>
      </trkpt>
      <trkpt lat="46.036534309387207" lon="6.991167068481445">
        <ele>1706.921875</ele>
      </trkpt>
      <trkpt lat="46.036598682403564" lon="6.991124153137207">
        <ele>1702.5546875</ele>
      </trkpt>
      <trkpt lat="46.03670597076416" lon="6.990909576416016">
        <ele>1699.203125</ele>
      </trkpt>
      <trkpt lat="46.036791801452637" lon="6.990694999694824">
        <ele>1696.1015625</ele>
      </trkpt>
      <trkpt lat="46.036942005157471" lon="6.990523338317871">
        <ele>1681.36328125</ele>
      </trkpt>
      <trkpt lat="46.036877632141113" lon="6.991102695465088">
        <ele>1679.2109375</ele>
      </trkpt>
      <trkpt lat="46.037049293518066" lon="6.990909576416016">
        <ele>1670.27734375</ele>
      </trkpt>
      <trkpt lat="46.037263870239258" lon="6.990566253662109">
        <ele>1654.625</ele>
      </trkpt>
      <trkpt lat="46.037349700927734" lon="6.990480422973633">
        <ele>1645.90625</ele>
      </trkpt>
      <trkpt lat="46.037306785583496" lon="6.990995407104492">
        <ele>1647.09765625</ele>
      </trkpt>
      <trkpt lat="46.037414073944092" lon="6.990866661071777">
        <ele>1641.80078125</ele>
      </trkpt>
      <trkpt lat="46.037392616271973" lon="6.991145610809326">
        <ele>1636.1953125</ele>
      </trkpt>
      <trkpt lat="46.037542819976807" lon="6.990973949432373">
        <ele>1628.5546875</ele>
      </trkpt>
      <trkpt lat="46.037671566009521" lon="6.990759372711182">
        <ele>1623.609375</ele>
      </trkpt>
      <trkpt lat="46.03771448135376" lon="6.990952491760254">
        <ele>1615.19921875</ele>
      </trkpt>
      <trkpt lat="46.037886142730713" lon="6.990737915039062">
        <ele>1606.25390625</ele>
      </trkpt>
      <trkpt lat="46.037864685058594" lon="6.991102695465088">
        <ele>1599.50390625</ele>
      </trkpt>
      <trkpt lat="46.037800312042236" lon="6.991424560546875">
        <ele>1596.49609375</ele>
      </trkpt>
      <trkpt lat="46.038272380828857" lon="6.990823745727539">
        <ele>1572.46484375</ele>
      </trkpt>
      <trkpt lat="46.038336753845215" lon="6.99080228805542">
        <ele>1567.48046875</ele>
      </trkpt>
      <trkpt lat="46.038272380828857" lon="6.991081237792969">
        <ele>1568.15234375</ele>
      </trkpt>
      <trkpt lat="46.038250923156738" lon="6.991403102874756">
        <ele>1564.3203125</ele>
      </trkpt>
      <trkpt lat="46.038122177124023" lon="6.9917893409729">
        <ele>1563.1796875</ele>
      </trkpt>
      <trkpt lat="46.038057804107666" lon="6.992111206054688">
        <ele>1556.5390625</ele>
      </trkpt>
      <trkpt lat="46.038143634796143" lon="6.991982460021973">
        <ele>1555.3515625</ele>
      </trkpt>
      <trkpt lat="46.038315296173096" lon="6.991939544677734">
        <ele>1545.54296875</ele>
      </trkpt>
      <trkpt lat="46.038250923156738" lon="6.992111206054688">
        <ele>1544.2890625</ele>
      </trkpt>
      <trkpt lat="46.038293838500977" lon="6.992433071136475">
        <ele>1531.12890625</ele>
      </trkpt>
      <trkpt lat="46.038401126861572" lon="6.992347240447998">
        <ele>1527.65625</ele>
      </trkpt>
      <trkpt lat="46.038787364959717" lon="6.991832256317139">
        <ele>1518.02734375</ele>
      </trkpt>
      <trkpt lat="46.038851737976074" lon="6.991853713989258">
        <ele>1513.43359375</ele>
      </trkpt>
      <trkpt lat="46.038851737976074" lon="6.992068290710449">
        <ele>1508.09375</ele>
      </trkpt>
      <trkpt lat="46.038830280303955" lon="6.992282867431641">
        <ele>1503.9921875</ele>
      </trkpt>
      <trkpt lat="46.038830280303955" lon="6.992352940142155">
        <ele>1502.23046875</ele>
      </trkpt>
      <trkpt lat="46.038830280303955" lon="6.992433071136475">
        <ele>1499.89453125</ele>
      </trkpt>
      <trkpt lat="46.038722991943359" lon="6.992733478546143">
        <ele>1494.19140625</ele>
      </trkpt>
      <trkpt lat="46.038808822631836" lon="6.992712020874023">
        <ele>1490.640625</ele>
      </trkpt>
      <trkpt lat="46.038980484008789" lon="6.992583274841309">
        <ele>1486.3046875</ele>
      </trkpt>
      <trkpt lat="46.039023399353027" lon="6.992647647857666">
        <ele>1481.83984375</ele>
      </trkpt>
      <trkpt lat="46.038980484008789" lon="6.992754936218262">
        <ele>1480.37890625</ele>
      </trkpt>
      <trkpt lat="46.038916110992432" lon="6.992948055267334">
        <ele>1476.7421875</ele>
      </trkpt>
      <trkpt lat="46.039066314697266" lon="6.992905139923096">
        <ele>1471.09375</ele>
      </trkpt>
      <trkpt lat="46.0392165184021" lon="6.992840766906738">
        <ele>1465.87109375</ele>
      </trkpt>
      <trkpt lat="46.039409637451172" lon="6.992325782775879">
        <ele>1469.6796875</ele>
      </trkpt>
      <trkpt lat="46.039474010467529" lon="6.992261409759521">
        <ele>1467.5859375</ele>
      </trkpt>
      <trkpt lat="46.039559841156006" lon="6.992154121398926">
        <ele>1466.1171875</ele>
      </trkpt>
      <trkpt lat="46.039731502532959" lon="6.992025375366211">
        <ele>1461.7734375</ele>
      </trkpt>
      <trkpt lat="46.039817333221436" lon="6.991939544677734">
        <ele>1460.09375</ele>
      </trkpt>
      <trkpt lat="46.039881706237793" lon="6.9917893409729">
        <ele>1460.58203125</ele>
      </trkpt>
      <trkpt lat="46.039924621582031" lon="6.991596221923828">
        <ele>1462.8203125</ele>
      </trkpt>
      <trkpt lat="46.040053367614746" lon="6.991724967956543">
        <ele>1455.359375</ele>
      </trkpt>
      <trkpt lat="46.040117740631104" lon="6.991896629333496">
        <ele>1449.33203125</ele>
      </trkpt>
      <trkpt lat="46.040139198303223" lon="6.99204683303833">
        <ele>1445.3515625</ele>
      </trkpt>
      <trkpt lat="46.040139198303223" lon="6.992390155792236">
        <ele>1438.140625</ele>
      </trkpt>
      <trkpt lat="46.040225028991699" lon="6.992626190185547">
        <ele>1430.70703125</ele>
      </trkpt>
      <trkpt lat="46.040310859680176" lon="6.992776393890381">
        <ele>1425.9609375</ele>
      </trkpt>
      <trkpt lat="46.040332317352295" lon="6.992990970611572">
        <ele>1422.375</ele>
      </trkpt>
      <trkpt lat="46.040439605712891" lon="6.99329137802124">
        <ele>1416.51953125</ele>
      </trkpt>
      <trkpt lat="46.040525436401367" lon="6.993269920349121">
        <ele>1415.92578125</ele>
      </trkpt>
      <trkpt lat="46.040525436401367" lon="6.993162631988525">
        <ele>1417.63671875</ele>
      </trkpt>
      <trkpt lat="46.040568351745605" lon="6.993141174316406">
        <ele>1417.546875</ele>
      </trkpt>
      <trkpt lat="46.040654182434082" lon="6.993184089660645">
        <ele>1415.91796875</ele>
      </trkpt>
      <trkpt lat="46.040761470794678" lon="6.993184089660645">
        <ele>1414.78515625</ele>
      </trkpt>
      <trkpt lat="46.040933132171631" lon="6.993205547332764">
        <ele>1412.57421875</ele>
      </trkpt>
      <trkpt lat="46.041104793548584" lon="6.993334293365479">
        <ele>1409.06640625</ele>
      </trkpt>
      <trkpt lat="46.041319370269775" lon="6.993441581726074">
        <ele>1403.5546875</ele>
      </trkpt>
      <trkpt lat="46.041512489318848" lon="6.993441581726074">
        <ele>1399.55078125</ele>
      </trkpt>
      <trkpt lat="46.041598320007324" lon="6.993463039398193">
        <ele>1397.5859375</ele>
      </trkpt>
      <trkpt lat="46.041727066040039" lon="6.993570327758789">
        <ele>1394.05078125</ele>
      </trkpt>
      <trkpt lat="46.041812896728516" lon="6.993656158447266">
        <ele>1391.65234375</ele>
      </trkpt>
      <trkpt lat="46.04194164276123" lon="6.993699073791504">
        <ele>1388.79296875</ele>
      </trkpt>
      <trkpt lat="46.042134761810303" lon="6.993677616119385">
        <ele>1385.8046875</ele>
      </trkpt>
      <trkpt lat="46.042263507843018" lon="6.993656158447266">
        <ele>1383.86328125</ele>
      </trkpt>
      <trkpt lat="46.042370796203613" lon="6.993699073791504">
        <ele>1381.84375</ele>
      </trkpt>
      <trkpt lat="46.042499542236328" lon="6.993763446807861">
        <ele>1379.3515625</ele>
      </trkpt>
      <trkpt lat="46.042649745941162" lon="6.99378490447998">
        <ele>1376.80859375</ele>
      </trkpt>
      <trkpt lat="46.042885780334473" lon="6.993827819824219">
        <ele>1372.68359375</ele>
      </trkpt>
      <trkpt lat="46.043078899383545" lon="6.993870735168457">
        <ele>1369.1796875</ele>
      </trkpt>
      <trkpt lat="46.043250560760498" lon="6.993870735168457">
        <ele>1366.29296875</ele>
      </trkpt>
      <trkpt lat="46.04344367980957" lon="6.993870735168457">
        <ele>1363.046875</ele>
      </trkpt>
      <trkpt lat="46.043765544891357" lon="6.993913650512695">
        <ele>1357.52734375</ele>
      </trkpt>
      <trkpt lat="46.044473648071289" lon="6.993913650512695">
        <ele>1346.48828125</ele>
      </trkpt>
      <trkpt lat="46.044881343841553" lon="6.994020938873291">
        <ele>1342.05859375</ele>
      </trkpt>
      <trkpt lat="46.045267581939697" lon="6.994085311889648">
        <ele>1338.0546875</ele>
      </trkpt>
      <trkpt lat="46.04543924331665" lon="6.99404239654541">
        <ele>1336.8046875</ele>
      </trkpt>
      <trkpt lat="46.045567989349365" lon="6.99404239654541">
        <ele>1335.73046875</ele>
      </trkpt>
      <trkpt lat="46.045610904693604" lon="6.994020938873291">
        <ele>1335.5</ele>
      </trkpt>
      <trkpt lat="46.045975685119629" lon="6.994171142578125">
        <ele>1331.78125</ele>
      </trkpt>
      <trkpt lat="46.046061515808105" lon="6.994171142578125">
        <ele>1331.05859375</ele>
      </trkpt>
      <trkpt lat="46.046147346496582" lon="6.994149684906006">
        <ele>1330.46484375</ele>
      </trkpt>
      <trkpt lat="46.046233177185059" lon="6.994085311889648">
        <ele>1330.07421875</ele>
      </trkpt>
      <trkpt lat="46.046340465545654" lon="6.994063854217529">
        <ele>1329.40625</ele>
      </trkpt>
      <trkpt lat="46.046490669250488" lon="6.994106769561768">
        <ele>1328.16015625</ele>
      </trkpt>
      <trkpt lat="46.046469211578369" lon="6.994321346282959">
        <ele>1327.65234375</ele>
      </trkpt>
      <trkpt lat="46.046469211578369" lon="6.99479341506958">
        <ele>1326.1953125</ele>
      </trkpt>
      <trkpt lat="46.047091484069824" lon="6.994729042053223">
        <ele>1322.67578125</ele>
      </trkpt>
      <trkpt lat="46.04844331741333" lon="6.99455738067627">
        <ele>1317.484375</ele>
      </trkpt>
      <trkpt lat="46.049247393384576" lon="6.994489068165421">
        <ele>1314.3203125</ele>
      </trkpt>
      <trkpt lat="46.051468849182129" lon="6.99429988861084">
        <ele>1304.171875</ele>
      </trkpt>
      <trkpt lat="46.052005290985107" lon="6.994214057922363">
        <ele>1301.80078125</ele>
      </trkpt>
      <trkpt lat="46.052348613739014" lon="6.993999481201172">
        <ele>1301.16796875</ele>
      </trkpt>
      <trkpt lat="46.052477359771729" lon="6.994020938873291">
        <ele>1300.76953125</ele>
      </trkpt>
      <trkpt lat="46.052541732788086" lon="6.994235515594482">
        <ele>1301.54296875</ele>
      </trkpt>
      <trkpt lat="46.052970886230469" lon="6.9938063621521">
        <ele>1301.29296875</ele>
      </trkpt>
      <trkpt lat="46.053035259246826" lon="6.99378490447998">
        <ele>1301.2890625</ele>
      </trkpt>
      <trkpt lat="46.053400039672852" lon="6.9938063621521">
        <ele>1300.63671875</ele>
      </trkpt>
      <trkpt lat="46.053743362426758" lon="6.993720531463623">
        <ele>1300.2578125</ele>
      </trkpt>
      <trkpt lat="46.054086685180664" lon="6.993591785430908">
        <ele>1300</ele>
      </trkpt>
      <trkpt lat="46.054580211639404" lon="6.993677616119385">
        <ele>1298.87890625</ele>
      </trkpt>
      <trkpt lat="46.0546875" lon="6.993699073791504">
        <ele>1298.390625</ele>
      </trkpt>
      <trkpt lat="46.054751873016357" lon="6.993720531463623">
        <ele>1298.078125</ele>
      </trkpt>
      <trkpt lat="46.055030822753906" lon="6.993720531463623">
        <ele>1296.8828125</ele>
      </trkpt>
      <trkpt lat="46.055223941802979" lon="6.993677616119385">
        <ele>1296.15234375</ele>
      </trkpt>
      <trkpt lat="46.055417060852051" lon="6.993656158447266">
        <ele>1295.390625</ele>
      </trkpt>
      <trkpt lat="46.055824756622314" lon="6.993849277496338">
        <ele>1292.44140625</ele>
      </trkpt>
      <trkpt lat="46.055953502655029" lon="6.993870735168457">
        <ele>1291.5625</ele>
      </trkpt>
      <trkpt lat="46.056125164031982" lon="6.993849277496338">
        <ele>1290.71875</ele>
      </trkpt>
      <trkpt lat="46.056339740753174" lon="6.993935108184814">
        <ele>1288.078125</ele>
      </trkpt>
      <trkpt lat="46.05644702911377" lon="6.994020938873291">
        <ele>1285.984375</ele>
      </trkpt>
      <trkpt lat="46.056532859802246" lon="6.99404239654541">
        <ele>1284.80859375</ele>
      </trkpt>
      <trkpt lat="46.056747436523438" lon="6.994063854217529">
        <ele>1282.19921875</ele>
      </trkpt>
      <trkpt lat="46.056811809539795" lon="6.994063854217529">
        <ele>1281.51171875</ele>
      </trkpt>
      <trkpt lat="46.056962013244629" lon="6.994106769561768">
        <ele>1280.1328125</ele>
      </trkpt>
      <trkpt lat="46.057069301605225" lon="6.994149684906006">
        <ele>1280.15625</ele>
      </trkpt>
      <trkpt lat="46.05717658996582" lon="6.994128227233887">
        <ele>1279.90625</ele>
      </trkpt>
      <trkpt lat="46.057348251342773" lon="6.994085311889648">
        <ele>1279.5390625</ele>
      </trkpt>
      <trkpt lat="46.057648658752441" lon="6.993956565856934">
        <ele>1280.5546875</ele>
      </trkpt>
      <trkpt lat="46.057771285995841" lon="6.993874674662948">
        <ele>1281.12890625</ele>
      </trkpt>
      <trkpt lat="46.057771202176809" lon="6.993874758481979">
        <ele>1281.12890625</ele>
      </trkpt>
    </trkseg>
  </trk>
</gpx>
