<?xml version="1.0"?>
<gpx xmlns="http://www.topografix.com/GPX/1/1" xmlns:xsi="http://www.w3.org/2001/XMLSchema-instance" xmlns:wptx1="http://www.garmin.com/xmlschemas/WaypointExtension/v1" xmlns:gpxtrx="http://www.garmin.com/xmlschemas/GpxExtensions/v3" xmlns:gpxtpx="http://www.garmin.com/xmlschemas/TrackPointExtension/v1" xmlns:gpxx="http://www.garmin.com/xmlschemas/GpxExtensions/v3" xmlns:trp="http://www.garmin.com/xmlschemas/TripExtensions/v1" xmlns:adv="http://www.garmin.com/xmlschemas/AdventuresExtensions/v1" xmlns:prs="http://www.garmin.com/xmlschemas/PressureExtension/v1" xmlns:tmd="http://www.garmin.com/xmlschemas/TripMetaDataExtensions/v1" xmlns:vptm="http://www.garmin.com/xmlschemas/ViaPointTransportationModeExtensions/v1" xmlns:ctx="http://www.garmin.com/xmlschemas/CreationTimeExtension/v1" xmlns:gpxacc="http://www.garmin.com/xmlschemas/AccelerationExtension/v1" xmlns:gpxpx="http://www.garmin.com/xmlschemas/PowerExtension/v1" xmlns:vidx1="http://www.garmin.com/xmlschemas/VideoExtension/v1" creator="Garmin Desktop App" version="1.1" xsi:schemaLocation="http://www.topografix.com/GPX/1/1 http://www.topografix.com/GPX/1/1/gpx.xsd http://www.garmin.com/xmlschemas/WaypointExtension/v1 http://www8.garmin.com/xmlschemas/WaypointExtensionv1.xsd http://www.garmin.com/xmlschemas/TrackPointExtension/v1 http://www.garmin.com/xmlschemas/TrackPointExtensionv1.xsd http://www.garmin.com/xmlschemas/GpxExtensions/v3 http://www8.garmin.com/xmlschemas/GpxExtensionsv3.xsd http://www.garmin.com/xmlschemas/ActivityExtension/v1 http://www8.garmin.com/xmlschemas/ActivityExtensionv1.xsd http://www.garmin.com/xmlschemas/AdventuresExtensions/v1 http://www8.garmin.com/xmlschemas/AdventuresExtensionv1.xsd http://www.garmin.com/xmlschemas/PressureExtension/v1 http://www.garmin.com/xmlschemas/PressureExtensionv1.xsd http://www.garmin.com/xmlschemas/TripExtensions/v1 http://www.garmin.com/xmlschemas/TripExtensionsv1.xsd http://www.garmin.com/xmlschemas/TripMetaDataExtensions/v1 http://www.garmin.com/xmlschemas/TripMetaDataExtensionsv1.xsd http://www.garmin.com/xmlschemas/ViaPointTransportationModeExtensions/v1 http://www.garmin.com/xmlschemas/ViaPointTransportationModeExtensionsv1.xsd http://www.garmin.com/xmlschemas/CreationTimeExtension/v1 http://www.garmin.com/xmlschemas/CreationTimeExtensionsv1.xsd http://www.garmin.com/xmlschemas/AccelerationExtension/v1 http://www.garmin.com/xmlschemas/AccelerationExtensionv1.xsd http://www.garmin.com/xmlschemas/PowerExtension/v1 http://www.garmin.com/xmlschemas/PowerExtensionv1.xsd http://www.garmin.com/xmlschemas/VideoExtension/v1 http://www.garmin.com/xmlschemas/VideoExtensionv1.xsd">
  <metadata>
    <link href="http://www.garmin.com">
      <text>Garmin International</text>
    </link>
    <time>2026-03-04T12:11:18Z</time>
    <bounds maxlat="46.058464050292969" maxlon="7.104442119598389" minlat="46.029667854309082" minlon="6.993871908634901"/>
  </metadata>
  <trk>
    <name>TMB Etappe 03</name>
    <extensions>
      <gpxx:TrackExtension>
        <gpxx:DisplayColor>Green</gpxx:DisplayColor>
      </gpxx:TrackExtension>
    </extensions>
    <trkseg>
      <trkpt lat="46.057775560766459" lon="6.993871908634901">
        <ele>1281.15234375</ele>
        <time>2025-08-29T08:00:52Z</time>
      </trkpt>
      <trkpt lat="46.057648658752441" lon="6.993956565856934">
        <ele>1280.5546875</ele>
      </trkpt>
      <trkpt lat="46.057348251342773" lon="6.994085311889648">
        <ele>1279.5390625</ele>
      </trkpt>
      <trkpt lat="46.05717658996582" lon="6.994128227233887">
        <ele>1279.90625</ele>
      </trkpt>
      <trkpt lat="46.057069301605225" lon="6.994149684906006">
        <ele>1280.15625</ele>
      </trkpt>
      <trkpt lat="46.056962013244629" lon="6.994106769561768">
        <ele>1280.1328125</ele>
      </trkpt>
      <trkpt lat="46.056897640228271" lon="6.994707584381104">
        <ele>1283.59765625</ele>
      </trkpt>
      <trkpt lat="46.056876182556152" lon="6.99479341506958">
        <ele>1284.32421875</ele>
      </trkpt>
      <trkpt lat="46.056768894195557" lon="6.994814872741699">
        <ele>1285.9375</ele>
      </trkpt>
      <trkpt lat="46.056725978851318" lon="6.99479341506958">
        <ele>1286.41796875</ele>
      </trkpt>
      <trkpt lat="46.056618690490723" lon="6.994729042053223">
        <ele>1287.51171875</ele>
      </trkpt>
      <trkpt lat="46.056554317474365" lon="6.994643211364746">
        <ele>1287.8359375</ele>
      </trkpt>
      <trkpt lat="46.056253910064697" lon="6.99528694152832">
        <ele>1294.39453125</ele>
      </trkpt>
      <trkpt lat="46.056232452392578" lon="6.995351314544678">
        <ele>1294.78125</ele>
      </trkpt>
      <trkpt lat="46.056168079376221" lon="6.995458602905273">
        <ele>1295.80859375</ele>
      </trkpt>
      <trkpt lat="46.05593204498291" lon="6.995694637298584">
        <ele>1297.9765625</ele>
      </trkpt>
      <trkpt lat="46.056039333343506" lon="6.995437145233154">
        <ele>1297.00390625</ele>
      </trkpt>
      <trkpt lat="46.056082248687744" lon="6.995329856872559">
        <ele>1296.6328125</ele>
      </trkpt>
      <trkpt lat="46.056060791015625" lon="6.995222568511963">
        <ele>1296.61328125</ele>
      </trkpt>
      <trkpt lat="46.056103706359863" lon="6.995072364807129">
        <ele>1296.20703125</ele>
      </trkpt>
      <trkpt lat="46.056125164031982" lon="6.994965076446533">
        <ele>1295.78515625</ele>
      </trkpt>
      <trkpt lat="46.056039333343506" lon="6.994879245758057">
        <ele>1296.10546875</ele>
      </trkpt>
      <trkpt lat="46.055867671966553" lon="6.994857788085938">
        <ele>1296.77734375</ele>
      </trkpt>
      <trkpt lat="46.055052280426025" lon="6.994900703430176">
        <ele>1300.5078125</ele>
      </trkpt>
      <trkpt lat="46.055009365081787" lon="6.994943618774414">
        <ele>1300.78515625</ele>
      </trkpt>
      <trkpt lat="46.0546875" lon="6.994836330413818">
        <ele>1301.109375</ele>
      </trkpt>
      <trkpt lat="46.054451465606689" lon="6.994771957397461">
        <ele>1301.48828125</ele>
      </trkpt>
      <trkpt lat="46.054365634918213" lon="6.99528694152832">
        <ele>1305.1875</ele>
      </trkpt>
      <trkpt lat="46.05443000793457" lon="6.995308399200439">
        <ele>1304.96484375</ele>
      </trkpt>
      <trkpt lat="46.054451465606689" lon="6.995480060577393">
        <ele>1306.07421875</ele>
      </trkpt>
      <trkpt lat="46.054408550262451" lon="6.99554443359375">
        <ele>1306.8125</ele>
      </trkpt>
      <trkpt lat="46.054451465606689" lon="6.995780467987061">
        <ele>1308.32421875</ele>
      </trkpt>
      <trkpt lat="46.054451465606689" lon="6.995973587036133">
        <ele>1310.1640625</ele>
      </trkpt>
      <trkpt lat="46.054494380950928" lon="6.996059417724609">
        <ele>1310.59375</ele>
      </trkpt>
      <trkpt lat="46.054558753967285" lon="6.996059417724609">
        <ele>1310.01171875</ele>
      </trkpt>
      <trkpt lat="46.0546875" lon="6.996273994445801">
        <ele>1310.59765625</ele>
      </trkpt>
      <trkpt lat="46.054708957672119" lon="6.996316909790039">
        <ele>1310.72265625</ele>
      </trkpt>
      <trkpt lat="46.054708957672119" lon="6.99646258726716">
        <ele>1311.89453125</ele>
      </trkpt>
      <trkpt lat="46.054708957672119" lon="6.99653148651123">
        <ele>1312.44921875</ele>
      </trkpt>
      <trkpt lat="46.054730415344238" lon="6.996638774871826">
        <ele>1314.39453125</ele>
      </trkpt>
      <trkpt lat="46.054987907409668" lon="6.996939182281494">
        <ele>1319.59765625</ele>
      </trkpt>
      <trkpt lat="46.055073738098145" lon="6.997003555297852">
        <ele>1320.34765625</ele>
      </trkpt>
      <trkpt lat="46.055116653442383" lon="6.99704647064209">
        <ele>1321.015625</ele>
      </trkpt>
      <trkpt lat="46.055138111114502" lon="6.997089385986328">
        <ele>1321.9453125</ele>
      </trkpt>
      <trkpt lat="46.055073738098145" lon="6.997110843658447">
        <ele>1323.30859375</ele>
      </trkpt>
      <trkpt lat="46.054859161376953" lon="6.997089385986328">
        <ele>1325.29296875</ele>
      </trkpt>
      <trkpt lat="46.054730415344238" lon="6.997089385986328">
        <ele>1326.83984375</ele>
      </trkpt>
      <trkpt lat="46.0546875" lon="6.997110843658447">
        <ele>1327.9453125</ele>
      </trkpt>
      <trkpt lat="46.054494380950928" lon="6.997175216674805">
        <ele>1332.04296875</ele>
      </trkpt>
      <trkpt lat="46.053764820098877" lon="6.997389793395996">
        <ele>1346.7421875</ele>
      </trkpt>
      <trkpt lat="46.053378582000732" lon="6.997389793395996">
        <ele>1352.4609375</ele>
      </trkpt>
      <trkpt lat="46.05294942855835" lon="6.997175216674805">
        <ele>1353.16015625</ele>
      </trkpt>
      <trkpt lat="46.052627563476562" lon="6.9972825050354">
        <ele>1359.83203125</ele>
      </trkpt>
      <trkpt lat="46.052649021148682" lon="6.997518539428711">
        <ele>1368.30859375</ele>
      </trkpt>
      <trkpt lat="46.052756309509277" lon="6.997647285461426">
        <ele>1373.046875</ele>
      </trkpt>
      <trkpt lat="46.052627563476562" lon="6.997690200805664">
        <ele>1375.41796875</ele>
      </trkpt>
      <trkpt lat="46.05269193649292" lon="6.99779748916626">
        <ele>1379.48828125</ele>
      </trkpt>
      <trkpt lat="46.052627563476562" lon="6.997926235198975">
        <ele>1385.0546875</ele>
      </trkpt>
      <trkpt lat="46.052820682525635" lon="6.998076438903809">
        <ele>1389.96875</ele>
      </trkpt>
      <trkpt lat="46.052713394165039" lon="6.998269557952881">
        <ele>1398.921875</ele>
      </trkpt>
      <trkpt lat="46.052863597869873" lon="6.998462677001953">
        <ele>1407.44140625</ele>
      </trkpt>
      <trkpt lat="46.052820682525635" lon="6.998634338378906">
        <ele>1416.29296875</ele>
      </trkpt>
      <trkpt lat="46.05294942855835" lon="6.998763084411621">
        <ele>1421.92578125</ele>
      </trkpt>
      <trkpt lat="46.053035259246826" lon="6.998999118804932">
        <ele>1433.4921875</ele>
      </trkpt>
      <trkpt lat="46.053035259246826" lon="6.999127864837646">
        <ele>1439.8125</ele>
      </trkpt>
      <trkpt lat="46.05318546295166" lon="6.999256610870361">
        <ele>1445.52734375</ele>
      </trkpt>
      <trkpt lat="46.053099632263184" lon="6.999406814575195">
        <ele>1452.79296875</ele>
      </trkpt>
      <trkpt lat="46.052992343902588" lon="6.999492645263672">
        <ele>1456.83984375</ele>
      </trkpt>
      <trkpt lat="46.05292797088623" lon="6.999514102935791">
        <ele>1457.8203125</ele>
      </trkpt>
      <trkpt lat="46.052799224853516" lon="6.999599933624268">
        <ele>1461.62109375</ele>
      </trkpt>
      <trkpt lat="46.05269193649292" lon="6.999642848968506">
        <ele>1463.37109375</ele>
      </trkpt>
      <trkpt lat="46.05269193649292" lon="6.999685764312744">
        <ele>1465.28515625</ele>
      </trkpt>
      <trkpt lat="46.05269193649292" lon="6.999750137329102">
        <ele>1468.15234375</ele>
      </trkpt>
      <trkpt lat="46.052734851837158" lon="6.999771595001221">
        <ele>1469.16796875</ele>
      </trkpt>
      <trkpt lat="46.052799224853516" lon="6.999835968017578">
        <ele>1472.15625</ele>
      </trkpt>
      <trkpt lat="46.052863597869873" lon="6.999964714050293">
        <ele>1479.07421875</ele>
      </trkpt>
      <trkpt lat="46.052670478820801" lon="7.000072002410889">
        <ele>1485.046875</ele>
      </trkpt>
      <trkpt lat="46.052777767181396" lon="7.000179290771484">
        <ele>1491.35546875</ele>
      </trkpt>
      <trkpt lat="46.052713394165039" lon="7.000265121459961">
        <ele>1496.5</ele>
      </trkpt>
      <trkpt lat="46.052906513214111" lon="7.000308036804199">
        <ele>1499.7734375</ele>
      </trkpt>
      <trkpt lat="46.052970886230469" lon="7.000458240509033">
        <ele>1509.24609375</ele>
      </trkpt>
      <trkpt lat="46.052799224853516" lon="7.000844478607178">
        <ele>1530.4921875</ele>
      </trkpt>
      <trkpt lat="46.053099632263184" lon="7.000758647918701">
        <ele>1528.60546875</ele>
      </trkpt>
      <trkpt lat="46.05318546295166" lon="7.000672817230225">
        <ele>1524.140625</ele>
      </trkpt>
      <trkpt lat="46.053234748542309" lon="7.000648006796837">
        <ele>1523.05078125</ele>
      </trkpt>
      <trkpt lat="46.053314208984375" lon="7.000608444213867">
        <ele>1521.28125</ele>
      </trkpt>
      <trkpt lat="46.053550243377686" lon="7.000651359558105">
        <ele>1526.1015625</ele>
      </trkpt>
      <trkpt lat="46.054236888885498" lon="7.000565528869629">
        <ele>1523.16015625</ele>
      </trkpt>
      <trkpt lat="46.054344177246094" lon="7.000586986541748">
        <ele>1524.93359375</ele>
      </trkpt>
      <trkpt lat="46.0546875" lon="7.000586986541748">
        <ele>1526.3828125</ele>
      </trkpt>
      <trkpt lat="46.054816246032715" lon="7.000629901885986">
        <ele>1529.56640625</ele>
      </trkpt>
      <trkpt lat="46.054923534393311" lon="7.000565528869629">
        <ele>1526.18359375</ele>
      </trkpt>
      <trkpt lat="46.055030822753906" lon="7.000479698181152">
        <ele>1521.765625</ele>
      </trkpt>
      <trkpt lat="46.055159568786621" lon="7.00028657913208">
        <ele>1511.796875</ele>
      </trkpt>
      <trkpt lat="46.055223941802979" lon="7.000243663787842">
        <ele>1510.01953125</ele>
      </trkpt>
      <trkpt lat="46.055352687835693" lon="7.000222206115723">
        <ele>1509.19921875</ele>
      </trkpt>
      <trkpt lat="46.055545806884766" lon="7.000222206115723">
        <ele>1508.9140625</ele>
      </trkpt>
      <trkpt lat="46.055717468261719" lon="7.000265121459961">
        <ele>1510.67578125</ele>
      </trkpt>
      <trkpt lat="46.055824756622314" lon="7.000350952148438">
        <ele>1514.328125</ele>
      </trkpt>
      <trkpt lat="46.056103706359863" lon="7.000629901885986">
        <ele>1524.73828125</ele>
      </trkpt>
      <trkpt lat="46.056339740753174" lon="7.000715732574463">
        <ele>1526.34375</ele>
      </trkpt>
      <trkpt lat="46.056404113769531" lon="7.000823020935059">
        <ele>1527.99609375</ele>
      </trkpt>
      <trkpt lat="46.056511402130127" lon="7.000887393951416">
        <ele>1528.07421875</ele>
      </trkpt>
      <trkpt lat="46.056618690490723" lon="7.000865936279297">
        <ele>1526.72265625</ele>
      </trkpt>
      <trkpt lat="46.056725978851318" lon="7.000758647918701">
        <ele>1524.13671875</ele>
      </trkpt>
      <trkpt lat="46.056811809539795" lon="7.000715732574463">
        <ele>1522.54296875</ele>
      </trkpt>
      <trkpt lat="46.056919097900391" lon="7.000694274902344">
        <ele>1521.12890625</ele>
      </trkpt>
      <trkpt lat="46.057047843933105" lon="7.000758647918701">
        <ele>1522.55078125</ele>
      </trkpt>
      <trkpt lat="46.057133674621582" lon="7.000865936279297">
        <ele>1523.91015625</ele>
      </trkpt>
      <trkpt lat="46.057262420654297" lon="7.001016139984131">
        <ele>1525.4453125</ele>
      </trkpt>
      <trkpt lat="46.057648658752441" lon="7.001123428344727">
        <ele>1525.65625</ele>
      </trkpt>
      <trkpt lat="46.05769157409668" lon="7.001209259033203">
        <ele>1525.953125</ele>
      </trkpt>
      <trkpt lat="46.057713031768799" lon="7.001338005065918">
        <ele>1526.4375</ele>
      </trkpt>
      <trkpt lat="46.057670116424561" lon="7.001488208770752">
        <ele>1527.34765625</ele>
      </trkpt>
      <trkpt lat="46.057670116424561" lon="7.001616954803467">
        <ele>1527.53515625</ele>
      </trkpt>
      <trkpt lat="46.057648658752441" lon="7.001702785491943">
        <ele>1527.39453125</ele>
      </trkpt>
      <trkpt lat="46.057605743408203" lon="7.001852989196777">
        <ele>1527.29296875</ele>
      </trkpt>
      <trkpt lat="46.057605743408203" lon="7.001938819885254">
        <ele>1527.0234375</ele>
      </trkpt>
      <trkpt lat="46.057627201080322" lon="7.00204610824585">
        <ele>1526.42578125</ele>
      </trkpt>
      <trkpt lat="46.057648658752441" lon="7.002131938934326">
        <ele>1525.86328125</ele>
      </trkpt>
      <trkpt lat="46.057627201080322" lon="7.002260684967041">
        <ele>1525.70703125</ele>
      </trkpt>
      <trkpt lat="46.057648658752441" lon="7.002453804016113">
        <ele>1523.890625</ele>
      </trkpt>
      <trkpt lat="46.057648658752441" lon="7.002861499786377">
        <ele>1516.1640625</ele>
      </trkpt>
      <trkpt lat="46.057605743408203" lon="7.002990245819092">
        <ele>1515.19921875</ele>
      </trkpt>
      <trkpt lat="46.057519912719727" lon="7.003118991851807">
        <ele>1516.234375</ele>
      </trkpt>
      <trkpt lat="46.057412624359131" lon="7.003183364868164">
        <ele>1519.6171875</ele>
      </trkpt>
      <trkpt lat="46.057369709014893" lon="7.003247737884521">
        <ele>1520.8203125</ele>
      </trkpt>
      <trkpt lat="46.057326793670654" lon="7.003397941589355">
        <ele>1522.48046875</ele>
      </trkpt>
      <trkpt lat="46.057326793670654" lon="7.00352668762207">
        <ele>1522.34765625</ele>
      </trkpt>
      <trkpt lat="46.057412624359131" lon="7.003891468048096">
        <ele>1516.80859375</ele>
      </trkpt>
      <trkpt lat="46.05743408203125" lon="7.00404167175293">
        <ele>1514.921875</ele>
      </trkpt>
      <trkpt lat="46.057412624359131" lon="7.004234790802002">
        <ele>1517.84375</ele>
      </trkpt>
      <trkpt lat="46.05743408203125" lon="7.004427909851074">
        <ele>1518.23046875</ele>
      </trkpt>
      <trkpt lat="46.057498455047607" lon="7.004685401916504">
        <ele>1516.07421875</ele>
      </trkpt>
      <trkpt lat="46.057476997375488" lon="7.0047926902771">
        <ele>1518.5625</ele>
      </trkpt>
      <trkpt lat="46.057476997375488" lon="7.00502872467041">
        <ele>1521.28515625</ele>
      </trkpt>
      <trkpt lat="46.057519912719727" lon="7.005457878112793">
        <ele>1523.95703125</ele>
      </trkpt>
      <trkpt lat="46.057541370391846" lon="7.005565166473389">
        <ele>1523.8203125</ele>
      </trkpt>
      <trkpt lat="46.057541370391846" lon="7.005608081817627">
        <ele>1524.40234375</ele>
      </trkpt>
      <trkpt lat="46.057519912719727" lon="7.005887031555176">
        <ele>1530.43359375</ele>
      </trkpt>
      <trkpt lat="46.057541370391846" lon="7.006015777587891">
        <ele>1531.16015625</ele>
      </trkpt>
      <trkpt lat="46.057605743408203" lon="7.006101608276367">
        <ele>1528.0390625</ele>
      </trkpt>
      <trkpt lat="46.057648658752441" lon="7.006251811981201">
        <ele>1527.71484375</ele>
      </trkpt>
      <trkpt lat="46.057670116424561" lon="7.006337642669678">
        <ele>1527.78125</ele>
      </trkpt>
      <trkpt lat="46.057670116424561" lon="7.00643696822226">
        <ele>1529.6328125</ele>
      </trkpt>
      <trkpt lat="46.057734489440918" lon="7.006874084472656">
        <ele>1533.48828125</ele>
      </trkpt>
      <trkpt lat="46.057755947113037" lon="7.006959915161133">
        <ele>1533.63671875</ele>
      </trkpt>
      <trkpt lat="46.057755947113037" lon="7.007260322570801">
        <ele>1539.4140625</ele>
      </trkpt>
      <trkpt lat="46.057798862457275" lon="7.007389068603516">
        <ele>1539.29296875</ele>
      </trkpt>
      <trkpt lat="46.057841777801514" lon="7.007625102996826">
        <ele>1541.3359375</ele>
      </trkpt>
      <trkpt lat="46.057820320129395" lon="7.007689476013184">
        <ele>1543.76953125</ele>
      </trkpt>
      <trkpt lat="46.057820320129395" lon="7.007861137390137">
        <ele>1547.0078125</ele>
      </trkpt>
      <trkpt lat="46.057734489440918" lon="7.008161544799805">
        <ele>1558.2890625</ele>
      </trkpt>
      <trkpt lat="46.057734489440918" lon="7.0082688331604">
        <ele>1560.1953125</ele>
      </trkpt>
      <trkpt lat="46.057755947113037" lon="7.008397579193115">
        <ele>1560.6484375</ele>
      </trkpt>
      <trkpt lat="46.057755947113037" lon="7.00852632522583">
        <ele>1562.6328125</ele>
      </trkpt>
      <trkpt lat="46.057798862457275" lon="7.008826732635498">
        <ele>1564.46875</ele>
      </trkpt>
      <trkpt lat="46.057798862457275" lon="7.009148597717285">
        <ele>1567.91796875</ele>
      </trkpt>
      <trkpt lat="46.057777404785156" lon="7.009427547454834">
        <ele>1568.69140625</ele>
      </trkpt>
      <trkpt lat="46.057777404785156" lon="7.009835243225098">
        <ele>1567.73046875</ele>
      </trkpt>
      <trkpt lat="46.057605743408203" lon="7.010157108306885">
        <ele>1573.9375</ele>
      </trkpt>
      <trkpt lat="46.057562828063965" lon="7.010328769683838">
        <ele>1574.5703125</ele>
      </trkpt>
      <trkpt lat="46.057305335998535" lon="7.010629177093506">
        <ele>1586.06640625</ele>
      </trkpt>
      <trkpt lat="46.057262420654297" lon="7.010715007781982">
        <ele>1587.7890625</ele>
      </trkpt>
      <trkpt lat="46.057262420654297" lon="7.01103687286377">
        <ele>1591.75390625</ele>
      </trkpt>
      <trkpt lat="46.057219505310059" lon="7.011122703552246">
        <ele>1595.74609375</ele>
      </trkpt>
      <trkpt lat="46.057198047637939" lon="7.011208534240723">
        <ele>1598.453125</ele>
      </trkpt>
      <trkpt lat="46.057240962982178" lon="7.011337280273438">
        <ele>1597.265625</ele>
      </trkpt>
      <trkpt lat="46.057240962982178" lon="7.011551856994629">
        <ele>1600.21484375</ele>
      </trkpt>
      <trkpt lat="46.057155132293701" lon="7.011637687683105">
        <ele>1608.96484375</ele>
      </trkpt>
      <trkpt lat="46.057219505310059" lon="7.011809349060059">
        <ele>1608.171875</ele>
      </trkpt>
      <trkpt lat="46.057219505310059" lon="7.012088298797607">
        <ele>1615.0859375</ele>
      </trkpt>
      <trkpt lat="46.057262420654297" lon="7.012195587158203">
        <ele>1614.23828125</ele>
      </trkpt>
      <trkpt lat="46.057326793670654" lon="7.012410163879395">
        <ele>1613.94921875</ele>
      </trkpt>
      <trkpt lat="46.057369709014893" lon="7.012732028961182">
        <ele>1613.890625</ele>
      </trkpt>
      <trkpt lat="46.057369709014893" lon="7.012839317321777">
        <ele>1615.0546875</ele>
      </trkpt>
      <trkpt lat="46.057391166687012" lon="7.013053894042969">
        <ele>1615.64453125</ele>
      </trkpt>
      <trkpt lat="46.057369709014893" lon="7.013182640075684">
        <ele>1618.77734375</ele>
      </trkpt>
      <trkpt lat="46.057369709014893" lon="7.01352596282959">
        <ele>1615.6953125</ele>
      </trkpt>
      <trkpt lat="46.057391166687012" lon="7.0137619972229">
        <ele>1611.22265625</ele>
      </trkpt>
      <trkpt lat="46.057348251342773" lon="7.013912200927734">
        <ele>1612.73046875</ele>
      </trkpt>
      <trkpt lat="46.05717658996582" lon="7.014255523681641">
        <ele>1623.3671875</ele>
      </trkpt>
      <trkpt lat="46.057112216949463" lon="7.014341354370117">
        <ele>1628.30078125</ele>
      </trkpt>
      <trkpt lat="46.056962013244629" lon="7.014341354370117">
        <ele>1640.39453125</ele>
      </trkpt>
      <trkpt lat="46.056919097900391" lon="7.014384269714355">
        <ele>1643.88671875</ele>
      </trkpt>
      <trkpt lat="46.056962013244629" lon="7.014491558074951">
        <ele>1640.51171875</ele>
      </trkpt>
      <trkpt lat="46.057069301605225" lon="7.014641761779785">
        <ele>1631.43359375</ele>
      </trkpt>
      <trkpt lat="46.057112216949463" lon="7.014813423156738">
        <ele>1627.44140625</ele>
      </trkpt>
      <trkpt lat="46.057133674621582" lon="7.01502799987793">
        <ele>1628.4375</ele>
      </trkpt>
      <trkpt lat="46.057112216949463" lon="7.01526403427124">
        <ele>1635.62890625</ele>
      </trkpt>
      <trkpt lat="46.057262420654297" lon="7.015671730041504">
        <ele>1632.59375</ele>
      </trkpt>
      <trkpt lat="46.057305335998535" lon="7.015907764434814">
        <ele>1633.40625</ele>
      </trkpt>
      <trkpt lat="46.057348251342773" lon="7.016294002532959">
        <ele>1636.20703125</ele>
      </trkpt>
      <trkpt lat="46.057348251342773" lon="7.016787528991699">
        <ele>1643.10546875</ele>
      </trkpt>
      <trkpt lat="46.057305335998535" lon="7.017195224761963">
        <ele>1651.21875</ele>
      </trkpt>
      <trkpt lat="46.057305335998535" lon="7.017817497253418">
        <ele>1658.15234375</ele>
      </trkpt>
      <trkpt lat="46.057326793670654" lon="7.01801061630249">
        <ele>1658.65625</ele>
      </trkpt>
      <trkpt lat="46.057305335998535" lon="7.018375396728516">
        <ele>1661.1015625</ele>
      </trkpt>
      <trkpt lat="46.057240962982178" lon="7.018547058105469">
        <ele>1663.91015625</ele>
      </trkpt>
      <trkpt lat="46.05717658996582" lon="7.018783092498779">
        <ele>1665.7109375</ele>
      </trkpt>
      <trkpt lat="46.057069301605225" lon="7.018890380859375">
        <ele>1671.62109375</ele>
      </trkpt>
      <trkpt lat="46.056747436523438" lon="7.019319534301758">
        <ele>1691.359375</ele>
      </trkpt>
      <trkpt lat="46.056725978851318" lon="7.019598484039307">
        <ele>1692.91015625</ele>
      </trkpt>
      <trkpt lat="46.056618690490723" lon="7.019748687744141">
        <ele>1700.1015625</ele>
      </trkpt>
      <trkpt lat="46.056747436523438" lon="7.019984722137451">
        <ele>1690.64453125</ele>
      </trkpt>
      <trkpt lat="46.05668306350708" lon="7.020392417907715">
        <ele>1690.67578125</ele>
      </trkpt>
      <trkpt lat="46.056361198425293" lon="7.020843029022217">
        <ele>1703.77734375</ele>
      </trkpt>
      <trkpt lat="46.056168079376221" lon="7.021186351776123">
        <ele>1707.54296875</ele>
      </trkpt>
      <trkpt lat="46.055974960327148" lon="7.021658420562744">
        <ele>1710.73046875</ele>
      </trkpt>
      <trkpt lat="46.055867671966553" lon="7.021808624267578">
        <ele>1716.328125</ele>
      </trkpt>
      <trkpt lat="46.055781841278076" lon="7.022194862365723">
        <ele>1717.9453125</ele>
      </trkpt>
      <trkpt lat="46.055781841278076" lon="7.022430896759033">
        <ele>1716.2421875</ele>
      </trkpt>
      <trkpt lat="46.055824756622314" lon="7.022645473480225">
        <ele>1714.83203125</ele>
      </trkpt>
      <trkpt lat="46.055738925933838" lon="7.02301025390625">
        <ele>1721.859375</ele>
      </trkpt>
      <trkpt lat="46.055824756622314" lon="7.024040222167969">
        <ele>1730.58984375</ele>
      </trkpt>
      <trkpt lat="46.055867671966553" lon="7.024276256561279">
        <ele>1734.9140625</ele>
      </trkpt>
      <trkpt lat="46.05593204498291" lon="7.024383544921875">
        <ele>1735.359375</ele>
      </trkpt>
      <trkpt lat="46.056103706359863" lon="7.024598121643066">
        <ele>1736.00390625</ele>
      </trkpt>
      <trkpt lat="46.056210994720459" lon="7.024705410003662">
        <ele>1738.671875</ele>
      </trkpt>
      <trkpt lat="46.056275367736816" lon="7.024726867675781">
        <ele>1738.87109375</ele>
      </trkpt>
      <trkpt lat="46.05642557144165" lon="7.02476978302002">
        <ele>1739.2578125</ele>
      </trkpt>
      <trkpt lat="46.056575775146484" lon="7.02476978302002">
        <ele>1738.00390625</ele>
      </trkpt>
      <trkpt lat="46.056897640228271" lon="7.024898529052734">
        <ele>1741.9453125</ele>
      </trkpt>
      <trkpt lat="46.057047843933105" lon="7.02500581741333">
        <ele>1747.4375</ele>
      </trkpt>
      <trkpt lat="46.057155132293701" lon="7.025048732757568">
        <ele>1749.3515625</ele>
      </trkpt>
      <trkpt lat="46.057240962982178" lon="7.025134563446045">
        <ele>1753.81640625</ele>
      </trkpt>
      <trkpt lat="46.057369709014893" lon="7.025198936462402">
        <ele>1756.7265625</ele>
      </trkpt>
      <trkpt lat="46.057584285736084" lon="7.025349140167236">
        <ele>1763.82421875</ele>
      </trkpt>
      <trkpt lat="46.057798862457275" lon="7.025434970855713">
        <ele>1766.296875</ele>
      </trkpt>
      <trkpt lat="46.057863235473633" lon="7.025520801544189">
        <ele>1768.63671875</ele>
      </trkpt>
      <trkpt lat="46.058013439178467" lon="7.026035785675049">
        <ele>1788.02734375</ele>
      </trkpt>
      <trkpt lat="46.058120727539062" lon="7.026228904724121">
        <ele>1792.3203125</ele>
      </trkpt>
      <trkpt lat="46.05818510055542" lon="7.026400566101074">
        <ele>1797.265625</ele>
      </trkpt>
      <trkpt lat="46.058378219604492" lon="7.026722431182861">
        <ele>1799.96484375</ele>
      </trkpt>
      <trkpt lat="46.058464050292969" lon="7.026958465576172">
        <ele>1802.74609375</ele>
      </trkpt>
      <trkpt lat="46.058464050292969" lon="7.027237415313721">
        <ele>1810.5625</ele>
      </trkpt>
      <trkpt lat="46.05844259262085" lon="7.027773857116699">
        <ele>1818.75</ele>
      </trkpt>
      <trkpt lat="46.058399677276611" lon="7.02824592590332">
        <ele>1823.82421875</ele>
      </trkpt>
      <trkpt lat="46.058292388916016" lon="7.028653621673584">
        <ele>1824.2734375</ele>
      </trkpt>
      <trkpt lat="46.05818510055542" lon="7.029168605804443">
        <ele>1824.1484375</ele>
      </trkpt>
      <trkpt lat="46.058163642883301" lon="7.029232978820801">
        <ele>1824.73046875</ele>
      </trkpt>
      <trkpt lat="46.058077812194824" lon="7.029297351837158">
        <ele>1827.7578125</ele>
      </trkpt>
      <trkpt lat="46.057798862457275" lon="7.029383182525635">
        <ele>1838.125</ele>
      </trkpt>
      <trkpt lat="46.057627201080322" lon="7.029554843902588">
        <ele>1841.1953125</ele>
      </trkpt>
      <trkpt lat="46.057369709014893" lon="7.029683589935303">
        <ele>1844.8359375</ele>
      </trkpt>
      <trkpt lat="46.057283878326416" lon="7.029855251312256">
        <ele>1845.1796875</ele>
      </trkpt>
      <trkpt lat="46.05717658996582" lon="7.029941082000732">
        <ele>1846.85546875</ele>
      </trkpt>
      <trkpt lat="46.057090759277344" lon="7.03000545501709">
        <ele>1848.41015625</ele>
      </trkpt>
      <trkpt lat="46.05694055557251" lon="7.030177116394043">
        <ele>1851.37109375</ele>
      </trkpt>
      <trkpt lat="46.056876182556152" lon="7.030348777770996">
        <ele>1852.921875</ele>
      </trkpt>
      <trkpt lat="46.056790351867676" lon="7.030434608459473">
        <ele>1854.07421875</ele>
      </trkpt>
      <trkpt lat="46.056554317474365" lon="7.03099250793457">
        <ele>1856.17578125</ele>
      </trkpt>
      <trkpt lat="46.056532859802246" lon="7.031121253967285">
        <ele>1856.4296875</ele>
      </trkpt>
      <trkpt lat="46.056532859802246" lon="7.031228542327881">
        <ele>1856.55859375</ele>
      </trkpt>
      <trkpt lat="46.056511402130127" lon="7.031335830688477">
        <ele>1856.79296875</ele>
      </trkpt>
      <trkpt lat="46.056361198425293" lon="7.031571865081787">
        <ele>1858.01171875</ele>
      </trkpt>
      <trkpt lat="46.056318283081055" lon="7.031764984130859">
        <ele>1860.3046875</ele>
      </trkpt>
      <trkpt lat="46.056210994720459" lon="7.032022476196289">
        <ele>1863.88671875</ele>
      </trkpt>
      <trkpt lat="46.05618953704834" lon="7.032108306884766">
        <ele>1865.03515625</ele>
      </trkpt>
      <trkpt lat="46.056232452392578" lon="7.032194137573242">
        <ele>1865.66015625</ele>
      </trkpt>
      <trkpt lat="46.056232452392578" lon="7.032322883605957">
        <ele>1867.109375</ele>
      </trkpt>
      <trkpt lat="46.056168079376221" lon="7.032837867736816">
        <ele>1872.0625</ele>
      </trkpt>
      <trkpt lat="46.05618953704834" lon="7.032902240753174">
        <ele>1872.30859375</ele>
      </trkpt>
      <trkpt lat="46.056168079376221" lon="7.03298807144165">
        <ele>1873.26953125</ele>
      </trkpt>
      <trkpt lat="46.055996417999268" lon="7.033267021179199">
        <ele>1876.17578125</ele>
      </trkpt>
      <trkpt lat="46.055953502655029" lon="7.033395767211914">
        <ele>1876.671875</ele>
      </trkpt>
      <trkpt lat="46.055867671966553" lon="7.033760547637939">
        <ele>1878.4296875</ele>
      </trkpt>
      <trkpt lat="46.055803298950195" lon="7.033932209014893">
        <ele>1879.59765625</ele>
      </trkpt>
      <trkpt lat="46.055803298950195" lon="7.034168243408203">
        <ele>1882.546875</ele>
      </trkpt>
      <trkpt lat="46.055824756622314" lon="7.034404277801514">
        <ele>1887.015625</ele>
      </trkpt>
      <trkpt lat="46.056103706359863" lon="7.035026550292969">
        <ele>1900.328125</ele>
      </trkpt>
      <trkpt lat="46.056253910064697" lon="7.035090923309326">
        <ele>1902.8828125</ele>
      </trkpt>
      <trkpt lat="46.056361198425293" lon="7.03524112701416">
        <ele>1909.60546875</ele>
      </trkpt>
      <trkpt lat="46.056575775146484" lon="7.035284042358398">
        <ele>1911.671875</ele>
      </trkpt>
      <trkpt lat="46.056790351867676" lon="7.035412788391113">
        <ele>1918.2265625</ele>
      </trkpt>
      <trkpt lat="46.057047843933105" lon="7.035520076751709">
        <ele>1922.546875</ele>
      </trkpt>
      <trkpt lat="46.057305335998535" lon="7.035584449768066">
        <ele>1921.9921875</ele>
      </trkpt>
      <trkpt lat="46.057476997375488" lon="7.035691738128662">
        <ele>1924.02734375</ele>
      </trkpt>
      <trkpt lat="46.057584285736084" lon="7.035863399505615">
        <ele>1928.2890625</ele>
      </trkpt>
      <trkpt lat="46.057648658752441" lon="7.036056518554688">
        <ele>1933.04296875</ele>
      </trkpt>
      <trkpt lat="46.05769157409668" lon="7.036314010620117">
        <ele>1939.63671875</ele>
      </trkpt>
      <trkpt lat="46.057670116424561" lon="7.036657333374023">
        <ele>1949.68359375</ele>
      </trkpt>
      <trkpt lat="46.057627201080322" lon="7.036914825439453">
        <ele>1956.7890625</ele>
      </trkpt>
      <trkpt lat="46.057605743408203" lon="7.03723669052124">
        <ele>1964.453125</ele>
      </trkpt>
      <trkpt lat="46.057627201080322" lon="7.037708759307861">
        <ele>1970.7890625</ele>
      </trkpt>
      <trkpt lat="46.057605743408203" lon="7.037944793701172">
        <ele>1976.234375</ele>
      </trkpt>
      <trkpt lat="46.057627201080322" lon="7.038159370422363">
        <ele>1977.76953125</ele>
      </trkpt>
      <trkpt lat="46.057627201080322" lon="7.038331031799316">
        <ele>1980.01171875</ele>
      </trkpt>
      <trkpt lat="46.057562828063965" lon="7.038588523864746">
        <ele>1988.74609375</ele>
      </trkpt>
      <trkpt lat="46.057562828063965" lon="7.038931846618652">
        <ele>1992.8671875</ele>
      </trkpt>
      <trkpt lat="46.05743408203125" lon="7.039575576782227">
        <ele>2013.76953125</ele>
      </trkpt>
      <trkpt lat="46.05743408203125" lon="7.039768695831299">
        <ele>2016.7734375</ele>
      </trkpt>
      <trkpt lat="46.057476997375488" lon="7.039940357208252">
        <ele>2017.296875</ele>
      </trkpt>
      <trkpt lat="46.057605743408203" lon="7.040176391601562">
        <ele>2015.8984375</ele>
      </trkpt>
      <trkpt lat="46.057670116424561" lon="7.040369510650635">
        <ele>2018.21484375</ele>
      </trkpt>
      <trkpt lat="46.057820320129395" lon="7.040691375732422">
        <ele>2019.08203125</ele>
      </trkpt>
      <trkpt lat="46.057841777801514" lon="7.040863037109375">
        <ele>2017.83984375</ele>
      </trkpt>
      <trkpt lat="46.057841777801514" lon="7.041656970977783">
        <ele>2016.609375</ele>
      </trkpt>
      <trkpt lat="46.057820320129395" lon="7.041828632354736">
        <ele>2017.58203125</ele>
      </trkpt>
      <trkpt lat="46.057777404785156" lon="7.041957378387451">
        <ele>2020.85546875</ele>
      </trkpt>
      <trkpt lat="46.057627201080322" lon="7.042171955108643">
        <ele>2029.578125</ele>
      </trkpt>
      <trkpt lat="46.057541370391846" lon="7.042365074157715">
        <ele>2033.7890625</ele>
      </trkpt>
      <trkpt lat="46.057498455047607" lon="7.042536735534668">
        <ele>2035.21484375</ele>
      </trkpt>
      <trkpt lat="46.057519912719727" lon="7.043051719665527">
        <ele>2029.16015625</ele>
      </trkpt>
      <trkpt lat="46.057476997375488" lon="7.043116092681885">
        <ele>2031.6171875</ele>
      </trkpt>
      <trkpt lat="46.057412624359131" lon="7.043180465698242">
        <ele>2035.609375</ele>
      </trkpt>
      <trkpt lat="46.057326793670654" lon="7.043309211730957">
        <ele>2040.8671875</ele>
      </trkpt>
      <trkpt lat="46.057305335998535" lon="7.043395042419434">
        <ele>2041.83984375</ele>
      </trkpt>
      <trkpt lat="46.057240962982178" lon="7.043588161468506">
        <ele>2044.91796875</ele>
      </trkpt>
      <trkpt lat="46.057219505310059" lon="7.043824195861816">
        <ele>2044.64453125</ele>
      </trkpt>
      <trkpt lat="46.057305335998535" lon="7.044167518615723">
        <ele>2035.76953125</ele>
      </trkpt>
      <trkpt lat="46.057369709014893" lon="7.04423189163208">
        <ele>2031.34765625</ele>
      </trkpt>
      <trkpt lat="46.057391166687012" lon="7.044296264648438">
        <ele>2029.3828125</ele>
      </trkpt>
      <trkpt lat="46.057455539703369" lon="7.044360637664795">
        <ele>2025.57421875</ele>
      </trkpt>
      <trkpt lat="46.057562828063965" lon="7.044446468353271">
        <ele>2020.17578125</ele>
      </trkpt>
      <trkpt lat="46.057240962982178" lon="7.044596672058105">
        <ele>2030.65625</ele>
      </trkpt>
      <trkpt lat="46.057069301605225" lon="7.044746875762939">
        <ele>2032.53515625</ele>
      </trkpt>
      <trkpt lat="46.056919097900391" lon="7.044897079467773">
        <ele>2031.4609375</ele>
      </trkpt>
      <trkpt lat="46.056661605834961" lon="7.045326232910156">
        <ele>2018.70703125</ele>
      </trkpt>
      <trkpt lat="46.056575775146484" lon="7.045433521270752">
        <ele>2015.9921875</ele>
      </trkpt>
      <trkpt lat="46.056554317474365" lon="7.045562267303467">
        <ele>2010.7265625</ele>
      </trkpt>
      <trkpt lat="46.056468486785889" lon="7.045626640319824">
        <ele>2009.90234375</ele>
      </trkpt>
      <trkpt lat="46.05642557144165" lon="7.045755386352539">
        <ele>2005.83203125</ele>
      </trkpt>
      <trkpt lat="46.056318283081055" lon="7.045927047729492">
        <ele>2003.2109375</ele>
      </trkpt>
      <trkpt lat="46.056146621704102" lon="7.046055793762207">
        <ele>2003.515625</ele>
      </trkpt>
      <trkpt lat="46.056017875671387" lon="7.046270370483398">
        <ele>2000.8515625</ele>
      </trkpt>
      <trkpt lat="46.055953502655029" lon="7.046291828155518">
        <ele>2002.2734375</ele>
      </trkpt>
      <trkpt lat="46.055846214294434" lon="7.04622745513916">
        <ele>2007.5</ele>
      </trkpt>
      <trkpt lat="46.05567455291748" lon="7.046248912811279">
        <ele>2012.3046875</ele>
      </trkpt>
      <trkpt lat="46.055481433868408" lon="7.046377658843994">
        <ele>2015.109375</ele>
      </trkpt>
      <trkpt lat="46.055374145507812" lon="7.046592235565186">
        <ele>2013.40625</ele>
      </trkpt>
      <trkpt lat="46.055309772491455" lon="7.046957015991211">
        <ele>2007.609375</ele>
      </trkpt>
      <trkpt lat="46.055309772491455" lon="7.047278881072998">
        <ele>2000.56640625</ele>
      </trkpt>
      <trkpt lat="46.055245399475098" lon="7.047450542449951">
        <ele>2000.3125</ele>
      </trkpt>
      <trkpt lat="46.055266857147217" lon="7.047643661499023">
        <ele>1997.30078125</ele>
      </trkpt>
      <trkpt lat="46.05543851852417" lon="7.048287391662598">
        <ele>1982.42578125</ele>
      </trkpt>
      <trkpt lat="46.055429801344872" lon="7.048374395817518">
        <ele>1982</ele>
      </trkpt>
      <trkpt lat="46.055395603179932" lon="7.04871654510498">
        <ele>1980.3125</ele>
      </trkpt>
      <trkpt lat="46.055331230163574" lon="7.0487380027771">
        <ele>1983.12109375</ele>
      </trkpt>
      <trkpt lat="46.055309772491455" lon="7.048780918121338">
        <ele>1983.71484375</ele>
      </trkpt>
      <trkpt lat="46.055245399475098" lon="7.049338817596436">
        <ele>1982.1796875</ele>
      </trkpt>
      <trkpt lat="46.055352687835693" lon="7.049510478973389">
        <ele>1976.78125</ele>
      </trkpt>
      <trkpt lat="46.055374145507812" lon="7.049703598022461">
        <ele>1974.91796875</ele>
      </trkpt>
      <trkpt lat="46.055395603179932" lon="7.049746513366699">
        <ele>1973.8515625</ele>
      </trkpt>
      <trkpt lat="46.055459976196289" lon="7.050089836120605">
        <ele>1971.57421875</ele>
      </trkpt>
      <trkpt lat="46.055459976196289" lon="7.05021858215332">
        <ele>1972.03515625</ele>
      </trkpt>
      <trkpt lat="46.055502891540527" lon="7.050583362579346">
        <ele>1971.703125</ele>
      </trkpt>
      <trkpt lat="46.055502891540527" lon="7.050840854644775">
        <ele>1972.68359375</ele>
      </trkpt>
      <trkpt lat="46.055459976196289" lon="7.051033973693848">
        <ele>1975.23046875</ele>
      </trkpt>
      <trkpt lat="46.055459976196289" lon="7.051119804382324">
        <ele>1975.60546875</ele>
      </trkpt>
      <trkpt lat="46.055524349212646" lon="7.051377296447754">
        <ele>1973.88671875</ele>
      </trkpt>
      <trkpt lat="46.055567264556885" lon="7.05146312713623">
        <ele>1972.28125</ele>
      </trkpt>
      <trkpt lat="46.055588722229004" lon="7.051699161529541">
        <ele>1970.36328125</ele>
      </trkpt>
      <trkpt lat="46.055588722229004" lon="7.051784992218018">
        <ele>1969.73046875</ele>
      </trkpt>
      <trkpt lat="46.055524349212646" lon="7.05197811126709">
        <ele>1971.3671875</ele>
      </trkpt>
      <trkpt lat="46.055459976196289" lon="7.0522141456604">
        <ele>1972.81640625</ele>
      </trkpt>
      <trkpt lat="46.055481433868408" lon="7.052514553070068">
        <ele>1969.61328125</ele>
      </trkpt>
      <trkpt lat="46.055417060852051" lon="7.05296516418457">
        <ele>1969.45703125</ele>
      </trkpt>
      <trkpt lat="46.055395603179932" lon="7.053265571594238">
        <ele>1968.03515625</ele>
      </trkpt>
      <trkpt lat="46.055352687835693" lon="7.053458690643311">
        <ele>1967.796875</ele>
      </trkpt>
      <trkpt lat="46.055266857147217" lon="7.053673267364502">
        <ele>1968.9140625</ele>
      </trkpt>
      <trkpt lat="46.055245399475098" lon="7.053823471069336">
        <ele>1967.38671875</ele>
      </trkpt>
      <trkpt lat="46.055288314819336" lon="7.054059505462646">
        <ele>1962.7421875</ele>
      </trkpt>
      <trkpt lat="46.055309772491455" lon="7.054188251495361">
        <ele>1958.7109375</ele>
      </trkpt>
      <trkpt lat="46.055266857147217" lon="7.054274082183838">
        <ele>1958.05078125</ele>
      </trkpt>
      <trkpt lat="46.05518102645874" lon="7.054359912872314">
        <ele>1956.8203125</ele>
      </trkpt>
      <trkpt lat="46.05494499206543" lon="7.054445743560791">
        <ele>1956.640625</ele>
      </trkpt>
      <trkpt lat="46.054773330688477" lon="7.054488658905029">
        <ele>1956.6640625</ele>
      </trkpt>
      <trkpt lat="46.0546875" lon="7.054488658905029">
        <ele>1957.37109375</ele>
      </trkpt>
      <trkpt lat="46.053850650787354" lon="7.054510116577148">
        <ele>1958.17578125</ele>
      </trkpt>
      <trkpt lat="46.053657531738281" lon="7.054553031921387">
        <ele>1956.26953125</ele>
      </trkpt>
      <trkpt lat="46.053400039672852" lon="7.054531574249268">
        <ele>1955.359375</ele>
      </trkpt>
      <trkpt lat="46.05292797088623" lon="7.054424285888672">
        <ele>1955.46484375</ele>
      </trkpt>
      <trkpt lat="46.05194091796875" lon="7.054274082183838">
        <ele>1947.11328125</ele>
      </trkpt>
      <trkpt lat="46.051597595214844" lon="7.05420970916748">
        <ele>1939.9609375</ele>
      </trkpt>
      <trkpt lat="46.05144739151001" lon="7.054123878479004">
        <ele>1938.734375</ele>
      </trkpt>
      <trkpt lat="46.05118989944458" lon="7.053887844085693">
        <ele>1938.83984375</ele>
      </trkpt>
      <trkpt lat="46.050846576690674" lon="7.05348014831543">
        <ele>1939.875</ele>
      </trkpt>
      <trkpt lat="46.050589084625244" lon="7.053265571594238">
        <ele>1938.140625</ele>
      </trkpt>
      <trkpt lat="46.050481796264648" lon="7.053136825561523">
        <ele>1939.10546875</ele>
      </trkpt>
      <trkpt lat="46.050310134887695" lon="7.05296516418457">
        <ele>1940.1796875</ele>
      </trkpt>
      <trkpt lat="46.050138473510742" lon="7.052922248840332">
        <ele>1939.56640625</ele>
      </trkpt>
      <trkpt lat="46.04968786239624" lon="7.052922248840332">
        <ele>1935.59375</ele>
      </trkpt>
      <trkpt lat="46.049559116363525" lon="7.052943706512451">
        <ele>1933.66015625</ele>
      </trkpt>
      <trkpt lat="46.049494743347168" lon="7.052986621856689">
        <ele>1931.4921875</ele>
      </trkpt>
      <trkpt lat="46.049176817759871" lon="7.053029118105769">
        <ele>1923.50390625</ele>
      </trkpt>
      <trkpt lat="46.049001216888428" lon="7.052943706512451">
        <ele>1922.3125</ele>
      </trkpt>
      <trkpt lat="46.048765182495117" lon="7.052750587463379">
        <ele>1922.46875</ele>
      </trkpt>
      <trkpt lat="46.048378944396973" lon="7.052321434020996">
        <ele>1918.9921875</ele>
      </trkpt>
      <trkpt lat="46.048121452331543" lon="7.051827907562256">
        <ele>1917.15234375</ele>
      </trkpt>
      <trkpt lat="46.04769229888916" lon="7.05096960067749">
        <ele>1914.8515625</ele>
      </trkpt>
      <trkpt lat="46.047542095184326" lon="7.050862312316895">
        <ele>1913.6328125</ele>
      </trkpt>
      <trkpt lat="46.04745626449585" lon="7.050755023956299">
        <ele>1914.2421875</ele>
      </trkpt>
      <trkpt lat="46.047348976135254" lon="7.050776481628418">
        <ele>1911.4296875</ele>
      </trkpt>
      <trkpt lat="46.047327518463135" lon="7.050948143005371">
        <ele>1906.55859375</ele>
      </trkpt>
      <trkpt lat="46.047263145446777" lon="7.051033973693848">
        <ele>1902.734375</ele>
      </trkpt>
      <trkpt lat="46.04719877243042" lon="7.051012516021729">
        <ele>1901.70703125</ele>
      </trkpt>
      <trkpt lat="46.047263145446777" lon="7.051162719726562">
        <ele>1899.30859375</ele>
      </trkpt>
      <trkpt lat="46.047155857086182" lon="7.051184177398682">
        <ele>1895.8046875</ele>
      </trkpt>
      <trkpt lat="46.047177314758301" lon="7.051312923431396">
        <ele>1892.8046875</ele>
      </trkpt>
      <trkpt lat="46.047134399414062" lon="7.051334381103516">
        <ele>1890.94140625</ele>
      </trkpt>
      <trkpt lat="46.047112941741943" lon="7.051398754119873">
        <ele>1888.453125</ele>
      </trkpt>
      <trkpt lat="46.047070026397705" lon="7.051420211791992">
        <ele>1886.51953125</ele>
      </trkpt>
      <trkpt lat="46.047091484069824" lon="7.051506042480469">
        <ele>1884.6796875</ele>
      </trkpt>
      <trkpt lat="46.046984195709229" lon="7.051527500152588">
        <ele>1880.59375</ele>
      </trkpt>
      <trkpt lat="46.047048568725586" lon="7.051699161529541">
        <ele>1878.05859375</ele>
      </trkpt>
      <trkpt lat="46.047048568725586" lon="7.051763534545898">
        <ele>1876.3359375</ele>
      </trkpt>
      <trkpt lat="46.046984195709229" lon="7.051806449890137">
        <ele>1872.953125</ele>
      </trkpt>
      <trkpt lat="46.046962738037109" lon="7.051892280578613">
        <ele>1869.8515625</ele>
      </trkpt>
      <trkpt lat="46.046919822692871" lon="7.051870822906494">
        <ele>1869.40625</ele>
      </trkpt>
      <trkpt lat="46.046876907348633" lon="7.051935195922852">
        <ele>1866.89453125</ele>
      </trkpt>
      <trkpt lat="46.046898365020752" lon="7.052021026611328">
        <ele>1864.80859375</ele>
      </trkpt>
      <trkpt lat="46.046855449676514" lon="7.052063941955566">
        <ele>1862.7890625</ele>
      </trkpt>
      <trkpt lat="46.046769618988037" lon="7.052021026611328">
        <ele>1862.49609375</ele>
      </trkpt>
      <trkpt lat="46.04670524597168" lon="7.052149772644043">
        <ele>1857.25</ele>
      </trkpt>
      <trkpt lat="46.046683788299561" lon="7.052278518676758">
        <ele>1852.6796875</ele>
      </trkpt>
      <trkpt lat="46.046576499938965" lon="7.052600383758545">
        <ele>1838.90625</ele>
      </trkpt>
      <trkpt lat="46.046469211578369" lon="7.052643299102783">
        <ele>1834.328125</ele>
      </trkpt>
      <trkpt lat="46.046361923217773" lon="7.052793502807617">
        <ele>1825.390625</ele>
      </trkpt>
      <trkpt lat="46.046340465545654" lon="7.052879333496094">
        <ele>1821.33203125</ele>
      </trkpt>
      <trkpt lat="46.046361923217773" lon="7.053029537200928">
        <ele>1816.125</ele>
      </trkpt>
      <trkpt lat="46.046404838562012" lon="7.053179740905762">
        <ele>1811.8125</ele>
      </trkpt>
      <trkpt lat="46.046383380889893" lon="7.053308486938477">
        <ele>1805.41796875</ele>
      </trkpt>
      <trkpt lat="46.046426296234131" lon="7.053415775299072">
        <ele>1802.36328125</ele>
      </trkpt>
      <trkpt lat="46.046490669250488" lon="7.05348014831543">
        <ele>1802.16015625</ele>
      </trkpt>
      <trkpt lat="46.04644775390625" lon="7.053523063659668">
        <ele>1798.53515625</ele>
      </trkpt>
      <trkpt lat="46.046383380889893" lon="7.053565979003906">
        <ele>1793.9609375</ele>
      </trkpt>
      <trkpt lat="46.046319007873535" lon="7.053544521331787">
        <ele>1792.234375</ele>
      </trkpt>
      <trkpt lat="46.046254634857178" lon="7.053565979003906">
        <ele>1788.5625</ele>
      </trkpt>
      <trkpt lat="46.04619026184082" lon="7.053523063659668">
        <ele>1787.87890625</ele>
      </trkpt>
      <trkpt lat="46.046125888824463" lon="7.053501605987549">
        <ele>1786.2421875</ele>
      </trkpt>
      <trkpt lat="46.046082973480225" lon="7.053565979003906">
        <ele>1781.0234375</ele>
      </trkpt>
      <trkpt lat="46.046104431152344" lon="7.053630352020264">
        <ele>1779.08984375</ele>
      </trkpt>
      <trkpt lat="46.046168804168701" lon="7.053651809692383">
        <ele>1780.90625</ele>
      </trkpt>
      <trkpt lat="46.04619026184082" lon="7.053694725036621">
        <ele>1779.8125</ele>
      </trkpt>
      <trkpt lat="46.046147346496582" lon="7.053759098052979">
        <ele>1774.87890625</ele>
      </trkpt>
      <trkpt lat="46.046276092529297" lon="7.054038047790527">
        <ele>1767.77734375</ele>
      </trkpt>
      <trkpt lat="46.04619026184082" lon="7.054059505462646">
        <ele>1762.42578125</ele>
      </trkpt>
      <trkpt lat="46.046061515808105" lon="7.05397367477417">
        <ele>1760.28125</ele>
      </trkpt>
      <trkpt lat="46.045997142791748" lon="7.05397367477417">
        <ele>1756.8046875</ele>
      </trkpt>
      <trkpt lat="46.045889854431152" lon="7.053909301757812">
        <ele>1754.09765625</ele>
      </trkpt>
      <trkpt lat="46.045825481414795" lon="7.053909301757812">
        <ele>1750.62109375</ele>
      </trkpt>
      <trkpt lat="46.04569673538208" lon="7.053866386413574">
        <ele>1745.7265625</ele>
      </trkpt>
      <trkpt lat="46.045653820037842" lon="7.053866386413574">
        <ele>1743.40625</ele>
      </trkpt>
      <trkpt lat="46.045482158660889" lon="7.053759098052979">
        <ele>1739.28515625</ele>
      </trkpt>
      <trkpt lat="46.045417785644531" lon="7.053673267364502">
        <ele>1739.9296875</ele>
      </trkpt>
      <trkpt lat="46.045331954956055" lon="7.053587436676025">
        <ele>1739.4140625</ele>
      </trkpt>
      <trkpt lat="46.045267581939697" lon="7.053587436676025">
        <ele>1736.11328125</ele>
      </trkpt>
      <trkpt lat="46.04520320892334" lon="7.053501605987549">
        <ele>1737.83984375</ele>
      </trkpt>
      <trkpt lat="46.045117378234863" lon="7.053501605987549">
        <ele>1734.6484375</ele>
      </trkpt>
      <trkpt lat="46.045095920562744" lon="7.053437232971191">
        <ele>1736.9375</ele>
      </trkpt>
      <trkpt lat="46.045031547546387" lon="7.053437232971191">
        <ele>1734.54296875</ele>
      </trkpt>
      <trkpt lat="46.044967174530029" lon="7.053501605987549">
        <ele>1729.0546875</ele>
      </trkpt>
      <trkpt lat="46.044924259185791" lon="7.053608894348145">
        <ele>1722.3046875</ele>
      </trkpt>
      <trkpt lat="46.044988632202148" lon="7.053759098052979">
        <ele>1717.48828125</ele>
      </trkpt>
      <trkpt lat="46.045074462890625" lon="7.054016590118408">
        <ele>1708.3125</ele>
      </trkpt>
      <trkpt lat="46.045117378234863" lon="7.0542311668396">
        <ele>1699.203125</ele>
      </trkpt>
      <trkpt lat="46.045095920562744" lon="7.054338455200195">
        <ele>1693.19140625</ele>
      </trkpt>
      <trkpt lat="46.045074462890625" lon="7.054424285888672">
        <ele>1688.33984375</ele>
      </trkpt>
      <trkpt lat="46.045117378234863" lon="7.054488658905029">
        <ele>1686.3046875</ele>
      </trkpt>
      <trkpt lat="46.045160293579102" lon="7.054703235626221">
        <ele>1676.453125</ele>
      </trkpt>
      <trkpt lat="46.04520320892334" lon="7.054789066314697">
        <ele>1672.8671875</ele>
      </trkpt>
      <trkpt lat="46.045160293579102" lon="7.054853439331055">
        <ele>1668.76953125</ele>
      </trkpt>
      <trkpt lat="46.045074462890625" lon="7.054767608642578">
        <ele>1671.50390625</ele>
      </trkpt>
      <trkpt lat="46.044967174530029" lon="7.054810523986816">
        <ele>1667.4453125</ele>
      </trkpt>
      <trkpt lat="46.044666767120361" lon="7.054703235626221">
        <ele>1666.16015625</ele>
      </trkpt>
      <trkpt lat="46.044623851776123" lon="7.054767608642578">
        <ele>1662.8203125</ele>
      </trkpt>
      <trkpt lat="46.044538021087646" lon="7.054810523986816">
        <ele>1659.625</ele>
      </trkpt>
      <trkpt lat="46.044430732727051" lon="7.054810523986816">
        <ele>1658.234375</ele>
      </trkpt>
      <trkpt lat="46.044387817382812" lon="7.055046558380127">
        <ele>1653.02734375</ele>
      </trkpt>
      <trkpt lat="46.044344902038574" lon="7.055175304412842">
        <ele>1651.078125</ele>
      </trkpt>
      <trkpt lat="46.044301986694336" lon="7.05521821975708">
        <ele>1651.17578125</ele>
      </trkpt>
      <trkpt lat="46.044323444366455" lon="7.055304050445557">
        <ele>1648.71484375</ele>
      </trkpt>
      <trkpt lat="46.044280529022217" lon="7.055325508117676">
        <ele>1649.36328125</ele>
      </trkpt>
      <trkpt lat="46.044387817382812" lon="7.055625915527344">
        <ele>1639.546875</ele>
      </trkpt>
      <trkpt lat="46.044366359710693" lon="7.056012153625488">
        <ele>1634.39453125</ele>
      </trkpt>
      <trkpt lat="46.044280529022217" lon="7.056441307067871">
        <ele>1631.546875</ele>
      </trkpt>
      <trkpt lat="46.044237613677979" lon="7.056505680084229">
        <ele>1632.1015625</ele>
      </trkpt>
      <trkpt lat="46.044087409973145" lon="7.056655883789062">
        <ele>1635.76953125</ele>
      </trkpt>
      <trkpt lat="46.044087409973145" lon="7.05672025680542">
        <ele>1635.328125</ele>
      </trkpt>
      <trkpt lat="46.044216156005859" lon="7.05697774887085">
        <ele>1629.71484375</ele>
      </trkpt>
      <trkpt lat="46.044237613677979" lon="7.057085037231445">
        <ele>1628.4296875</ele>
      </trkpt>
      <trkpt lat="46.044216156005859" lon="7.057235240936279">
        <ele>1628.13671875</ele>
      </trkpt>
      <trkpt lat="46.044216156005859" lon="7.057385444641113">
        <ele>1627.09375</ele>
      </trkpt>
      <trkpt lat="46.044237613677979" lon="7.057449817657471">
        <ele>1625.69140625</ele>
      </trkpt>
      <trkpt lat="46.04419469833374" lon="7.057600021362305">
        <ele>1624.95703125</ele>
      </trkpt>
      <trkpt lat="46.04419469833374" lon="7.057793140411377">
        <ele>1622.49609375</ele>
      </trkpt>
      <trkpt lat="46.044237613677979" lon="7.057986259460449">
        <ele>1618.9296875</ele>
      </trkpt>
      <trkpt lat="46.044323444366455" lon="7.058115005493164">
        <ele>1615.12109375</ele>
      </trkpt>
      <trkpt lat="46.044430732727051" lon="7.058093547821045">
        <ele>1612.6484375</ele>
      </trkpt>
      <trkpt lat="46.044473648071289" lon="7.058179378509521">
        <ele>1610.0625</ele>
      </trkpt>
      <trkpt lat="46.04445219039917" lon="7.058308124542236">
        <ele>1607.84765625</ele>
      </trkpt>
      <trkpt lat="46.044366359710693" lon="7.058436870574951">
        <ele>1606.75</ele>
      </trkpt>
      <trkpt lat="46.044301986694336" lon="7.058522701263428">
        <ele>1606.1484375</ele>
      </trkpt>
      <trkpt lat="46.044301986694336" lon="7.058587074279785">
        <ele>1604.4609375</ele>
      </trkpt>
      <trkpt lat="46.044280529022217" lon="7.058694362640381">
        <ele>1602.203125</ele>
      </trkpt>
      <trkpt lat="46.044173240661621" lon="7.058866024017334">
        <ele>1600.51953125</ele>
      </trkpt>
      <trkpt lat="46.044151782989502" lon="7.05897331237793">
        <ele>1598.29296875</ele>
      </trkpt>
      <trkpt lat="46.044087409973145" lon="7.059102058410645">
        <ele>1596.26953125</ele>
      </trkpt>
      <trkpt lat="46.044065952301025" lon="7.059187889099121">
        <ele>1594.1875</ele>
      </trkpt>
      <trkpt lat="46.044023036956787" lon="7.059252262115479">
        <ele>1593.44140625</ele>
      </trkpt>
      <trkpt lat="46.04395866394043" lon="7.059423923492432">
        <ele>1590.2265625</ele>
      </trkpt>
      <trkpt lat="46.043872833251953" lon="7.059531211853027">
        <ele>1589.86328125</ele>
      </trkpt>
      <trkpt lat="46.04395866394043" lon="7.059595584869385">
        <ele>1585.12890625</ele>
      </trkpt>
      <trkpt lat="46.044087409973145" lon="7.059574127197266">
        <ele>1581.4609375</ele>
      </trkpt>
      <trkpt lat="46.044087409973145" lon="7.059659957885742">
        <ele>1578.765625</ele>
      </trkpt>
      <trkpt lat="46.044001579284668" lon="7.059874534606934">
        <ele>1575.4375</ele>
      </trkpt>
      <trkpt lat="46.043915748596191" lon="7.059938907623291">
        <ele>1578.12890625</ele>
      </trkpt>
      <trkpt lat="46.043851375579834" lon="7.060003280639648">
        <ele>1580.140625</ele>
      </trkpt>
      <trkpt lat="46.043872833251953" lon="7.060153484344482">
        <ele>1578.1953125</ele>
      </trkpt>
      <trkpt lat="46.04395866394043" lon="7.060260772705078">
        <ele>1573.72265625</ele>
      </trkpt>
      <trkpt lat="46.044130325317383" lon="7.060797214508057">
        <ele>1562.3203125</ele>
      </trkpt>
      <trkpt lat="46.044301986694336" lon="7.060861587524414">
        <ele>1554.3125</ele>
      </trkpt>
      <trkpt lat="46.044495105743408" lon="7.060647010803223">
        <ele>1544.4453125</ele>
      </trkpt>
      <trkpt lat="46.044666767120361" lon="7.060754299163818">
        <ele>1535.796875</ele>
      </trkpt>
      <trkpt lat="46.044752597808838" lon="7.060754299163818">
        <ele>1531.6796875</ele>
      </trkpt>
      <trkpt lat="46.044795513153076" lon="7.060883045196533">
        <ele>1530.61328125</ele>
      </trkpt>
      <trkpt lat="46.044881343841553" lon="7.061033248901367">
        <ele>1527.69140625</ele>
      </trkpt>
      <trkpt lat="46.045095920562744" lon="7.061183452606201">
        <ele>1518.7109375</ele>
      </trkpt>
      <trkpt lat="46.045181751251221" lon="7.061440944671631">
        <ele>1516.77734375</ele>
      </trkpt>
      <trkpt lat="46.04520320892334" lon="7.061483860015869">
        <ele>1516.125</ele>
      </trkpt>
      <trkpt lat="46.04520320892334" lon="7.061548233032227">
        <ele>1516.77734375</ele>
      </trkpt>
      <trkpt lat="46.045396327972412" lon="7.061805725097656">
        <ele>1510.11328125</ele>
      </trkpt>
      <trkpt lat="46.04569673538208" lon="7.061998844146729">
        <ele>1495.34375</ele>
      </trkpt>
      <trkpt lat="46.045868396759033" lon="7.062234878540039">
        <ele>1488.53515625</ele>
      </trkpt>
      <trkpt lat="46.045932769775391" lon="7.062342166900635">
        <ele>1486.203125</ele>
      </trkpt>
      <trkpt lat="46.045997142791748" lon="7.06247091293335">
        <ele>1483.30859375</ele>
      </trkpt>
      <trkpt lat="46.046040058135986" lon="7.062621116638184">
        <ele>1481.55078125</ele>
      </trkpt>
      <trkpt lat="46.046082973480225" lon="7.062814235687256">
        <ele>1479.9140625</ele>
      </trkpt>
      <trkpt lat="46.046114154160023" lon="7.062886990606785">
        <ele>1478.2734375</ele>
      </trkpt>
      <trkpt lat="46.046147346496582" lon="7.06296443939209">
        <ele>1476.015625</ele>
      </trkpt>
      <trkpt lat="46.046211719512939" lon="7.063415050506592">
        <ele>1472.47265625</ele>
      </trkpt>
      <trkpt lat="46.046276092529297" lon="7.063543796539307">
        <ele>1468.08203125</ele>
      </trkpt>
      <trkpt lat="46.046319007873535" lon="7.063736915588379">
        <ele>1465.79296875</ele>
      </trkpt>
      <trkpt lat="46.046383380889893" lon="7.06395149230957">
        <ele>1462.57421875</ele>
      </trkpt>
      <trkpt lat="46.04644775390625" lon="7.064080238342285">
        <ele>1459.19140625</ele>
      </trkpt>
      <trkpt lat="46.046469211578369" lon="7.064144611358643">
        <ele>1458.16015625</ele>
      </trkpt>
      <trkpt lat="46.046683788299561" lon="7.064595222473145">
        <ele>1448.703125</ele>
      </trkpt>
      <trkpt lat="46.046833992004395" lon="7.064809799194336">
        <ele>1442.875</ele>
      </trkpt>
      <trkpt lat="46.046876907348633" lon="7.064917087554932">
        <ele>1442.01953125</ele>
      </trkpt>
      <trkpt lat="46.04694128036499" lon="7.06496000289917">
        <ele>1439.3125</ele>
      </trkpt>
      <trkpt lat="46.046962738037109" lon="7.065024375915527">
        <ele>1438.83203125</ele>
      </trkpt>
      <trkpt lat="46.047048568725586" lon="7.065024375915527">
        <ele>1433.7421875</ele>
      </trkpt>
      <trkpt lat="46.047091484069824" lon="7.065260410308838">
        <ele>1434.1796875</ele>
      </trkpt>
      <trkpt lat="46.047177314758301" lon="7.065432071685791">
        <ele>1431.41015625</ele>
      </trkpt>
      <trkpt lat="46.047284603118896" lon="7.065603733062744">
        <ele>1427.546875</ele>
      </trkpt>
      <trkpt lat="46.047627925872803" lon="7.065839767456055">
        <ele>1411.796875</ele>
      </trkpt>
      <trkpt lat="46.047670841217041" lon="7.065839767456055">
        <ele>1409.28515625</ele>
      </trkpt>
      <trkpt lat="46.047713756561279" lon="7.06594705581665">
        <ele>1408.41796875</ele>
      </trkpt>
      <trkpt lat="46.047735214233398" lon="7.066075801849365">
        <ele>1409.0625</ele>
      </trkpt>
      <trkpt lat="46.047735214233398" lon="7.066526412963867">
        <ele>1415.82421875</ele>
      </trkpt>
      <trkpt lat="46.047885417938232" lon="7.066869735717773">
        <ele>1415.1484375</ele>
      </trkpt>
      <trkpt lat="46.047992706298828" lon="7.067234516143799">
        <ele>1417.7421875</ele>
      </trkpt>
      <trkpt lat="46.048099994659424" lon="7.067384719848633">
        <ele>1414.125</ele>
      </trkpt>
      <trkpt lat="46.04820728302002" lon="7.067492008209229">
        <ele>1410.12109375</ele>
      </trkpt>
      <trkpt lat="46.048293113708496" lon="7.067620754241943">
        <ele>1408.5546875</ele>
      </trkpt>
      <trkpt lat="46.048314571380615" lon="7.067749500274658">
        <ele>1411.9453125</ele>
      </trkpt>
      <trkpt lat="46.04844331741333" lon="7.067921161651611">
        <ele>1408.5859375</ele>
      </trkpt>
      <trkpt lat="46.048550605773926" lon="7.068049907684326">
        <ele>1405.13671875</ele>
      </trkpt>
      <trkpt lat="46.048657894134521" lon="7.06820011138916">
        <ele>1403.00390625</ele>
      </trkpt>
      <trkpt lat="46.048743724822998" lon="7.068285942077637">
        <ele>1401.01171875</ele>
      </trkpt>
      <trkpt lat="46.048851013183594" lon="7.068436145782471">
        <ele>1400.16796875</ele>
      </trkpt>
      <trkpt lat="46.048958301544189" lon="7.068543434143066">
        <ele>1397.1171875</ele>
      </trkpt>
      <trkpt lat="46.0491943359375" lon="7.068843841552734">
        <ele>1392.05078125</ele>
      </trkpt>
      <trkpt lat="46.04945182800293" lon="7.069165706634521">
        <ele>1385.16796875</ele>
      </trkpt>
      <trkpt lat="46.049537658691406" lon="7.069294452667236">
        <ele>1384.4375</ele>
      </trkpt>
      <trkpt lat="46.049666404724121" lon="7.069466114044189">
        <ele>1382.96484375</ele>
      </trkpt>
      <trkpt lat="46.049730777740479" lon="7.069573402404785">
        <ele>1383.45703125</ele>
      </trkpt>
      <trkpt lat="46.049838066101074" lon="7.069766521453857">
        <ele>1385.40625</ele>
      </trkpt>
      <trkpt lat="46.04994535446167" lon="7.069895267486572">
        <ele>1384.7421875</ele>
      </trkpt>
      <trkpt lat="46.050074100494385" lon="7.069938182830811">
        <ele>1378.57421875</ele>
      </trkpt>
      <trkpt lat="46.0502028465271" lon="7.070002555847168">
        <ele>1373.37109375</ele>
      </trkpt>
      <trkpt lat="46.050331592559814" lon="7.070088386535645">
        <ele>1369.5234375</ele>
      </trkpt>
      <trkpt lat="46.050460338592529" lon="7.070217132568359">
        <ele>1368.1328125</ele>
      </trkpt>
      <trkpt lat="46.050546169281006" lon="7.070345878601074">
        <ele>1369.12890625</ele>
      </trkpt>
      <trkpt lat="46.050717830657959" lon="7.070667743682861">
        <ele>1373.86328125</ele>
      </trkpt>
      <trkpt lat="46.051061153411865" lon="7.070989608764648">
        <ele>1368.109375</ele>
      </trkpt>
      <trkpt lat="46.051146984100342" lon="7.071118354797363">
        <ele>1368</ele>
      </trkpt>
      <trkpt lat="46.051511764526367" lon="7.071504592895508">
        <ele>1356.6484375</ele>
      </trkpt>
      <trkpt lat="46.05168342590332" lon="7.07169771194458">
        <ele>1350.85546875</ele>
      </trkpt>
      <trkpt lat="46.051769256591797" lon="7.071869373321533">
        <ele>1350.65234375</ele>
      </trkpt>
      <trkpt lat="46.052134037017822" lon="7.072405815124512">
        <ele>1339.3046875</ele>
      </trkpt>
      <trkpt lat="46.05219841003418" lon="7.072727680206299">
        <ele>1342.3515625</ele>
      </trkpt>
      <trkpt lat="46.052176952362061" lon="7.073006629943848">
        <ele>1351.43359375</ele>
      </trkpt>
      <trkpt lat="46.052176952362061" lon="7.073135375976562">
        <ele>1354.828125</ele>
      </trkpt>
      <trkpt lat="46.052219867706299" lon="7.073414325714111">
        <ele>1354.13671875</ele>
      </trkpt>
      <trkpt lat="46.052327156066895" lon="7.073585987091064">
        <ele>1347.65625</ele>
      </trkpt>
      <trkpt lat="46.052412986755371" lon="7.073822021484375">
        <ele>1343.32421875</ele>
      </trkpt>
      <trkpt lat="46.052370071411133" lon="7.074122428894043">
        <ele>1345.0625</ele>
      </trkpt>
      <trkpt lat="46.05219841003418" lon="7.074465751647949">
        <ele>1348.15625</ele>
      </trkpt>
      <trkpt lat="46.052176952362061" lon="7.074637413024902">
        <ele>1345.66796875</ele>
      </trkpt>
      <trkpt lat="46.052134037017822" lon="7.074851989746094">
        <ele>1343.49609375</ele>
      </trkpt>
      <trkpt lat="46.052005290985107" lon="7.075152397155762">
        <ele>1343.0859375</ele>
      </trkpt>
      <trkpt lat="46.051919460296631" lon="7.075324058532715">
        <ele>1343.35546875</ele>
      </trkpt>
      <trkpt lat="46.051554679870605" lon="7.075860500335693">
        <ele>1348.41015625</ele>
      </trkpt>
      <trkpt lat="46.051468849182129" lon="7.076010704040527">
        <ele>1348.74609375</ele>
      </trkpt>
      <trkpt lat="46.051318645477295" lon="7.07643985748291">
        <ele>1343.5546875</ele>
      </trkpt>
      <trkpt lat="46.05118989944458" lon="7.076654434204102">
        <ele>1341.79296875</ele>
      </trkpt>
      <trkpt lat="46.050996780395508" lon="7.076869010925293">
        <ele>1342.86328125</ele>
      </trkpt>
      <trkpt lat="46.050825119018555" lon="7.077147960662842">
        <ele>1340.95703125</ele>
      </trkpt>
      <trkpt lat="46.050353050231934" lon="7.078006267547607">
        <ele>1336.3125</ele>
      </trkpt>
      <trkpt lat="46.050138473510742" lon="7.078542709350586">
        <ele>1337.6953125</ele>
      </trkpt>
      <trkpt lat="46.050009727478027" lon="7.07918643951416">
        <ele>1334.8203125</ele>
      </trkpt>
      <trkpt lat="46.049966812133789" lon="7.079336643218994">
        <ele>1335.0546875</ele>
      </trkpt>
      <trkpt lat="46.049923896789551" lon="7.079486846923828">
        <ele>1335.03125</ele>
      </trkpt>
      <trkpt lat="46.049730777740479" lon="7.07993745803833">
        <ele>1335.7734375</ele>
      </trkpt>
      <trkpt lat="46.04968786239624" lon="7.080066204071045">
        <ele>1335.48828125</ele>
      </trkpt>
      <trkpt lat="46.049666404724121" lon="7.08019495010376">
        <ele>1334.46484375</ele>
      </trkpt>
      <trkpt lat="46.049666404724121" lon="7.080388069152832">
        <ele>1331.7890625</ele>
      </trkpt>
      <trkpt lat="46.049666404724121" lon="7.080495357513428">
        <ele>1330.30078125</ele>
      </trkpt>
      <trkpt lat="46.04968786239624" lon="7.080709934234619">
        <ele>1326.53515625</ele>
      </trkpt>
      <trkpt lat="46.04968786239624" lon="7.080903053283691">
        <ele>1323.90234375</ele>
      </trkpt>
      <trkpt lat="46.049666404724121" lon="7.081203460693359">
        <ele>1320.73046875</ele>
      </trkpt>
      <trkpt lat="46.049602031707764" lon="7.081353664398193">
        <ele>1321.61328125</ele>
      </trkpt>
      <trkpt lat="46.049473285675049" lon="7.081525325775146">
        <ele>1325.5390625</ele>
      </trkpt>
      <trkpt lat="46.049323081970215" lon="7.081782817840576">
        <ele>1330.7890625</ele>
      </trkpt>
      <trkpt lat="46.049301624298096" lon="7.081868648529053">
        <ele>1331.15234375</ele>
      </trkpt>
      <trkpt lat="46.049280166625977" lon="7.081911563873291">
        <ele>1331.6796875</ele>
      </trkpt>
      <trkpt lat="46.049258708953857" lon="7.081975936889648">
        <ele>1332.046875</ele>
      </trkpt>
      <trkpt lat="46.049280166625977" lon="7.082126140594482">
        <ele>1330.51171875</ele>
      </trkpt>
      <trkpt lat="46.049215793609619" lon="7.082319259643555">
        <ele>1331.19921875</ele>
      </trkpt>
      <trkpt lat="46.049237251281738" lon="7.08244800567627">
        <ele>1327.78515625</ele>
      </trkpt>
      <trkpt lat="46.049151420593262" lon="7.082533836364746">
        <ele>1327.5546875</ele>
      </trkpt>
      <trkpt lat="46.048808097839355" lon="7.082619667053223">
        <ele>1333.27734375</ele>
      </trkpt>
      <trkpt lat="46.048464775085449" lon="7.082877159118652">
        <ele>1333.62890625</ele>
      </trkpt>
      <trkpt lat="46.048271656036377" lon="7.083048820495605">
        <ele>1333.42578125</ele>
      </trkpt>
      <trkpt lat="46.048121452331543" lon="7.083349227905273">
        <ele>1332.609375</ele>
      </trkpt>
      <trkpt lat="46.048121452331543" lon="7.083606719970703">
        <ele>1331.89453125</ele>
      </trkpt>
      <trkpt lat="46.048057079315186" lon="7.083756923675537">
        <ele>1333.7578125</ele>
      </trkpt>
      <trkpt lat="46.048142910003662" lon="7.083907127380371">
        <ele>1330.265625</ele>
      </trkpt>
      <trkpt lat="46.048164367675781" lon="7.084100246429443">
        <ele>1329.93359375</ele>
      </trkpt>
      <trkpt lat="46.04820728302002" lon="7.084228992462158">
        <ele>1329.4609375</ele>
      </trkpt>
      <trkpt lat="46.048293113708496" lon="7.084357738494873">
        <ele>1327.0390625</ele>
      </trkpt>
      <trkpt lat="46.048400402069092" lon="7.084486484527588">
        <ele>1323.42578125</ele>
      </trkpt>
      <trkpt lat="46.048378944396973" lon="7.084572315216064">
        <ele>1325.0078125</ele>
      </trkpt>
      <trkpt lat="46.0481858253479" lon="7.084808349609375">
        <ele>1335.94921875</ele>
      </trkpt>
      <trkpt lat="46.0481858253479" lon="7.085022926330566">
        <ele>1333.03125</ele>
      </trkpt>
      <trkpt lat="46.048121452331543" lon="7.08519458770752">
        <ele>1332.82421875</ele>
      </trkpt>
      <trkpt lat="46.048014163970947" lon="7.085409164428711">
        <ele>1333.85546875</ele>
      </trkpt>
      <trkpt lat="46.047992706298828" lon="7.085452079772949">
        <ele>1334.0625</ele>
      </trkpt>
      <trkpt lat="46.047585010528564" lon="7.08592414855957">
        <ele>1341.1640625</ele>
      </trkpt>
      <trkpt lat="46.047542095184326" lon="7.086095809936523">
        <ele>1339.3125</ele>
      </trkpt>
      <trkpt lat="46.047563552856445" lon="7.08643913269043">
        <ele>1332.125</ele>
      </trkpt>
      <trkpt lat="46.047542095184326" lon="7.086589336395264">
        <ele>1330.6328125</ele>
      </trkpt>
      <trkpt lat="46.047477722167969" lon="7.086782455444336">
        <ele>1330.7734375</ele>
      </trkpt>
      <trkpt lat="46.047327518463135" lon="7.087275981903076">
        <ele>1330.47265625</ele>
      </trkpt>
      <trkpt lat="46.047048568725586" lon="7.08791971206665">
        <ele>1331.30078125</ele>
      </trkpt>
      <trkpt lat="46.046984195709229" lon="7.088134288787842">
        <ele>1329.7890625</ele>
      </trkpt>
      <trkpt lat="46.046791076660156" lon="7.088520526885986">
        <ele>1331.41015625</ele>
      </trkpt>
      <trkpt lat="46.04670524597168" lon="7.088735103607178">
        <ele>1331.8359375</ele>
      </trkpt>
      <trkpt lat="46.046555042266846" lon="7.088971138000488">
        <ele>1333.26953125</ele>
      </trkpt>
      <trkpt lat="46.04644775390625" lon="7.089228630065918">
        <ele>1335.44140625</ele>
      </trkpt>
      <trkpt lat="46.046361923217773" lon="7.089550495147705">
        <ele>1337.4609375</ele>
      </trkpt>
      <trkpt lat="46.046361923217773" lon="7.08967924118042">
        <ele>1337.6015625</ele>
      </trkpt>
      <trkpt lat="46.046404838562012" lon="7.089872360229492">
        <ele>1337.09765625</ele>
      </trkpt>
      <trkpt lat="46.046576499938965" lon="7.090344429016113">
        <ele>1335.58203125</ele>
      </trkpt>
      <trkpt lat="46.046597957611084" lon="7.090408802032471">
        <ele>1335.5078125</ele>
      </trkpt>
      <trkpt lat="46.046769618988037" lon="7.090837955474854">
        <ele>1335.53515625</ele>
      </trkpt>
      <trkpt lat="46.046833992004395" lon="7.091052532196045">
        <ele>1336.328125</ele>
      </trkpt>
      <trkpt lat="46.046876907348633" lon="7.091374397277832">
        <ele>1338.1796875</ele>
      </trkpt>
      <trkpt lat="46.046898365020752" lon="7.091438770294189">
        <ele>1338.55859375</ele>
      </trkpt>
      <trkpt lat="46.046919822692871" lon="7.091503143310547">
        <ele>1338.96484375</ele>
      </trkpt>
      <trkpt lat="46.046919822692871" lon="7.091739177703857">
        <ele>1343.015625</ele>
      </trkpt>
      <trkpt lat="46.046833992004395" lon="7.091846466064453">
        <ele>1344.51171875</ele>
      </trkpt>
      <trkpt lat="46.046748161315918" lon="7.091889381408691">
        <ele>1344.74609375</ele>
      </trkpt>
      <trkpt lat="46.046640872955322" lon="7.091910839080811">
        <ele>1344.44921875</ele>
      </trkpt>
      <trkpt lat="46.046576499938965" lon="7.091910839080811">
        <ele>1344.08203125</ele>
      </trkpt>
      <trkpt lat="46.046512126922607" lon="7.09193229675293">
        <ele>1343.94140625</ele>
      </trkpt>
      <trkpt lat="46.046404838562012" lon="7.092018127441406">
        <ele>1344.0390625</ele>
      </trkpt>
      <trkpt lat="46.04595422744751" lon="7.092232704162598">
        <ele>1343.07421875</ele>
      </trkpt>
      <trkpt lat="46.045868396759033" lon="7.092232704162598">
        <ele>1343.3359375</ele>
      </trkpt>
      <trkpt lat="46.04569673538208" lon="7.092318534851074">
        <ele>1343.9609375</ele>
      </trkpt>
      <trkpt lat="46.045567989349365" lon="7.092404365539551">
        <ele>1344.96875</ele>
      </trkpt>
      <trkpt lat="46.045417785644531" lon="7.092511653900146">
        <ele>1346.39453125</ele>
      </trkpt>
      <trkpt lat="46.045289039611816" lon="7.092554569244385">
        <ele>1346.99609375</ele>
      </trkpt>
      <trkpt lat="46.045031547546387" lon="7.092576026916504">
        <ele>1348.15625</ele>
      </trkpt>
      <trkpt lat="46.044924259185791" lon="7.092554569244385">
        <ele>1348.390625</ele>
      </trkpt>
      <trkpt lat="46.044838428497314" lon="7.092554569244385">
        <ele>1348.72265625</ele>
      </trkpt>
      <trkpt lat="46.044752597808838" lon="7.092576026916504">
        <ele>1349.21484375</ele>
      </trkpt>
      <trkpt lat="46.044602394104004" lon="7.0926833152771">
        <ele>1350.50390625</ele>
      </trkpt>
      <trkpt lat="46.04445219039917" lon="7.092769145965576">
        <ele>1351.5234375</ele>
      </trkpt>
      <trkpt lat="46.044387817382812" lon="7.092790603637695">
        <ele>1351.59375</ele>
      </trkpt>
      <trkpt lat="46.044087409973145" lon="7.092726230621338">
        <ele>1350.9296875</ele>
      </trkpt>
      <trkpt lat="46.043935026973486" lon="7.092825388535857">
        <ele>1351.08203125</ele>
      </trkpt>
      <trkpt lat="46.043658256530762" lon="7.093005180358887">
        <ele>1350.91015625</ele>
      </trkpt>
      <trkpt lat="46.043508052825928" lon="7.093091011047363">
        <ele>1351.2734375</ele>
      </trkpt>
      <trkpt lat="46.043400764465332" lon="7.093155384063721">
        <ele>1351.734375</ele>
      </trkpt>
      <trkpt lat="46.043272018432617" lon="7.093219757080078">
        <ele>1352.6640625</ele>
      </trkpt>
      <trkpt lat="46.043121814727783" lon="7.093305587768555">
        <ele>1353.8828125</ele>
      </trkpt>
      <trkpt lat="46.043057441711426" lon="7.093391418457031">
        <ele>1354.70703125</ele>
      </trkpt>
      <trkpt lat="46.042885780334473" lon="7.093884944915771">
        <ele>1357.875</ele>
      </trkpt>
      <trkpt lat="46.042864322662354" lon="7.09392786026001">
        <ele>1358.02734375</ele>
      </trkpt>
      <trkpt lat="46.0426926612854" lon="7.094099521636963">
        <ele>1359.85546875</ele>
      </trkpt>
      <trkpt lat="46.04245662689209" lon="7.094292640686035">
        <ele>1364.01171875</ele>
      </trkpt>
      <trkpt lat="46.042070388793945" lon="7.094464302062988">
        <ele>1368.7109375</ele>
      </trkpt>
      <trkpt lat="46.04196310043335" lon="7.094528675079346">
        <ele>1369.98046875</ele>
      </trkpt>
      <trkpt lat="46.041812896728516" lon="7.094593048095703">
        <ele>1372.0234375</ele>
      </trkpt>
      <trkpt lat="46.041684150695801" lon="7.094614505767822">
        <ele>1373.58203125</ele>
      </trkpt>
      <trkpt lat="46.041598320007324" lon="7.094657421112061">
        <ele>1374.69921875</ele>
      </trkpt>
      <trkpt lat="46.041512489318848" lon="7.09491491317749">
        <ele>1376.984375</ele>
      </trkpt>
      <trkpt lat="46.041491031646729" lon="7.094957828521729">
        <ele>1377.671875</ele>
      </trkpt>
      <trkpt lat="46.04144811630249" lon="7.095000743865967">
        <ele>1378.5625</ele>
      </trkpt>
      <trkpt lat="46.041233539581299" lon="7.095043659210205">
        <ele>1381.046875</ele>
      </trkpt>
      <trkpt lat="46.041040420532227" lon="7.095129489898682">
        <ele>1383.84765625</ele>
      </trkpt>
      <trkpt lat="46.04069709777832" lon="7.095451354980469">
        <ele>1389.515625</ele>
      </trkpt>
      <trkpt lat="46.040632724761963" lon="7.095494270324707">
        <ele>1390.2265625</ele>
      </trkpt>
      <trkpt lat="46.040568351745605" lon="7.095494270324707">
        <ele>1390.65625</ele>
      </trkpt>
      <trkpt lat="46.040482521057129" lon="7.095451354980469">
        <ele>1391.03515625</ele>
      </trkpt>
      <trkpt lat="46.040396690368652" lon="7.095451354980469">
        <ele>1391.64453125</ele>
      </trkpt>
      <trkpt lat="46.040225028991699" lon="7.095558643341064">
        <ele>1393.265625</ele>
      </trkpt>
      <trkpt lat="46.040160655975342" lon="7.095601558685303">
        <ele>1393.9375</ele>
      </trkpt>
      <trkpt lat="46.040096282958984" lon="7.09566593170166">
        <ele>1394.55078125</ele>
      </trkpt>
      <trkpt lat="46.040010452270508" lon="7.095794677734375">
        <ele>1396.04296875</ele>
      </trkpt>
      <trkpt lat="46.039924621582031" lon="7.096009254455566">
        <ele>1397.82421875</ele>
      </trkpt>
      <trkpt lat="46.039838790893555" lon="7.096202373504639">
        <ele>1399.0859375</ele>
      </trkpt>
      <trkpt lat="46.039838790893555" lon="7.096288204193115">
        <ele>1399.47265625</ele>
      </trkpt>
      <trkpt lat="46.039881706237793" lon="7.096352577209473">
        <ele>1399.734375</ele>
      </trkpt>
      <trkpt lat="46.039795875549316" lon="7.09641695022583">
        <ele>1400.046875</ele>
      </trkpt>
      <trkpt lat="46.039688587188721" lon="7.096567153930664">
        <ele>1401.1015625</ele>
      </trkpt>
      <trkpt lat="46.039581298828125" lon="7.096652984619141">
        <ele>1402.046875</ele>
      </trkpt>
      <trkpt lat="46.039495468139648" lon="7.09667444229126">
        <ele>1402.10546875</ele>
      </trkpt>
      <trkpt lat="46.039409637451172" lon="7.096631526947021">
        <ele>1401.7890625</ele>
      </trkpt>
      <trkpt lat="46.039302349090576" lon="7.096652984619141">
        <ele>1402.9140625</ele>
      </trkpt>
      <trkpt lat="46.0392165184021" lon="7.09667444229126">
        <ele>1403.82421875</ele>
      </trkpt>
      <trkpt lat="46.03895902633667" lon="7.096931934356689">
        <ele>1407.6875</ele>
      </trkpt>
      <trkpt lat="46.038894653320312" lon="7.097060680389404">
        <ele>1408.859375</ele>
      </trkpt>
      <trkpt lat="46.038765907287598" lon="7.097210884094238">
        <ele>1410.1484375</ele>
      </trkpt>
      <trkpt lat="46.038680076599121" lon="7.097339630126953">
        <ele>1410.91015625</ele>
      </trkpt>
      <trkpt lat="46.038358211517334" lon="7.097682952880859">
        <ele>1414.39453125</ele>
      </trkpt>
      <trkpt lat="46.038143634796143" lon="7.097811698913574">
        <ele>1415.94140625</ele>
      </trkpt>
      <trkpt lat="46.038014888763428" lon="7.097897529602051">
        <ele>1416.73828125</ele>
      </trkpt>
      <trkpt lat="46.037929058074951" lon="7.09791898727417">
        <ele>1417.125</ele>
      </trkpt>
      <trkpt lat="46.037800312042236" lon="7.09791898727417">
        <ele>1417.625</ele>
      </trkpt>
      <trkpt lat="46.037628650665283" lon="7.097811698913574">
        <ele>1419.0703125</ele>
      </trkpt>
      <trkpt lat="46.03745698928833" lon="7.097725868225098">
        <ele>1420.55859375</ele>
      </trkpt>
      <trkpt lat="46.037263870239258" lon="7.097704410552979">
        <ele>1422.33984375</ele>
      </trkpt>
      <trkpt lat="46.037178039550781" lon="7.097618579864502">
        <ele>1422.8984375</ele>
      </trkpt>
      <trkpt lat="46.037156581878662" lon="7.097575664520264">
        <ele>1422.96484375</ele>
      </trkpt>
      <trkpt lat="46.037092208862305" lon="7.097532749176025">
        <ele>1423.4140625</ele>
      </trkpt>
      <trkpt lat="46.037049293518066" lon="7.097532749176025">
        <ele>1423.796875</ele>
      </trkpt>
      <trkpt lat="46.037006378173828" lon="7.097554206848145">
        <ele>1424.25390625</ele>
      </trkpt>
      <trkpt lat="46.036984920501709" lon="7.097640037536621">
        <ele>1424.75</ele>
      </trkpt>
      <trkpt lat="46.037006378173828" lon="7.097811698913574">
        <ele>1425.140625</ele>
      </trkpt>
      <trkpt lat="46.036984920501709" lon="7.098047733306885">
        <ele>1426.17578125</ele>
      </trkpt>
      <trkpt lat="46.03696346282959" lon="7.098112106323242">
        <ele>1426.62890625</ele>
      </trkpt>
      <trkpt lat="46.036899089813232" lon="7.09815502166748">
        <ele>1427.359375</ele>
      </trkpt>
      <trkpt lat="46.036727428436279" lon="7.0981764793396">
        <ele>1428.87109375</ele>
      </trkpt>
      <trkpt lat="46.036362648010254" lon="7.098197937011719">
        <ele>1431.96484375</ele>
      </trkpt>
      <trkpt lat="46.036233901977539" lon="7.098197937011719">
        <ele>1433.046875</ele>
      </trkpt>
      <trkpt lat="46.036148071289062" lon="7.098240852355957">
        <ele>1433.8203125</ele>
      </trkpt>
      <trkpt lat="46.035976409912109" lon="7.098391056060791">
        <ele>1435.5234375</ele>
      </trkpt>
      <trkpt lat="46.03595495223999" lon="7.098648548126221">
        <ele>1435.90625</ele>
      </trkpt>
      <trkpt lat="46.035869121551514" lon="7.098863124847412">
        <ele>1436.71875</ele>
      </trkpt>
      <trkpt lat="46.035847663879395" lon="7.09890604019165">
        <ele>1436.8984375</ele>
      </trkpt>
      <trkpt lat="46.035761833190918" lon="7.099013328552246">
        <ele>1437.5625</ele>
      </trkpt>
      <trkpt lat="46.035268306732178" lon="7.099399566650391">
        <ele>1441.234375</ele>
      </trkpt>
      <trkpt lat="46.03520393371582" lon="7.099442481994629">
        <ele>1442.15625</ele>
      </trkpt>
      <trkpt lat="46.035161018371582" lon="7.099549770355225">
        <ele>1442.734375</ele>
      </trkpt>
      <trkpt lat="46.035139560699463" lon="7.09965705871582">
        <ele>1442.98828125</ele>
      </trkpt>
      <trkpt lat="46.035075187683105" lon="7.100450992584229">
        <ele>1447.79296875</ele>
      </trkpt>
      <trkpt lat="46.035096645355225" lon="7.100708484649658">
        <ele>1449.28515625</ele>
      </trkpt>
      <trkpt lat="46.035182476043701" lon="7.101008892059326">
        <ele>1450.91015625</ele>
      </trkpt>
      <trkpt lat="46.035139560699463" lon="7.100987434387207">
        <ele>1451.40625</ele>
      </trkpt>
      <trkpt lat="46.034903526306152" lon="7.100772857666016">
        <ele>1453.0078125</ele>
      </trkpt>
      <trkpt lat="46.034817695617676" lon="7.10066556930542">
        <ele>1453.2265625</ele>
      </trkpt>
      <trkpt lat="46.034560203552246" lon="7.100601196289062">
        <ele>1456.71875</ele>
      </trkpt>
      <trkpt lat="46.034259796142578" lon="7.10066556930542">
        <ele>1465.390625</ele>
      </trkpt>
      <trkpt lat="46.03395938873291" lon="7.100558280944824">
        <ele>1474.98828125</ele>
      </trkpt>
      <trkpt lat="46.033766269683838" lon="7.100472450256348">
        <ele>1481.34375</ele>
      </trkpt>
      <trkpt lat="46.033658981323242" lon="7.100236415863037">
        <ele>1484.46875</ele>
      </trkpt>
      <trkpt lat="46.033594608306885" lon="7.100257873535156">
        <ele>1487.2890625</ele>
      </trkpt>
      <trkpt lat="46.033530235290527" lon="7.100193500518799">
        <ele>1490.6328125</ele>
      </trkpt>
      <trkpt lat="46.033422946929932" lon="7.100429534912109">
        <ele>1496.53515625</ele>
      </trkpt>
      <trkpt lat="46.033380031585693" lon="7.100601196289062">
        <ele>1498.75390625</ele>
      </trkpt>
      <trkpt lat="46.033422946929932" lon="7.101030349731445">
        <ele>1497.671875</ele>
      </trkpt>
      <trkpt lat="46.033358573913574" lon="7.101180553436279">
        <ele>1500.76171875</ele>
      </trkpt>
      <trkpt lat="46.03320837020874" lon="7.101309299468994">
        <ele>1506.8828125</ele>
      </trkpt>
      <trkpt lat="46.033143997192383" lon="7.101480960845947">
        <ele>1509.140625</ele>
      </trkpt>
      <trkpt lat="46.033079624176025" lon="7.101845741271973">
        <ele>1510.1015625</ele>
      </trkpt>
      <trkpt lat="46.033079624176025" lon="7.102210521697998">
        <ele>1508.68359375</ele>
      </trkpt>
      <trkpt lat="46.032907962799072" lon="7.102553844451904">
        <ele>1510.62109375</ele>
      </trkpt>
      <trkpt lat="46.032800674438477" lon="7.102704048156738">
        <ele>1511.37890625</ele>
      </trkpt>
      <trkpt lat="46.032757759094238" lon="7.102897167205811">
        <ele>1509.796875</ele>
      </trkpt>
      <trkpt lat="46.032564640045166" lon="7.103111743927002">
        <ele>1512.28515625</ele>
      </trkpt>
      <trkpt lat="46.032521724700928" lon="7.103347778320312">
        <ele>1510.0546875</ele>
      </trkpt>
      <trkpt lat="46.032135486602783" lon="7.103798389434814">
        <ele>1510.09375</ele>
      </trkpt>
      <trkpt lat="46.032006740570068" lon="7.104034423828125">
        <ele>1506.859375</ele>
      </trkpt>
      <trkpt lat="46.031577587127686" lon="7.104442119598389">
        <ele>1506.80078125</ele>
      </trkpt>
      <trkpt lat="46.03172779083252" lon="7.104184627532959">
        <ele>1508.65234375</ele>
      </trkpt>
      <trkpt lat="46.031813621520996" lon="7.10390567779541">
        <ele>1512.6796875</ele>
      </trkpt>
      <trkpt lat="46.032006740570068" lon="7.103562355041504">
        <ele>1518.00390625</ele>
      </trkpt>
      <trkpt lat="46.032199859619141" lon="7.103283405303955">
        <ele>1519.59765625</ele>
      </trkpt>
      <trkpt lat="46.03222131729126" lon="7.103240489959717">
        <ele>1519.890625</ele>
      </trkpt>
      <trkpt lat="46.032242774963379" lon="7.10315465927124">
        <ele>1520.9296875</ele>
      </trkpt>
      <trkpt lat="46.032392978668213" lon="7.102832794189453">
        <ele>1521.59765625</ele>
      </trkpt>
      <trkpt lat="46.032371520996094" lon="7.102768421173096">
        <ele>1523.2421875</ele>
      </trkpt>
      <trkpt lat="46.032392978668213" lon="7.102704048156738">
        <ele>1523.59765625</ele>
      </trkpt>
      <trkpt lat="46.032392978668213" lon="7.102618217468262">
        <ele>1524.93359375</ele>
      </trkpt>
      <trkpt lat="46.032478809356689" lon="7.102489471435547">
        <ele>1524.2890625</ele>
      </trkpt>
      <trkpt lat="46.032521724700928" lon="7.102317810058594">
        <ele>1525.41796875</ele>
      </trkpt>
      <trkpt lat="46.032521724700928" lon="7.102231979370117">
        <ele>1526.09765625</ele>
      </trkpt>
      <trkpt lat="46.032500267028809" lon="7.102060317993164">
        <ele>1528.16796875</ele>
      </trkpt>
      <trkpt lat="46.032350063323975" lon="7.101845741271973">
        <ele>1535.12109375</ele>
      </trkpt>
      <trkpt lat="46.032350063323975" lon="7.101716995239258">
        <ele>1536.296875</ele>
      </trkpt>
      <trkpt lat="46.032371520996094" lon="7.101609706878662">
        <ele>1536.49609375</ele>
      </trkpt>
      <trkpt lat="46.032392978668213" lon="7.101309299468994">
        <ele>1539.1640625</ele>
      </trkpt>
      <trkpt lat="46.032414436340332" lon="7.10115909576416">
        <ele>1540.19140625</ele>
      </trkpt>
      <trkpt lat="46.032392978668213" lon="7.101051807403564">
        <ele>1542.4765625</ele>
      </trkpt>
      <trkpt lat="46.032435894012451" lon="7.10090160369873">
        <ele>1542.4375</ele>
      </trkpt>
      <trkpt lat="46.03245735168457" lon="7.100558280944824">
        <ele>1545.5234375</ele>
      </trkpt>
      <trkpt lat="46.032521724700928" lon="7.100257873535156">
        <ele>1545.40234375</ele>
      </trkpt>
      <trkpt lat="46.032564640045166" lon="7.100129127502441">
        <ele>1544.24609375</ele>
      </trkpt>
      <trkpt lat="46.032564640045166" lon="7.099742889404297">
        <ele>1546.81640625</ele>
      </trkpt>
      <trkpt lat="46.032586097717285" lon="7.099485397338867">
        <ele>1544.76171875</ele>
      </trkpt>
      <trkpt lat="46.032586097717285" lon="7.099249362945557">
        <ele>1544.125</ele>
      </trkpt>
      <trkpt lat="46.032543182373047" lon="7.099056243896484">
        <ele>1546.2890625</ele>
      </trkpt>
      <trkpt lat="46.032500267028809" lon="7.098884582519531">
        <ele>1547.64453125</ele>
      </trkpt>
      <trkpt lat="46.032500267028809" lon="7.098841667175293">
        <ele>1547.23046875</ele>
      </trkpt>
      <trkpt lat="46.03245735168457" lon="7.098648548126221">
        <ele>1547.984375</ele>
      </trkpt>
      <trkpt lat="46.032414436340332" lon="7.098498344421387">
        <ele>1549.09375</ele>
      </trkpt>
      <trkpt lat="46.032371520996094" lon="7.098262310028076">
        <ele>1549.26953125</ele>
      </trkpt>
      <trkpt lat="46.032350063323975" lon="7.098112106323242">
        <ele>1549.31640625</ele>
      </trkpt>
      <trkpt lat="46.032307147979736" lon="7.09791898727417">
        <ele>1550.6171875</ele>
      </trkpt>
      <trkpt lat="46.032028198242188" lon="7.097339630126953">
        <ele>1558.84375</ele>
      </trkpt>
      <trkpt lat="46.031985282897949" lon="7.097210884094238">
        <ele>1560.58203125</ele>
      </trkpt>
      <trkpt lat="46.03196382522583" lon="7.096996307373047">
        <ele>1561.21484375</ele>
      </trkpt>
      <trkpt lat="46.03196382522583" lon="7.096738815307617">
        <ele>1560.96484375</ele>
      </trkpt>
      <trkpt lat="46.032006740570068" lon="7.096524238586426">
        <ele>1559.7109375</ele>
      </trkpt>
      <trkpt lat="46.032028198242188" lon="7.096095085144043">
        <ele>1561.18359375</ele>
      </trkpt>
      <trkpt lat="46.031856536865234" lon="7.095708847045898">
        <ele>1567.27734375</ele>
      </trkpt>
      <trkpt lat="46.031684875488281" lon="7.095193862915039">
        <ele>1573.56640625</ele>
      </trkpt>
      <trkpt lat="46.031620502471924" lon="7.095129489898682">
        <ele>1575.58203125</ele>
      </trkpt>
      <trkpt lat="46.031534671783447" lon="7.094871997833252">
        <ele>1578.07421875</ele>
      </trkpt>
      <trkpt lat="46.031556129455566" lon="7.094657421112061">
        <ele>1579.9453125</ele>
      </trkpt>
      <trkpt lat="46.031599044799805" lon="7.094571590423584">
        <ele>1579.99609375</ele>
      </trkpt>
      <trkpt lat="46.031534671783447" lon="7.094464302062988">
        <ele>1583.0625</ele>
      </trkpt>
      <trkpt lat="46.03147029876709" lon="7.09442138671875">
        <ele>1585.16796875</ele>
      </trkpt>
      <trkpt lat="46.031427383422852" lon="7.09442138671875">
        <ele>1586.1953125</ele>
      </trkpt>
      <trkpt lat="46.031405925750732" lon="7.094378471374512">
        <ele>1587.2109375</ele>
      </trkpt>
      <trkpt lat="46.031427383422852" lon="7.094314098358154">
        <ele>1587.4765625</ele>
      </trkpt>
      <trkpt lat="46.031384468078613" lon="7.094357013702393">
        <ele>1587.9609375</ele>
      </trkpt>
      <trkpt lat="46.031298637390137" lon="7.094335556030273">
        <ele>1590.1796875</ele>
      </trkpt>
      <trkpt lat="46.031277179718018" lon="7.094228267669678">
        <ele>1591.765625</ele>
      </trkpt>
      <trkpt lat="46.03121280670166" lon="7.094206809997559">
        <ele>1593.3671875</ele>
      </trkpt>
      <trkpt lat="46.031169891357422" lon="7.094228267669678">
        <ele>1594.09765625</ele>
      </trkpt>
      <trkpt lat="46.031084060668945" lon="7.094335556030273">
        <ele>1595.3828125</ele>
      </trkpt>
      <trkpt lat="46.031062602996826" lon="7.094464302062988">
        <ele>1595.05078125</ele>
      </trkpt>
      <trkpt lat="46.030869483947754" lon="7.09442138671875">
        <ele>1601.51171875</ele>
      </trkpt>
      <trkpt lat="46.030826568603516" lon="7.094399929046631">
        <ele>1602.97265625</ele>
      </trkpt>
      <trkpt lat="46.030805110931396" lon="7.094357013702393">
        <ele>1603.83203125</ele>
      </trkpt>
      <trkpt lat="46.030740737915039" lon="7.094357013702393">
        <ele>1605.8203125</ele>
      </trkpt>
      <trkpt lat="46.030547618865967" lon="7.094292640686035">
        <ele>1611.8515625</ele>
      </trkpt>
      <trkpt lat="46.03046178817749" lon="7.094249725341797">
        <ele>1614.42578125</ele>
      </trkpt>
      <trkpt lat="46.030397415161133" lon="7.094099521636963">
        <ele>1616.1796875</ele>
      </trkpt>
      <trkpt lat="46.030333042144775" lon="7.094056606292725">
        <ele>1617.87890625</ele>
      </trkpt>
      <trkpt lat="46.030311584472656" lon="7.094120979309082">
        <ele>1618.59375</ele>
      </trkpt>
      <trkpt lat="46.030268669128418" lon="7.094035148620605">
        <ele>1619.65234375</ele>
      </trkpt>
      <trkpt lat="46.03022575378418" lon="7.093992233276367">
        <ele>1620.9765625</ele>
      </trkpt>
      <trkpt lat="46.030182838439941" lon="7.094013690948486">
        <ele>1622.27734375</ele>
      </trkpt>
      <trkpt lat="46.030139923095703" lon="7.094013690948486">
        <ele>1623.62109375</ele>
      </trkpt>
      <trkpt lat="46.030097007751465" lon="7.094056606292725">
        <ele>1625.2421875</ele>
      </trkpt>
      <trkpt lat="46.029925346374512" lon="7.093949317932129">
        <ele>1630.23828125</ele>
      </trkpt>
      <trkpt lat="46.029839515686035" lon="7.093820571899414">
        <ele>1632.5625</ele>
      </trkpt>
      <trkpt lat="46.029732227325439" lon="7.093477249145508">
        <ele>1634.41015625</ele>
      </trkpt>
      <trkpt lat="46.029732227325439" lon="7.093348503112793">
        <ele>1633.9453125</ele>
      </trkpt>
      <trkpt lat="46.029667854309082" lon="7.09317684173584">
        <ele>1634.6484375</ele>
      </trkpt>
      <trkpt lat="46.029667854309082" lon="7.09317684173584">
        <ele>1634.6484375</ele>
      </trkpt>
      <trkpt lat="46.029755445197225" lon="7.093112887814641">
        <ele>1632.90625</ele>
      </trkpt>
      <trkpt lat="46.029755529016256" lon="7.093112133443356">
        <ele>1632.90625</ele>
      </trkpt>
      <trkpt lat="46.029839683324099" lon="7.092942735180259">
        <ele>1631.59765625</ele>
      </trkpt>
      <trkpt lat="46.029839683324099" lon="7.092942567542195">
        <ele>1631.59765625</ele>
      </trkpt>
    </trkseg>
  </trk>
</gpx>
